<?xml version="1.0" encoding="UTF-8"?>
<kml xmlns="http://www.opengis.net/kml/2.2">
  <Document>
    <name>Overlays</name>
    <Style id="icon-1739-817717-normal">
      <IconStyle>
        <color>ff177781</color>
        <scale>1</scale>
        <Icon>
          <href>https://www.gstatic.com/mapspro/images/stock/503-wht-blank_maps.png</href>
        </Icon>
      </IconStyle>
      <LabelStyle>
        <scale>0</scale>
      </LabelStyle>
    </Style>
    <Style id="icon-1739-817717-highlight">
      <IconStyle>
        <color>ff177781</color>
        <scale>1</scale>
        <Icon>
          <href>https://www.gstatic.com/mapspro/images/stock/503-wht-blank_maps.png</href>
        </Icon>
      </IconStyle>
      <LabelStyle>
        <scale>1</scale>
      </LabelStyle>
    </Style>
    <StyleMap id="icon-1739-817717">
      <Pair>
        <key>normal</key>
        <styleUrl>#icon-1739-817717-normal</styleUrl>
      </Pair>
      <Pair>
        <key>highlight</key>
        <styleUrl>#icon-1739-817717-highlight</styleUrl>
      </Pair>
    </StyleMap>
    <Style id="icon-1739-C2185B-normal">
      <IconStyle>
        <color>ff5b18c2</color>
        <scale>1</scale>
        <Icon>
          <href>https://www.gstatic.com/mapspro/images/stock/503-wht-blank_maps.png</href>
        </Icon>
      </IconStyle>
      <LabelStyle>
        <scale>0</scale>
      </LabelStyle>
    </Style>
    <Style id="icon-1739-C2185B-highlight">
      <IconStyle>
        <color>ff5b18c2</color>
        <scale>1</scale>
        <Icon>
          <href>https://www.gstatic.com/mapspro/images/stock/503-wht-blank_maps.png</href>
        </Icon>
      </IconStyle>
      <LabelStyle>
        <scale>1</scale>
      </LabelStyle>
    </Style>
    <StyleMap id="icon-1739-C2185B">
      <Pair>
        <key>normal</key>
        <styleUrl>#icon-1739-C2185B-normal</styleUrl>
      </Pair>
      <Pair>
        <key>highlight</key>
        <styleUrl>#icon-1739-C2185B-highlight</styleUrl>
      </Pair>
    </StyleMap>
    <Style id="poly-000000-1200-227-nodesc-normal">
      <LineStyle>
        <color>ff000000</color>
        <width>1.2</width>
      </LineStyle>
      <PolyStyle>
        <color>e3000000</color>
        <fill>1</fill>
        <outline>1</outline>
      </PolyStyle>
      <BalloonStyle>
        <text><![CDATA[<h3>$[name]</h3>]]></text>
      </BalloonStyle>
    </Style>
    <Style id="poly-000000-1200-227-nodesc-highlight">
      <LineStyle>
        <color>ff000000</color>
        <width>1.8</width>
      </LineStyle>
      <PolyStyle>
        <color>e3000000</color>
        <fill>1</fill>
        <outline>1</outline>
      </PolyStyle>
      <BalloonStyle>
        <text><![CDATA[<h3>$[name]</h3>]]></text>
      </BalloonStyle>
    </Style>
    <StyleMap id="poly-000000-1200-227-nodesc">
      <Pair>
        <key>normal</key>
        <styleUrl>#poly-000000-1200-227-nodesc-normal</styleUrl>
      </Pair>
      <Pair>
        <key>highlight</key>
        <styleUrl>#poly-000000-1200-227-nodesc-highlight</styleUrl>
      </Pair>
    </StyleMap>
    <Style id="poly-000000-1200-230-nodesc-normal">
      <LineStyle>
        <color>ff000000</color>
        <width>1.2</width>
      </LineStyle>
      <PolyStyle>
        <color>e6000000</color>
        <fill>1</fill>
        <outline>1</outline>
      </PolyStyle>
      <BalloonStyle>
        <text><![CDATA[<h3>$[name]</h3>]]></text>
      </BalloonStyle>
    </Style>
    <Style id="poly-000000-1200-230-nodesc-highlight">
      <LineStyle>
        <color>ff000000</color>
        <width>1.8</width>
      </LineStyle>
      <PolyStyle>
        <color>e6000000</color>
        <fill>1</fill>
        <outline>1</outline>
      </PolyStyle>
      <BalloonStyle>
        <text><![CDATA[<h3>$[name]</h3>]]></text>
      </BalloonStyle>
    </Style>
    <StyleMap id="poly-000000-1200-230-nodesc">
      <Pair>
        <key>normal</key>
        <styleUrl>#poly-000000-1200-230-nodesc-normal</styleUrl>
      </Pair>
      <Pair>
        <key>highlight</key>
        <styleUrl>#poly-000000-1200-230-nodesc-highlight</styleUrl>
      </Pair>
    </StyleMap>
    <Style id="poly-000000-398-224-nodesc-normal">
      <LineStyle>
        <color>ff000000</color>
        <width>0.398</width>
      </LineStyle>
      <PolyStyle>
        <color>e0000000</color>
        <fill>1</fill>
        <outline>1</outline>
      </PolyStyle>
      <BalloonStyle>
        <text><![CDATA[<h3>$[name]</h3>]]></text>
      </BalloonStyle>
    </Style>
    <Style id="poly-000000-398-224-nodesc-highlight">
      <LineStyle>
        <color>ff000000</color>
        <width>0.597</width>
      </LineStyle>
      <PolyStyle>
        <color>e0000000</color>
        <fill>1</fill>
        <outline>1</outline>
      </PolyStyle>
      <BalloonStyle>
        <text><![CDATA[<h3>$[name]</h3>]]></text>
      </BalloonStyle>
    </Style>
    <StyleMap id="poly-000000-398-224-nodesc">
      <Pair>
        <key>normal</key>
        <styleUrl>#poly-000000-398-224-nodesc-normal</styleUrl>
      </Pair>
      <Pair>
        <key>highlight</key>
        <styleUrl>#poly-000000-398-224-nodesc-highlight</styleUrl>
      </Pair>
    </StyleMap>
    <Style id="poly-01579B-1200-82-normal">
      <LineStyle>
        <color>ff9b5701</color>
        <width>1.2</width>
      </LineStyle>
      <PolyStyle>
        <color>529b5701</color>
        <fill>1</fill>
        <outline>1</outline>
      </PolyStyle>
    </Style>
    <Style id="poly-01579B-1200-82-highlight">
      <LineStyle>
        <color>ff9b5701</color>
        <width>1.8</width>
      </LineStyle>
      <PolyStyle>
        <color>529b5701</color>
        <fill>1</fill>
        <outline>1</outline>
      </PolyStyle>
    </Style>
    <StyleMap id="poly-01579B-1200-82">
      <Pair>
        <key>normal</key>
        <styleUrl>#poly-01579B-1200-82-normal</styleUrl>
      </Pair>
      <Pair>
        <key>highlight</key>
        <styleUrl>#poly-01579B-1200-82-highlight</styleUrl>
      </Pair>
    </StyleMap>
    <Style id="poly-795548-1200-92-nodesc-normal">
      <LineStyle>
        <color>ff485579</color>
        <width>1.2</width>
      </LineStyle>
      <PolyStyle>
        <color>5c485579</color>
        <fill>1</fill>
        <outline>1</outline>
      </PolyStyle>
      <BalloonStyle>
        <text><![CDATA[<h3>$[name]</h3>]]></text>
      </BalloonStyle>
    </Style>
    <Style id="poly-795548-1200-92-nodesc-highlight">
      <LineStyle>
        <color>ff485579</color>
        <width>1.8</width>
      </LineStyle>
      <PolyStyle>
        <color>5c485579</color>
        <fill>1</fill>
        <outline>1</outline>
      </PolyStyle>
      <BalloonStyle>
        <text><![CDATA[<h3>$[name]</h3>]]></text>
      </BalloonStyle>
    </Style>
    <StyleMap id="poly-795548-1200-92-nodesc">
      <Pair>
        <key>normal</key>
        <styleUrl>#poly-795548-1200-92-nodesc-normal</styleUrl>
      </Pair>
      <Pair>
        <key>highlight</key>
        <styleUrl>#poly-795548-1200-92-nodesc-highlight</styleUrl>
      </Pair>
    </StyleMap>
    <Style id="poly-A1C2FA-1200-33-normal">
      <LineStyle>
        <color>fffac2a1</color>
        <width>1.2</width>
      </LineStyle>
      <PolyStyle>
        <color>21fac2a1</color>
        <fill>1</fill>
        <outline>1</outline>
      </PolyStyle>
    </Style>
    <Style id="poly-A1C2FA-1200-33-highlight">
      <LineStyle>
        <color>fffac2a1</color>
        <width>1.8</width>
      </LineStyle>
      <PolyStyle>
        <color>21fac2a1</color>
        <fill>1</fill>
        <outline>1</outline>
      </PolyStyle>
    </Style>
    <StyleMap id="poly-A1C2FA-1200-33">
      <Pair>
        <key>normal</key>
        <styleUrl>#poly-A1C2FA-1200-33-normal</styleUrl>
      </Pair>
      <Pair>
        <key>highlight</key>
        <styleUrl>#poly-A1C2FA-1200-33-highlight</styleUrl>
      </Pair>
    </StyleMap>
    <Style id="poly-A1C2FA-1200-77-normal">
      <LineStyle>
        <color>fffac2a1</color>
        <width>1.2</width>
      </LineStyle>
      <PolyStyle>
        <color>4dfac2a1</color>
        <fill>1</fill>
        <outline>1</outline>
      </PolyStyle>
    </Style>
    <Style id="poly-A1C2FA-1200-77-highlight">
      <LineStyle>
        <color>fffac2a1</color>
        <width>1.8</width>
      </LineStyle>
      <PolyStyle>
        <color>4dfac2a1</color>
        <fill>1</fill>
        <outline>1</outline>
      </PolyStyle>
    </Style>
    <StyleMap id="poly-A1C2FA-1200-77">
      <Pair>
        <key>normal</key>
        <styleUrl>#poly-A1C2FA-1200-77-normal</styleUrl>
      </Pair>
      <Pair>
        <key>highlight</key>
        <styleUrl>#poly-A1C2FA-1200-77-highlight</styleUrl>
      </Pair>
    </StyleMap>
    <Style id="poly-C2185B-995-41-normal">
      <LineStyle>
        <color>ff5b18c2</color>
        <width>0.995</width>
      </LineStyle>
      <PolyStyle>
        <color>295b18c2</color>
        <fill>1</fill>
        <outline>1</outline>
      </PolyStyle>
    </Style>
    <Style id="poly-C2185B-995-41-highlight">
      <LineStyle>
        <color>ff5b18c2</color>
        <width>1.4925</width>
      </LineStyle>
      <PolyStyle>
        <color>295b18c2</color>
        <fill>1</fill>
        <outline>1</outline>
      </PolyStyle>
    </Style>
    <StyleMap id="poly-C2185B-995-41">
      <Pair>
        <key>normal</key>
        <styleUrl>#poly-C2185B-995-41-normal</styleUrl>
      </Pair>
      <Pair>
        <key>highlight</key>
        <styleUrl>#poly-C2185B-995-41-highlight</styleUrl>
      </Pair>
    </StyleMap>
    <Style id="poly-E65100-1200-20-nodesc-normal">
      <LineStyle>
        <color>ff0051e6</color>
        <width>1.2</width>
      </LineStyle>
      <PolyStyle>
        <color>140051e6</color>
        <fill>1</fill>
        <outline>1</outline>
      </PolyStyle>
      <BalloonStyle>
        <text><![CDATA[<h3>$[name]</h3>]]></text>
      </BalloonStyle>
    </Style>
    <Style id="poly-E65100-1200-20-nodesc-highlight">
      <LineStyle>
        <color>ff0051e6</color>
        <width>1.8</width>
      </LineStyle>
      <PolyStyle>
        <color>140051e6</color>
        <fill>1</fill>
        <outline>1</outline>
      </PolyStyle>
      <BalloonStyle>
        <text><![CDATA[<h3>$[name]</h3>]]></text>
      </BalloonStyle>
    </Style>
    <StyleMap id="poly-E65100-1200-20-nodesc">
      <Pair>
        <key>normal</key>
        <styleUrl>#poly-E65100-1200-20-nodesc-normal</styleUrl>
      </Pair>
      <Pair>
        <key>highlight</key>
        <styleUrl>#poly-E65100-1200-20-nodesc-highlight</styleUrl>
      </Pair>
    </StyleMap>
    <Style id="poly-F48FB1-1200-77-nodesc-normal">
      <LineStyle>
        <color>ffb18ff4</color>
        <width>1.2</width>
      </LineStyle>
      <PolyStyle>
        <color>4db18ff4</color>
        <fill>1</fill>
        <outline>1</outline>
      </PolyStyle>
      <BalloonStyle>
        <text><![CDATA[<h3>$[name]</h3>]]></text>
      </BalloonStyle>
    </Style>
    <Style id="poly-F48FB1-1200-77-nodesc-highlight">
      <LineStyle>
        <color>ffb18ff4</color>
        <width>1.8</width>
      </LineStyle>
      <PolyStyle>
        <color>4db18ff4</color>
        <fill>1</fill>
        <outline>1</outline>
      </PolyStyle>
      <BalloonStyle>
        <text><![CDATA[<h3>$[name]</h3>]]></text>
      </BalloonStyle>
    </Style>
    <StyleMap id="poly-F48FB1-1200-77-nodesc">
      <Pair>
        <key>normal</key>
        <styleUrl>#poly-F48FB1-1200-77-nodesc-normal</styleUrl>
      </Pair>
      <Pair>
        <key>highlight</key>
        <styleUrl>#poly-F48FB1-1200-77-nodesc-highlight</styleUrl>
      </Pair>
    </StyleMap>
    <Style id="poly-FADA80-1200-77-normal">
      <LineStyle>
        <color>ff80dafa</color>
        <width>1.2</width>
      </LineStyle>
      <PolyStyle>
        <color>4d80dafa</color>
        <fill>1</fill>
        <outline>1</outline>
      </PolyStyle>
    </Style>
    <Style id="poly-FADA80-1200-77-highlight">
      <LineStyle>
        <color>ff80dafa</color>
        <width>1.8</width>
      </LineStyle>
      <PolyStyle>
        <color>4d80dafa</color>
        <fill>1</fill>
        <outline>1</outline>
      </PolyStyle>
    </Style>
    <StyleMap id="poly-FADA80-1200-77">
      <Pair>
        <key>normal</key>
        <styleUrl>#poly-FADA80-1200-77-normal</styleUrl>
      </Pair>
      <Pair>
        <key>highlight</key>
        <styleUrl>#poly-FADA80-1200-77-highlight</styleUrl>
      </Pair>
    </StyleMap>
    <Style id="poly-FFD600-697-59-normal">
      <LineStyle>
        <color>ff00d6ff</color>
        <width>0.697</width>
      </LineStyle>
      <PolyStyle>
        <color>3b00d6ff</color>
        <fill>1</fill>
        <outline>1</outline>
      </PolyStyle>
    </Style>
    <Style id="poly-FFD600-697-59-highlight">
      <LineStyle>
        <color>ff00d6ff</color>
        <width>1.0455</width>
      </LineStyle>
      <PolyStyle>
        <color>3b00d6ff</color>
        <fill>1</fill>
        <outline>1</outline>
      </PolyStyle>
    </Style>
    <StyleMap id="poly-FFD600-697-59">
      <Pair>
        <key>normal</key>
        <styleUrl>#poly-FFD600-697-59-normal</styleUrl>
      </Pair>
      <Pair>
        <key>highlight</key>
        <styleUrl>#poly-FFD600-697-59-highlight</styleUrl>
      </Pair>
    </StyleMap>
    <Placemark>
      <name>Arts Precinct</name>
      <styleUrl>#poly-795548-1200-92-nodesc</styleUrl>
      <Polygon>
        <outerBoundaryIs>
          <LinearRing>
            <tessellate>1</tessellate>
            <coordinates>
              144.1434161,-35.1472285,0
              144.1433423,-35.1473031,0
              144.1432324,-35.1473437,0
              144.1431076,-35.1473579,0
              144.1430312,-35.1473239,0
              144.1428645,-35.1472587,0
              144.1427411,-35.1473135,0
              144.1425896,-35.1473267,0
              144.142658,-35.1475942,0
              144.1428135,-35.1476666,0
              144.1431703,-35.1476962,0
              144.1433983,-35.1477105,0
              144.1436772,-35.1477686,0
              144.1437034,-35.1477286,0
              144.143759,-35.1476611,0
              144.1438006,-35.1476759,0
              144.1438274,-35.1477072,0
              144.1439159,-35.1476831,0
              144.1439615,-35.1476228,0
              144.143924,-35.1475592,0
              144.1438221,-35.1475657,0
              144.1437292,-35.1476175,0
              144.1436701,-35.1475627,0
              144.1436138,-35.1475035,0
              144.1436075,-35.1472368,0
              144.1434161,-35.1472285,0
            </coordinates>
          </LinearRing>
        </outerBoundaryIs>
      </Polygon>
    </Placemark>
    <Placemark>
      <name>Flatlands </name>
      <description><![CDATA[large open and completely flat zone, individual clearings not marked because it's extremely open.]]></description>
      <styleUrl>#poly-FFD600-697-59</styleUrl>
      <Polygon>
        <outerBoundaryIs>
          <LinearRing>
            <tessellate>1</tessellate>
            <coordinates>
              144.1454767,-35.149192,0
              144.1448126,-35.1494328,0
              144.1445562,-35.1498055,0
              144.1440082,-35.1502293,0
              144.1445151,-35.1507008,0
              144.1448588,-35.1507278,0
              144.1451865,-35.1508513,0
              144.1452168,-35.1508285,0
              144.1458544,-35.1510004,0
              144.145877,-35.1510198,0
              144.1460176,-35.151015,0
              144.1461835,-35.1510045,0
              144.1464477,-35.150998,0
              144.1467119,-35.1509004,0
              144.1465134,-35.1503214,0
              144.146036,-35.1498828,0
              144.1455425,-35.1494617,0
              144.1454767,-35.149192,0
            </coordinates>
          </LinearRing>
        </outerBoundaryIs>
      </Polygon>
    </Placemark>
    <Placemark>
      <name>Lifeguard Beach </name>
      <description>Managed by DTE lifeguards</description>
      <styleUrl>#poly-FADA80-1200-77</styleUrl>
      <Polygon>
        <outerBoundaryIs>
          <LinearRing>
            <tessellate>1</tessellate>
            <coordinates>
              144.1433356,-35.1471715,0
              144.1432806,-35.1472274,0
              144.1431881,-35.1472647,0
              144.1430232,-35.1472899,0
              144.1430312,-35.1473206,0
              144.1431076,-35.1473546,0
              144.1432324,-35.1473404,0
              144.1433423,-35.1472998,0
              144.1434161,-35.1472252,0
              144.1433356,-35.1471715,0
            </coordinates>
          </LinearRing>
        </outerBoundaryIs>
      </Polygon>
    </Placemark>
    <Placemark>
      <name>Flatlands Edge marker</name>
      <description>///grazer.emerge.hallways</description>
      <styleUrl>#icon-1739-817717</styleUrl>
      <Point>
        <coordinates>
          144.144818,-35.1494262,0
        </coordinates>
      </Point>
    </Placemark>
    <Placemark>
      <name>wemba corner - swaycation </name>
      <description>///undone.schoolwork.revised</description>
      <styleUrl>#icon-1739-C2185B</styleUrl>
      <Point>
        <coordinates>
          144.1445676,-35.148682,0
        </coordinates>
      </Point>
    </Placemark>
    <Placemark>
      <name>wemba corner flatlands </name>
      <description>///understanding.hooves.prelude</description>
      <styleUrl>#icon-1739-C2185B</styleUrl>
      <Point>
        <coordinates>
          144.1447567,-35.1491699,0
        </coordinates>
      </Point>
    </Placemark>
    <Placemark>
      <name>wemba corner - fire tribe </name>
      <description>///clocked.joking.headrests</description>
      <styleUrl>#icon-1739-C2185B</styleUrl>
      <Point>
        <coordinates>
          144.1454627,-35.1491421,0
        </coordinates>
      </Point>
    </Placemark>
    <Placemark>
      <name>wemba boarder rd</name>
      <description>///detention.useless.scraps</description>
      <styleUrl>#icon-1739-C2185B</styleUrl>
      <Point>
        <coordinates>
          144.1454927,-35.1483548,0
        </coordinates>
      </Point>
    </Placemark>
    <Placemark>
      <name>Wemba boarder rd</name>
      <description>///classic.thorny.imbalances</description>
      <styleUrl>#icon-1739-C2185B</styleUrl>
      <Point>
        <coordinates>
          144.1456595,-35.1487491,0
        </coordinates>
      </Point>
    </Placemark>
    <Placemark>
      <name>Tranquility</name>
      <description>Sober, Drug Free and Quiet space for all.</description>
      <styleUrl>#poly-A1C2FA-1200-77</styleUrl>
      <Polygon>
        <outerBoundaryIs>
          <LinearRing>
            <tessellate>1</tessellate>
            <coordinates>
              144.1467945,-35.1509516,0
              144.1473292,-35.1516009,0
              144.1474006,-35.1518486,0
              144.147607,-35.1520194,0
              144.148931,-35.1534917,0
              144.1494835,-35.153257,0
              144.1497464,-35.1531342,0
              144.1499744,-35.1531868,0
              144.1501729,-35.153121,0
              144.1488787,-35.1517991,0
              144.1485756,-35.1515431,0
              144.1483664,-35.1514493,0
              144.1483463,-35.1512262,0
              144.1482001,-35.1508746,0
              144.1478139,-35.1504974,0
              144.1467945,-35.1509516,0
            </coordinates>
          </LinearRing>
        </outerBoundaryIs>
      </Polygon>
    </Placemark>
    <Placemark>
      <name>Hive</name>
      <description>Volunteer Support and Kitchen</description>
      <styleUrl>#poly-A1C2FA-1200-33</styleUrl>
      <Polygon>
        <outerBoundaryIs>
          <LinearRing>
            <tessellate>1</tessellate>
            <coordinates>
              144.1458216,-35.1471344,0
              144.145709,-35.1472002,0
              144.1455722,-35.1472089,0
              144.1454837,-35.1473098,0
              144.1455212,-35.1474326,0
              144.1457385,-35.1475116,0
              144.1458592,-35.1475429,0
              144.1458994,-35.1476224,0
              144.1459262,-35.1477628,0
              144.1460358,-35.1478233,0
              144.1461562,-35.1478466,0
              144.1462749,-35.1478735,0
              144.1464221,-35.1479193,0
              144.1465586,-35.1479497,0
              144.146751,-35.1478921,0
              144.1468442,-35.1477732,0
              144.146873,-35.1476498,0
              144.1467711,-35.1472594,0
              144.1466692,-35.1471498,0
              144.1465083,-35.1471476,0
              144.1462588,-35.147187,0
              144.1460711,-35.1471782,0
              144.1459906,-35.1471125,0
              144.1459403,-35.1470834,0
              144.145882,-35.1471004,0
              144.1458216,-35.1471344,0
            </coordinates>
          </LinearRing>
        </outerBoundaryIs>
      </Polygon>
    </Placemark>
    <Placemark>
      <name>Site Ops </name>
      <styleUrl>#poly-F48FB1-1200-77-nodesc</styleUrl>
      <Polygon>
        <outerBoundaryIs>
          <LinearRing>
            <tessellate>1</tessellate>
            <coordinates>
              144.1470932,-35.1478381,0
              144.1470577,-35.147888,0
              144.1470221,-35.1479444,0
              144.14701,-35.1480387,0
              144.1471388,-35.1481473,0
              144.1472756,-35.1482526,0
              144.1473655,-35.1483052,0
              144.1474372,-35.1483578,0
              144.1475251,-35.1483293,0
              144.1476618,-35.1482702,0
              144.1478026,-35.1480892,0
              144.1477721,-35.1480149,0
              144.1477041,-35.1479757,0
              144.1475358,-35.1478994,0
              144.1474258,-35.1478578,0
              144.1472622,-35.1478183,0
              144.1471468,-35.1478293,0
              144.1470932,-35.1478381,0
            </coordinates>
          </LinearRing>
        </outerBoundaryIs>
      </Polygon>
    </Placemark>
    <Placemark>
      <name>Market </name>
      <styleUrl>#poly-E65100-1200-20-nodesc</styleUrl>
      <Polygon>
        <outerBoundaryIs>
          <LinearRing>
            <tessellate>1</tessellate>
            <coordinates>
              144.1487153,-35.149087,0
              144.1486355,-35.1490069,0
              144.1483787,-35.1489093,0
              144.1479857,-35.1487449,0
              144.1472749,-35.1482974,0
              144.1471274,-35.1483545,0
              144.1469779,-35.1484285,0
              144.1468498,-35.1485288,0
              144.1468136,-35.1488128,0
              144.1467412,-35.149109,0
              144.1466178,-35.1494291,0
              144.1465346,-35.1496879,0
              144.1468619,-35.1499664,0
              144.1471489,-35.1502208,0
              144.1471891,-35.1502855,0
              144.1472669,-35.1503327,0
              144.1473286,-35.1503195,0
              144.1473876,-35.1502691,0
              144.1476089,-35.1501945,0
              144.1478194,-35.1501222,0
              144.1479777,-35.1502274,0
              144.1482298,-35.1501178,0
              144.1483854,-35.1500147,0
              144.1484497,-35.1498853,0
              144.1487153,-35.149087,0
            </coordinates>
          </LinearRing>
        </outerBoundaryIs>
      </Polygon>
    </Placemark>
    <Placemark>
      <name>No Access - Aboriginal / Environmental Area</name>
      <styleUrl>#poly-000000-1200-230-nodesc</styleUrl>
      <Polygon>
        <outerBoundaryIs>
          <LinearRing>
            <tessellate>1</tessellate>
            <coordinates>
              144.1429184,-35.1459305,0
              144.1431196,-35.145948,0
              144.1434494,-35.1460478,0
              144.1437686,-35.1461783,0
              144.143961,-35.1464063,0
              144.1443614,-35.1464794,0
              144.1450273,-35.1465218,0
              144.1459986,-35.1465445,0
              144.1463209,-35.1464254,0
              144.145924,-35.1463289,0
              144.1453071,-35.1458902,0
              144.1453285,-35.1457718,0
              144.1454814,-35.1457586,0
              144.145586,-35.1457191,0
              144.1460608,-35.1456754,0
              144.146093,-35.1457861,0
              144.1461278,-35.1459802,0
              144.1463907,-35.1460986,0
              144.1468815,-35.1460832,0
              144.1471337,-35.1459209,0
              144.1475172,-35.145491,0
              144.1477962,-35.1449713,0
              144.1478015,-35.1446357,0
              144.1477447,-35.1444708,0
              144.1476675,-35.1442387,0
              144.1477548,-35.1441786,0
              144.147559,-35.1436105,0
              144.1468241,-35.1424042,0
              144.1447856,-35.1411759,0
              144.1447856,-35.1406934,0
              144.1445174,-35.1402898,0
              144.1440077,-35.1399411,0
              144.1433372,-35.1396626,0
              144.1427739,-35.1394213,0
              144.1424466,-35.1395924,0
              144.1418512,-35.1398095,0
              144.1416715,-35.1400233,0
              144.1414207,-35.1400908,0
              144.1413631,-35.1403117,0
              144.1407302,-35.1407957,0
              144.1402743,-35.1408929,0
              144.1397862,-35.1409374,0
              144.1387455,-35.1413936,0
              144.1386168,-35.1423499,0
              144.1387777,-35.143622,0
              144.1387348,-35.1449643,0
              144.1386704,-35.1462013,0
              144.1392605,-35.1467803,0
              144.1407411,-35.1465259,0
              144.1412561,-35.1461136,0
              144.1416101,-35.1458986,0
              144.1427628,-35.1460928,0
              144.1427709,-35.1459897,0
              144.1429184,-35.1459305,0
            </coordinates>
          </LinearRing>
        </outerBoundaryIs>
      </Polygon>
    </Placemark>
    <Placemark>
      <name>No Access - Biodiversity Area</name>
      <styleUrl>#poly-000000-1200-227-nodesc</styleUrl>
      <Polygon>
        <outerBoundaryIs>
          <LinearRing>
            <tessellate>1</tessellate>
            <coordinates>
              144.1506322,-35.1447214,0
              144.1514262,-35.145046,0
              144.1520377,-35.1446161,0
              144.1522335,-35.1444626,0
              144.1526171,-35.1441775,0
              144.1529497,-35.1441424,0
              144.1531964,-35.1430721,0
              144.1531428,-35.1428001,0
              144.1530141,-35.1426203,0
              144.1541942,-35.1358778,0
              144.1488513,-35.1372641,0
              144.1476818,-35.1382028,0
              144.1487332,-35.1394399,0
              144.1494843,-35.1403524,0
              144.149849,-35.1409314,0
              144.1503962,-35.1425106,0
              144.1507717,-35.1438441,0
              144.1508468,-35.1440459,0
              144.1506322,-35.1447214,0
            </coordinates>
          </LinearRing>
        </outerBoundaryIs>
      </Polygon>
    </Placemark>
    <Placemark>
      <name>Blue Carpark</name>
      <description>Parking for the forest camping</description>
      <styleUrl>#poly-01579B-1200-82</styleUrl>
      <Polygon>
        <outerBoundaryIs>
          <LinearRing>
            <tessellate>1</tessellate>
            <coordinates>
              144.1479389,-35.1385037,0
              144.1454283,-35.1406028,0
              144.14573,-35.140889,0
              144.1460586,-35.1412147,0
              144.1467801,-35.1417433,0
              144.1472442,-35.1420953,0
              144.1476492,-35.1424781,0
              144.1480569,-35.1429003,0
              144.1482741,-35.1431399,0
              144.1485182,-35.1433049,0
              144.1489286,-35.1435879,0
              144.1493411,-35.1436706,0
              144.1498394,-35.1437226,0
              144.1507717,-35.1438441,0
              144.1502456,-35.1420591,0
              144.1500218,-35.1414267,0
              144.149849,-35.1409314,0
              144.1492924,-35.140121,0
              144.1483923,-35.1390552,0
              144.1479389,-35.1385037,0
            </coordinates>
          </LinearRing>
        </outerBoundaryIs>
      </Polygon>
    </Placemark>
    <Placemark>
      <name>No access - Conservation</name>
      <styleUrl>#poly-000000-398-224-nodesc</styleUrl>
      <Polygon>
        <outerBoundaryIs>
          <LinearRing>
            <tessellate>1</tessellate>
            <coordinates>
              144.1374689,-35.1321831,0
              144.1391641,-35.1319725,0
              144.1412884,-35.1319023,0
              144.1435415,-35.1326218,0
              144.1445714,-35.1323586,0
              144.1446358,-35.1307968,0
              144.1437775,-35.1298316,0
              144.14249,-35.1294279,0
              144.1403228,-35.1301123,0
              144.1383916,-35.130867,0
              144.1372973,-35.131955,0
              144.1374689,-35.1321831,0
            </coordinates>
          </LinearRing>
        </outerBoundaryIs>
      </Polygon>
    </Placemark>
    <Placemark>
      <name>Out of bounds - Not our property</name>
      <styleUrl>#poly-000000-1200-230-nodesc</styleUrl>
      <Polygon>
        <outerBoundaryIs>
          <LinearRing>
            <tessellate>1</tessellate>
            <coordinates>
              144.1413708,-35.1463388,0
              144.1405653,-35.1468689,0
              144.139428,-35.1470531,0
              144.1388486,-35.146825,0
              144.1382156,-35.1460091,0
              144.1383444,-35.1454477,0
              144.1385268,-35.144509,0
              144.1382371,-35.1431141,0
              144.1383122,-35.1423771,0
              144.1384517,-35.1413769,0
              144.1352652,-35.1409383,0
              144.1324328,-35.1487374,0
              144.1365956,-35.1507902,0
              144.1423677,-35.1556762,0
              144.1525065,-35.1570885,0
              144.1583536,-35.1542201,0
              144.1589833,-35.1507233,0
              144.1590551,-35.1492089,0
              144.1587265,-35.1479697,0
              144.156739,-35.1461757,0
              144.154738,-35.1454827,0
              144.1539978,-35.1444125,0
              144.1529463,-35.1438949,0
              144.1514262,-35.145046,0
              144.1514979,-35.1456407,0
              144.1512458,-35.1466408,0
              144.1509937,-35.14729,0
              144.1508167,-35.1481278,0
              144.1504412,-35.1487374,0
              144.150409,-35.1493077,0
              144.1502963,-35.1499349,0
              144.1503285,-35.1507595,0
              144.1506021,-35.1515534,0
              144.1510742,-35.1517858,0
              144.1517501,-35.1520446,0
              144.1518144,-35.1525271,0
              144.151616,-35.1527881,0
              144.1512753,-35.1529657,0
              144.15024,-35.1533846,0
              144.1494058,-35.1536719,0
              144.148915,-35.1537157,0
              144.1478394,-35.1536346,0
              144.1473298,-35.1535118,0
              144.1468443,-35.1531806,0
              144.1463276,-35.1528655,0
              144.1456892,-35.1524795,0
              144.1449972,-35.1517953,0
              144.1445895,-35.1515497,0
              144.1434415,-35.1504531,0
              144.1426798,-35.149918,0
              144.1419287,-35.149804,0
              144.1410919,-35.1502689,0
              144.1402121,-35.1501637,0
              144.1396113,-35.1498128,0
              144.1390641,-35.1489004,0
              144.1392358,-35.1481986,0
              144.1399225,-35.1477863,0
              144.1414138,-35.1470319,0
              144.1421219,-35.1470319,0
              144.1426583,-35.1468564,0
              144.1429694,-35.1465757,0
              144.1426798,-35.14633,0
              144.1417356,-35.1461019,0
              144.1413708,-35.1463388,0
            </coordinates>
          </LinearRing>
        </outerBoundaryIs>
      </Polygon>
    </Placemark>
    <Placemark>
      <name>Aboriginal Area</name>
      <description>One access point from road, No outside VaAS or General attendee camping / Firewood collection</description>
      <styleUrl>#poly-C2185B-995-41</styleUrl>
      <Polygon>
        <outerBoundaryIs>
          <LinearRing>
            <tessellate>1</tessellate>
            <coordinates>
              144.1454927,-35.1483548,0
              144.1445676,-35.148682,0
              144.1447567,-35.1491699,0
              144.1454627,-35.1491421,0
              144.145461,-35.1490318,0
              144.1455075,-35.1489302,0
              144.1456595,-35.1487491,0
              144.1454927,-35.1483548,0
            </coordinates>
          </LinearRing>
        </outerBoundaryIs>
      </Polygon>
    </Placemark>
  </Document>
</kml>
