<?xml version="1.0" encoding="UTF-8"?>
<kml xmlns="http://www.opengis.net/kml/2.2">
  <Document>
    <name>Tracks, Taps, Cooking Circles</name>
    <Style id="icon-1764-FF5252-normal">
      <IconStyle>
        <color>ff5252ff</color>
        <scale>1</scale>
        <Icon>
          <href>https://www.gstatic.com/mapspro/images/stock/503-wht-blank_maps.png</href>
        </Icon>
      </IconStyle>
      <LabelStyle>
        <scale>0</scale>
      </LabelStyle>
    </Style>
    <Style id="icon-1764-FF5252-highlight">
      <IconStyle>
        <color>ff5252ff</color>
        <scale>1</scale>
        <Icon>
          <href>https://www.gstatic.com/mapspro/images/stock/503-wht-blank_maps.png</href>
        </Icon>
      </IconStyle>
      <LabelStyle>
        <scale>1</scale>
      </LabelStyle>
    </Style>
    <StyleMap id="icon-1764-FF5252">
      <Pair>
        <key>normal</key>
        <styleUrl>#icon-1764-FF5252-normal</styleUrl>
      </Pair>
      <Pair>
        <key>highlight</key>
        <styleUrl>#icon-1764-FF5252-highlight</styleUrl>
      </Pair>
    </StyleMap>
    <Style id="icon-1899-0288D1-normal">
      <IconStyle>
        <color>ffd18802</color>
        <scale>1</scale>
        <Icon>
          <href>https://www.gstatic.com/mapspro/images/stock/503-wht-blank_maps.png</href>
        </Icon>
        <hotSpot x="32" xunits="pixels" y="64" yunits="insetPixels"/>
      </IconStyle>
      <LabelStyle>
        <scale>0</scale>
      </LabelStyle>
    </Style>
    <Style id="icon-1899-0288D1-highlight">
      <IconStyle>
        <color>ffd18802</color>
        <scale>1</scale>
        <Icon>
          <href>https://www.gstatic.com/mapspro/images/stock/503-wht-blank_maps.png</href>
        </Icon>
        <hotSpot x="32" xunits="pixels" y="64" yunits="insetPixels"/>
      </IconStyle>
      <LabelStyle>
        <scale>1</scale>
      </LabelStyle>
    </Style>
    <StyleMap id="icon-1899-0288D1">
      <Pair>
        <key>normal</key>
        <styleUrl>#icon-1899-0288D1-normal</styleUrl>
      </Pair>
      <Pair>
        <key>highlight</key>
        <styleUrl>#icon-1899-0288D1-highlight</styleUrl>
      </Pair>
    </StyleMap>
    <Style id="icon-1899-DB4436-normal">
      <IconStyle>
        <color>ff3644db</color>
        <scale>1</scale>
        <Icon>
          <href>https://www.gstatic.com/mapspro/images/stock/503-wht-blank_maps.png</href>
        </Icon>
        <hotSpot x="32" xunits="pixels" y="64" yunits="insetPixels"/>
      </IconStyle>
      <LabelStyle>
        <scale>0</scale>
      </LabelStyle>
    </Style>
    <Style id="icon-1899-DB4436-highlight">
      <IconStyle>
        <color>ff3644db</color>
        <scale>1</scale>
        <Icon>
          <href>https://www.gstatic.com/mapspro/images/stock/503-wht-blank_maps.png</href>
        </Icon>
        <hotSpot x="32" xunits="pixels" y="64" yunits="insetPixels"/>
      </IconStyle>
      <LabelStyle>
        <scale>1</scale>
      </LabelStyle>
    </Style>
    <StyleMap id="icon-1899-DB4436">
      <Pair>
        <key>normal</key>
        <styleUrl>#icon-1899-DB4436-normal</styleUrl>
      </Pair>
      <Pair>
        <key>highlight</key>
        <styleUrl>#icon-1899-DB4436-highlight</styleUrl>
      </Pair>
    </StyleMap>
    <Style id="line-006064-1000-nodesc-normal">
      <LineStyle>
        <color>ff646000</color>
        <width>1</width>
      </LineStyle>
      <BalloonStyle>
        <text><![CDATA[<h3>$[name]</h3>]]></text>
      </BalloonStyle>
    </Style>
    <Style id="line-006064-1000-nodesc-highlight">
      <LineStyle>
        <color>ff646000</color>
        <width>1.5</width>
      </LineStyle>
      <BalloonStyle>
        <text><![CDATA[<h3>$[name]</h3>]]></text>
      </BalloonStyle>
    </Style>
    <StyleMap id="line-006064-1000-nodesc">
      <Pair>
        <key>normal</key>
        <styleUrl>#line-006064-1000-nodesc-normal</styleUrl>
      </Pair>
      <Pair>
        <key>highlight</key>
        <styleUrl>#line-006064-1000-nodesc-highlight</styleUrl>
      </Pair>
    </StyleMap>
    <Style id="line-A52714-2733-nodesc-normal">
      <LineStyle>
        <color>ff1427a5</color>
        <width>2.733</width>
      </LineStyle>
      <BalloonStyle>
        <text><![CDATA[<h3>$[name]</h3>]]></text>
      </BalloonStyle>
    </Style>
    <Style id="line-A52714-2733-nodesc-highlight">
      <LineStyle>
        <color>ff1427a5</color>
        <width>4.0995</width>
      </LineStyle>
      <BalloonStyle>
        <text><![CDATA[<h3>$[name]</h3>]]></text>
      </BalloonStyle>
    </Style>
    <StyleMap id="line-A52714-2733-nodesc">
      <Pair>
        <key>normal</key>
        <styleUrl>#line-A52714-2733-nodesc-normal</styleUrl>
      </Pair>
      <Pair>
        <key>highlight</key>
        <styleUrl>#line-A52714-2733-nodesc-highlight</styleUrl>
      </Pair>
    </StyleMap>
    <Placemark>
      <name>Forest Track</name>
      <styleUrl>#line-006064-1000-nodesc</styleUrl>
      <LineString>
        <tessellate>1</tessellate>
        <coordinates>
          144.144662,-35.1476065,0
          144.1445388,-35.1476926,0
          144.1443578,-35.1477694,0
          144.1439225,-35.1478844,0
          144.1437641,-35.1480547,0
          144.143171,-35.1484177,0
          144.1435269,-35.1486669,0
          144.1435835,-35.1488637,0
          144.1437495,-35.149168,0
          144.14395,-35.1494015,0
          144.1440696,-35.1498907,0
          144.1443642,-35.1502124,0
          144.1448817,-35.1507076,0
          144.1452168,-35.1508394,0
          144.1458407,-35.1510067,0
          144.1464237,-35.1509785,0
          144.1467094,-35.1508661,0
        </coordinates>
      </LineString>
    </Placemark>
    <Placemark>
      <name>Forest Track</name>
      <styleUrl>#line-006064-1000-nodesc</styleUrl>
      <LineString>
        <tessellate>1</tessellate>
        <coordinates>
          144.1494744,-35.1494984,0
          144.1498072,-35.1498663,0
        </coordinates>
      </LineString>
    </Placemark>
    <Placemark>
      <name>Forest Track</name>
      <styleUrl>#line-006064-1000-nodesc</styleUrl>
      <LineString>
        <tessellate>1</tessellate>
        <coordinates>
          144.1445871,-35.1498263,0
          144.1443642,-35.1502124,0
        </coordinates>
      </LineString>
    </Placemark>
    <Placemark>
      <name>Forest Track</name>
      <styleUrl>#line-006064-1000-nodesc</styleUrl>
      <LineString>
        <tessellate>1</tessellate>
        <coordinates>
          144.1458033,-35.1491456,0
          144.1452714,-35.149548,0
          144.1445871,-35.1498263,0
          144.1440696,-35.1498907,0
        </coordinates>
      </LineString>
    </Placemark>
    <Placemark>
      <name>Forest Track</name>
      <styleUrl>#line-006064-1000-nodesc</styleUrl>
      <LineString>
        <tessellate>1</tessellate>
        <coordinates>
          144.1452168,-35.1508394,0
          144.1450384,-35.1511305,0
          144.145301,-35.1512708,0
          144.1455095,-35.1513175,0
        </coordinates>
      </LineString>
    </Placemark>
    <Placemark>
      <name>Forest Track</name>
      <styleUrl>#line-006064-1000-nodesc</styleUrl>
      <LineString>
        <tessellate>1</tessellate>
        <coordinates>
          144.1473292,-35.1515998,0
          144.1474006,-35.1518475,0
          144.1476044,-35.1519901,0
          144.1476956,-35.1520004,0
        </coordinates>
      </LineString>
    </Placemark>
    <Placemark>
      <name>Forest Track</name>
      <styleUrl>#line-006064-1000-nodesc</styleUrl>
      <LineString>
        <tessellate>1</tessellate>
        <coordinates>
          144.1491447,-35.1498488,0
          144.1494102,-35.1501821,0
          144.1497667,-35.1508299,0
        </coordinates>
      </LineString>
    </Placemark>
    <Placemark>
      <name>Forest Track</name>
      <styleUrl>#line-006064-1000-nodesc</styleUrl>
      <LineString>
        <tessellate>1</tessellate>
        <coordinates>
          144.1479407,-35.1516481,0
          144.1482428,-35.1517779,0
        </coordinates>
      </LineString>
    </Placemark>
    <Placemark>
      <name>Forest Track</name>
      <styleUrl>#line-006064-1000-nodesc</styleUrl>
      <LineString>
        <tessellate>1</tessellate>
        <coordinates>
          144.1455095,-35.1513175,0
          144.1458845,-35.1514758,0
        </coordinates>
      </LineString>
    </Placemark>
    <Placemark>
      <name>Forest Track</name>
      <styleUrl>#line-006064-1000-nodesc</styleUrl>
      <LineString>
        <tessellate>1</tessellate>
        <coordinates>
          144.1458845,-35.1514758,0
          144.1459177,-35.1515321,0
        </coordinates>
      </LineString>
    </Placemark>
    <Placemark>
      <name>Forest Track</name>
      <styleUrl>#line-006064-1000-nodesc</styleUrl>
      <LineString>
        <tessellate>1</tessellate>
        <coordinates>
          144.1465047,-35.1515691,0
          144.1462336,-35.1515162,0
          144.1460162,-35.1512905,0
        </coordinates>
      </LineString>
    </Placemark>
    <Placemark>
      <name>Forest Track</name>
      <styleUrl>#line-006064-1000-nodesc</styleUrl>
      <LineString>
        <tessellate>1</tessellate>
        <coordinates>
          144.1459177,-35.1515321,0
          144.1460162,-35.1512905,0
          144.1460378,-35.1512542,0
          144.1458407,-35.1510067,0
        </coordinates>
      </LineString>
    </Placemark>
    <Placemark>
      <name>Forest Track</name>
      <styleUrl>#line-006064-1000-nodesc</styleUrl>
      <LineString>
        <tessellate>1</tessellate>
        <coordinates>
          144.144361,-35.1495623,0
          144.1443262,-35.1498573,0
        </coordinates>
      </LineString>
    </Placemark>
    <Placemark>
      <name>Forest Track</name>
      <styleUrl>#line-006064-1000-nodesc</styleUrl>
      <LineString>
        <tessellate>1</tessellate>
        <coordinates>
          144.14395,-35.1494015,0
          144.1441253,-35.1491529,0
          144.1441507,-35.1488678,0
        </coordinates>
      </LineString>
    </Placemark>
    <Placemark>
      <name>Forest Track</name>
      <styleUrl>#line-006064-1000-nodesc</styleUrl>
      <LineString>
        <tessellate>1</tessellate>
        <coordinates>
          144.1437583,-35.1491657,0
          144.1441285,-35.1487945,0
        </coordinates>
      </LineString>
    </Placemark>
    <Placemark>
      <name>Forest Track</name>
      <styleUrl>#line-006064-1000-nodesc</styleUrl>
      <LineString>
        <tessellate>1</tessellate>
        <coordinates>
          144.1441507,-35.1488678,0
          144.1441365,-35.148817,0
          144.1441285,-35.1487945,0
        </coordinates>
      </LineString>
    </Placemark>
    <Placemark>
      <name>Forest Track</name>
      <styleUrl>#line-006064-1000-nodesc</styleUrl>
      <LineString>
        <tessellate>1</tessellate>
        <coordinates>
          144.1435835,-35.1488637,0
          144.1441285,-35.1487945,0
        </coordinates>
      </LineString>
    </Placemark>
    <Placemark>
      <name>Forest Track</name>
      <styleUrl>#line-006064-1000-nodesc</styleUrl>
      <LineString>
        <tessellate>1</tessellate>
        <coordinates>
          144.1498072,-35.1498663,0
          144.1497667,-35.1508299,0
          144.1496682,-35.1510694,0
          144.150435,-35.1522962,0
          144.1495189,-35.1527517,0
        </coordinates>
      </LineString>
    </Placemark>
    <Placemark>
      <name>Forest Track</name>
      <styleUrl>#line-006064-1000-nodesc</styleUrl>
      <LineString>
        <tessellate>1</tessellate>
        <coordinates>
          144.1435269,-35.1486669,0
          144.144057,-35.14846,0
        </coordinates>
      </LineString>
    </Placemark>
    <Placemark>
      <name>Forest Track</name>
      <styleUrl>#line-006064-1000-nodesc</styleUrl>
      <LineString>
        <tessellate>1</tessellate>
        <coordinates>
          144.144057,-35.14846,0
          144.1440554,-35.1482281,0
          144.1441272,-35.1481227,0
        </coordinates>
      </LineString>
    </Placemark>
    <Placemark>
      <name>Forest Track</name>
      <styleUrl>#line-006064-1000-nodesc</styleUrl>
      <LineString>
        <tessellate>1</tessellate>
        <coordinates>
          144.144057,-35.14846,0
          144.1441285,-35.1487945,0
        </coordinates>
      </LineString>
    </Placemark>
    <Placemark>
      <name>Forest Track</name>
      <styleUrl>#line-006064-1000-nodesc</styleUrl>
      <LineString>
        <tessellate>1</tessellate>
        <coordinates>
          144.1454323,-35.1482818,0
          144.1450926,-35.1483964,0
          144.1447342,-35.1485054,0
          144.1441285,-35.1487945,0
        </coordinates>
      </LineString>
    </Placemark>
    <Placemark>
      <name>Forest Track</name>
      <styleUrl>#line-006064-1000-nodesc</styleUrl>
      <LineString>
        <tessellate>1</tessellate>
        <coordinates>
          144.1432771,-35.1475486,0
          144.1427886,-35.1475479,0
        </coordinates>
      </LineString>
    </Placemark>
    <Placemark>
      <name>Forest Track</name>
      <styleUrl>#line-006064-1000-nodesc</styleUrl>
      <LineString>
        <tessellate>1</tessellate>
        <coordinates>
          144.1427886,-35.1475479,0
          144.1423491,-35.1476548,0
        </coordinates>
      </LineString>
    </Placemark>
    <Placemark>
      <name>Forest Track</name>
      <styleUrl>#line-006064-1000-nodesc</styleUrl>
      <LineString>
        <tessellate>1</tessellate>
        <coordinates>
          144.1423491,-35.1476548,0
          144.141896,-35.1476999,0
        </coordinates>
      </LineString>
    </Placemark>
    <Placemark>
      <name>Forest Track</name>
      <styleUrl>#line-006064-1000-nodesc</styleUrl>
      <LineString>
        <tessellate>1</tessellate>
        <coordinates>
          144.1404458,-35.1486164,0
          144.1406747,-35.1489625,0
          144.1407154,-35.1490068,0
        </coordinates>
      </LineString>
    </Placemark>
    <Placemark>
      <name>Forest Track</name>
      <styleUrl>#line-006064-1000-nodesc</styleUrl>
      <LineString>
        <tessellate>1</tessellate>
        <coordinates>
          144.1410629,-35.1489478,0
          144.1407154,-35.1490068,0
        </coordinates>
      </LineString>
    </Placemark>
    <Placemark>
      <name>Forest Track</name>
      <styleUrl>#line-006064-1000-nodesc</styleUrl>
      <LineString>
        <tessellate>1</tessellate>
        <coordinates>
          144.1407154,-35.1490068,0
          144.1406121,-35.1494781,0
        </coordinates>
      </LineString>
    </Placemark>
    <Placemark>
      <name>Forest Track</name>
      <styleUrl>#line-006064-1000-nodesc</styleUrl>
      <LineString>
        <tessellate>1</tessellate>
        <coordinates>
          144.1410629,-35.1489478,0
          144.1414296,-35.1489623,0
        </coordinates>
      </LineString>
    </Placemark>
    <Placemark>
      <name>Forest Track</name>
      <styleUrl>#line-006064-1000-nodesc</styleUrl>
      <LineString>
        <tessellate>1</tessellate>
        <coordinates>
          144.1418587,-35.1487391,0
          144.1414296,-35.1489623,0
        </coordinates>
      </LineString>
    </Placemark>
    <Placemark>
      <name>Forest Track</name>
      <styleUrl>#line-006064-1000-nodesc</styleUrl>
      <LineString>
        <tessellate>1</tessellate>
        <coordinates>
          144.1418587,-35.1487391,0
          144.1424883,-35.1486501,0
          144.143171,-35.1484177,0
        </coordinates>
      </LineString>
    </Placemark>
    <Placemark>
      <name>Forest Track</name>
      <styleUrl>#line-006064-1000-nodesc</styleUrl>
      <LineString>
        <tessellate>1</tessellate>
        <coordinates>
          144.1424245,-35.1482495,0
          144.1422341,-35.1482102,0
        </coordinates>
      </LineString>
    </Placemark>
    <Placemark>
      <name>Forest Track</name>
      <styleUrl>#line-006064-1000-nodesc</styleUrl>
      <LineString>
        <tessellate>1</tessellate>
        <coordinates>
          144.1422341,-35.1482102,0
          144.1420777,-35.1481453,0
        </coordinates>
      </LineString>
    </Placemark>
    <Placemark>
      <name>Forest Track</name>
      <styleUrl>#line-006064-1000-nodesc</styleUrl>
      <LineString>
        <tessellate>1</tessellate>
        <coordinates>
          144.1420132,-35.1481829,0
          144.1420777,-35.1481453,0
        </coordinates>
      </LineString>
    </Placemark>
    <Placemark>
      <name>Forest Track</name>
      <styleUrl>#line-006064-1000-nodesc</styleUrl>
      <LineString>
        <tessellate>1</tessellate>
        <coordinates>
          144.141896,-35.1476999,0
          144.1418036,-35.147935,0
        </coordinates>
      </LineString>
    </Placemark>
    <Placemark>
      <name>Forest Track</name>
      <styleUrl>#line-006064-1000-nodesc</styleUrl>
      <LineString>
        <tessellate>1</tessellate>
        <coordinates>
          144.1467945,-35.1509505,0
          144.1468733,-35.1510293,0
        </coordinates>
      </LineString>
    </Placemark>
    <Placemark>
      <name>Forest Track</name>
      <styleUrl>#line-006064-1000-nodesc</styleUrl>
      <LineString>
        <tessellate>1</tessellate>
        <coordinates>
          144.1466078,-35.1512333,0
          144.1468733,-35.1510293,0
        </coordinates>
      </LineString>
    </Placemark>
    <Placemark>
      <name>Forest Track</name>
      <styleUrl>#line-006064-1000-nodesc</styleUrl>
      <LineString>
        <tessellate>1</tessellate>
        <coordinates>
          144.1476956,-35.1520004,0
          144.1478881,-35.1520484,0
          144.1481899,-35.1524048,0
        </coordinates>
      </LineString>
    </Placemark>
    <Placemark>
      <name>Forest Track</name>
      <styleUrl>#line-006064-1000-nodesc</styleUrl>
      <LineString>
        <tessellate>1</tessellate>
        <coordinates>
          144.1481899,-35.1524048,0
          144.1486306,-35.1527074,0
        </coordinates>
      </LineString>
    </Placemark>
    <Placemark>
      <name>Forest Track</name>
      <styleUrl>#line-006064-1000-nodesc</styleUrl>
      <LineString>
        <tessellate>1</tessellate>
        <coordinates>
          144.1495189,-35.1527517,0
          144.1491161,-35.152314,0
          144.1489042,-35.151962,0
          144.1485003,-35.1517165,0
        </coordinates>
      </LineString>
    </Placemark>
    <Placemark>
      <name>Forest Track</name>
      <styleUrl>#line-006064-1000-nodesc</styleUrl>
      <LineString>
        <tessellate>1</tessellate>
        <coordinates>
          144.1495189,-35.1527517,0
          144.1488485,-35.1530287,0
          144.1486306,-35.1527074,0
        </coordinates>
      </LineString>
    </Placemark>
    <Placemark>
      <name>Forest Track</name>
      <styleUrl>#line-006064-1000-nodesc</styleUrl>
      <LineString>
        <tessellate>1</tessellate>
        <coordinates>
          144.1481762,-35.1509038,0
          144.1476193,-35.1505905,0
        </coordinates>
      </LineString>
    </Placemark>
    <Placemark>
      <name>Forest Track</name>
      <styleUrl>#line-006064-1000-nodesc</styleUrl>
      <LineString>
        <tessellate>1</tessellate>
        <coordinates>
          144.1473292,-35.1515998,0
          144.1474923,-35.1514318,0
          144.1479232,-35.1510825,0
        </coordinates>
      </LineString>
    </Placemark>
    <Placemark>
      <name>Forest Track</name>
      <styleUrl>#line-006064-1000-nodesc</styleUrl>
      <LineString>
        <tessellate>1</tessellate>
        <coordinates>
          144.1479232,-35.1510825,0
          144.1479751,-35.1510568,0
          144.1481762,-35.1509038,0
        </coordinates>
      </LineString>
    </Placemark>
    <Placemark>
      <name>Forest Track</name>
      <styleUrl>#line-006064-1000-nodesc</styleUrl>
      <LineString>
        <tessellate>1</tessellate>
        <coordinates>
          144.1420132,-35.1481829,0
          144.1418591,-35.148496,0
          144.1418587,-35.1487391,0
        </coordinates>
      </LineString>
    </Placemark>
    <Placemark>
      <name>Forest Track</name>
      <styleUrl>#line-006064-1000-nodesc</styleUrl>
      <LineString>
        <tessellate>1</tessellate>
        <coordinates>
          144.1423491,-35.1476548,0
          144.1425467,-35.1479202,0
        </coordinates>
      </LineString>
    </Placemark>
    <Placemark>
      <name>Forest Track</name>
      <styleUrl>#line-006064-1000-nodesc</styleUrl>
      <LineString>
        <tessellate>1</tessellate>
        <coordinates>
          144.1425467,-35.1479202,0
          144.1429512,-35.147981,0
          144.1429789,-35.1480965,0
        </coordinates>
      </LineString>
    </Placemark>
    <Placemark>
      <name>Forest Track</name>
      <styleUrl>#line-006064-1000-nodesc</styleUrl>
      <LineString>
        <tessellate>1</tessellate>
        <coordinates>
          144.1431809,-35.1481485,0
          144.1429789,-35.1480965,0
        </coordinates>
      </LineString>
    </Placemark>
    <Placemark>
      <name>Forest Track</name>
      <styleUrl>#line-006064-1000-nodesc</styleUrl>
      <LineString>
        <tessellate>1</tessellate>
        <coordinates>
          144.1435159,-35.1479785,0
          144.1431809,-35.1481485,0
        </coordinates>
      </LineString>
    </Placemark>
    <Placemark>
      <name>Forest Track</name>
      <styleUrl>#line-006064-1000-nodesc</styleUrl>
      <LineString>
        <tessellate>1</tessellate>
        <coordinates>
          144.1435159,-35.1479785,0
          144.1437641,-35.1480547,0
        </coordinates>
      </LineString>
    </Placemark>
    <Placemark>
      <name>Forest Track</name>
      <styleUrl>#line-006064-1000-nodesc</styleUrl>
      <LineString>
        <tessellate>1</tessellate>
        <coordinates>
          144.1437707,-35.1476559,0
          144.1435159,-35.1479785,0
        </coordinates>
      </LineString>
    </Placemark>
    <Placemark>
      <name>Forest Track</name>
      <styleUrl>#line-006064-1000-nodesc</styleUrl>
      <LineString>
        <tessellate>1</tessellate>
        <coordinates>
          144.1498072,-35.1498663,0
          144.149403,-35.1501749,0
        </coordinates>
      </LineString>
    </Placemark>
    <Placemark>
      <name>Forest Track</name>
      <styleUrl>#line-006064-1000-nodesc</styleUrl>
      <LineString>
        <tessellate>1</tessellate>
        <coordinates>
          144.1483664,-35.1514493,0
          144.1485953,-35.1512497,0
        </coordinates>
      </LineString>
    </Placemark>
    <Placemark>
      <name>Forest Track</name>
      <styleUrl>#line-006064-1000-nodesc</styleUrl>
      <LineString>
        <tessellate>1</tessellate>
        <coordinates>
          144.1485953,-35.1512497,0
          144.1487258,-35.1511862,0
          144.1488278,-35.1512099,0
          144.1493306,-35.1513419,0
        </coordinates>
      </LineString>
    </Placemark>
    <Placemark>
      <name>Forest Track</name>
      <styleUrl>#line-006064-1000-nodesc</styleUrl>
      <LineString>
        <tessellate>1</tessellate>
        <coordinates>
          144.1493306,-35.1513419,0
          144.1496488,-35.151145,0
          144.1496682,-35.1510694,0
        </coordinates>
      </LineString>
    </Placemark>
    <Placemark>
      <name>Forest Track</name>
      <styleUrl>#line-006064-1000-nodesc</styleUrl>
      <LineString>
        <tessellate>1</tessellate>
        <coordinates>
          144.1482428,-35.1517779,0
          144.1484219,-35.1519358,0
        </coordinates>
      </LineString>
    </Placemark>
    <Placemark>
      <name>Forest Track</name>
      <styleUrl>#line-006064-1000-nodesc</styleUrl>
      <LineString>
        <tessellate>1</tessellate>
        <coordinates>
          144.1485003,-35.1517165,0
          144.1484219,-35.1519358,0
        </coordinates>
      </LineString>
    </Placemark>
    <Placemark>
      <name>Forest Track</name>
      <styleUrl>#line-006064-1000-nodesc</styleUrl>
      <LineString>
        <tessellate>1</tessellate>
        <coordinates>
          144.1479232,-35.1510825,0
          144.1483463,-35.1512251,0
          144.1483664,-35.1514493,0
        </coordinates>
      </LineString>
    </Placemark>
    <Placemark>
      <name>Forest Track</name>
      <styleUrl>#line-006064-1000-nodesc</styleUrl>
      <LineString>
        <tessellate>1</tessellate>
        <coordinates>
          144.1483664,-35.1514493,0
          144.1485003,-35.1517165,0
        </coordinates>
      </LineString>
    </Placemark>
    <Placemark>
      <name>Forest Track</name>
      <styleUrl>#line-006064-1000-nodesc</styleUrl>
      <LineString>
        <tessellate>1</tessellate>
        <coordinates>
          144.1479232,-35.1510825,0
          144.1479407,-35.1516481,0
        </coordinates>
      </LineString>
    </Placemark>
    <Placemark>
      <name>Forest Track</name>
      <styleUrl>#line-006064-1000-nodesc</styleUrl>
      <LineString>
        <tessellate>1</tessellate>
        <coordinates>
          144.1479407,-35.1516481,0
          144.1476044,-35.1519901,0
        </coordinates>
      </LineString>
    </Placemark>
    <Placemark>
      <name>Forest Track</name>
      <styleUrl>#line-006064-1000-nodesc</styleUrl>
      <LineString>
        <tessellate>1</tessellate>
        <coordinates>
          144.1468733,-35.1510293,0
          144.1473292,-35.1515998,0
        </coordinates>
      </LineString>
    </Placemark>
    <Placemark>
      <name>Forest Track</name>
      <styleUrl>#line-006064-1000-nodesc</styleUrl>
      <LineString>
        <tessellate>1</tessellate>
        <coordinates>
          144.1482428,-35.1517779,0
          144.1476956,-35.1520004,0
        </coordinates>
      </LineString>
    </Placemark>
    <Placemark>
      <name>Forest Track</name>
      <styleUrl>#line-006064-1000-nodesc</styleUrl>
      <LineString>
        <tessellate>1</tessellate>
        <coordinates>
          144.1441272,-35.1481227,0
          144.1444754,-35.1479161,0
        </coordinates>
      </LineString>
    </Placemark>
    <Placemark>
      <name>Forest Track</name>
      <styleUrl>#line-006064-1000-nodesc</styleUrl>
      <LineString>
        <tessellate>1</tessellate>
        <coordinates>
          144.1445388,-35.1476926,0
          144.1444754,-35.1479161,0
        </coordinates>
      </LineString>
    </Placemark>
    <Placemark>
      <name>Forest Track</name>
      <styleUrl>#line-006064-1000-nodesc</styleUrl>
      <LineString>
        <tessellate>1</tessellate>
        <coordinates>
          144.1443578,-35.1477694,0
          144.1444754,-35.1479161,0
        </coordinates>
      </LineString>
    </Placemark>
    <Placemark>
      <name>Forest Track</name>
      <styleUrl>#line-006064-1000-nodesc</styleUrl>
      <LineString>
        <tessellate>1</tessellate>
        <coordinates>
          144.1432515,-35.1483662,0
          144.1433052,-35.1482461,0
          144.1432382,-35.1482016,0
          144.1431809,-35.1481485,0
        </coordinates>
      </LineString>
    </Placemark>
    <Placemark>
      <name>Forest Track</name>
      <styleUrl>#line-006064-1000-nodesc</styleUrl>
      <LineString>
        <tessellate>1</tessellate>
        <coordinates>
          144.1424612,-35.1483287,0
          144.1424883,-35.1486501,0
        </coordinates>
      </LineString>
    </Placemark>
    <Placemark>
      <name>Forest Track</name>
      <styleUrl>#line-006064-1000-nodesc</styleUrl>
      <LineString>
        <tessellate>1</tessellate>
        <coordinates>
          144.1407838,-35.1483189,0
          144.1410654,-35.1485097,0
          144.1410629,-35.1489478,0
        </coordinates>
      </LineString>
    </Placemark>
    <Placemark>
      <name>Forest Track</name>
      <styleUrl>#line-006064-1000-nodesc</styleUrl>
      <LineString>
        <tessellate>1</tessellate>
        <coordinates>
          144.1401458,-35.1494543,0
          144.1406121,-35.1494781,0
        </coordinates>
      </LineString>
    </Placemark>
    <Placemark>
      <name>Forest Track</name>
      <styleUrl>#line-006064-1000-nodesc</styleUrl>
      <LineString>
        <tessellate>1</tessellate>
        <coordinates>
          144.1409309,-35.1489694,0
          144.141069,-35.1493346,0
          144.1412862,-35.1495342,0
        </coordinates>
      </LineString>
    </Placemark>
    <Placemark>
      <name>Forest Track</name>
      <styleUrl>#line-006064-1000-nodesc</styleUrl>
      <LineString>
        <tessellate>1</tessellate>
        <coordinates>
          144.1418036,-35.147935,0
          144.1419445,-35.1480731,0
          144.1420777,-35.1481453,0
        </coordinates>
      </LineString>
    </Placemark>
    <Placemark>
      <name>Forest Track</name>
      <styleUrl>#line-006064-1000-nodesc</styleUrl>
      <LineString>
        <tessellate>1</tessellate>
        <coordinates>
          144.1432771,-35.1475486,0
          144.1436139,-35.1474959,0
        </coordinates>
      </LineString>
    </Placemark>
    <Placemark>
      <name>Forest Track</name>
      <styleUrl>#line-006064-1000-nodesc</styleUrl>
      <LineString>
        <tessellate>1</tessellate>
        <coordinates>
          144.1436139,-35.1474959,0
          144.1437707,-35.1476559,0
        </coordinates>
      </LineString>
    </Placemark>
    <Placemark>
      <name>Forest Track</name>
      <styleUrl>#line-006064-1000-nodesc</styleUrl>
      <LineString>
        <tessellate>1</tessellate>
        <coordinates>
          144.1429789,-35.1480965,0
          144.1425328,-35.1482523,0
        </coordinates>
      </LineString>
    </Placemark>
    <Placemark>
      <name>Forest Track</name>
      <styleUrl>#line-006064-1000-nodesc</styleUrl>
      <LineString>
        <tessellate>1</tessellate>
        <coordinates>
          144.1424245,-35.1482495,0
          144.1425328,-35.1482523,0
          144.1424612,-35.1483287,0
        </coordinates>
      </LineString>
    </Placemark>
    <Placemark>
      <name>Forest Track</name>
      <styleUrl>#line-006064-1000-nodesc</styleUrl>
      <LineString>
        <tessellate>1</tessellate>
        <coordinates>
          144.1465677,-35.1509273,0
          144.1466078,-35.1512333,0
        </coordinates>
      </LineString>
    </Placemark>
    <Placemark>
      <name>Forest Track</name>
      <styleUrl>#line-006064-1000-nodesc</styleUrl>
      <LineString>
        <tessellate>1</tessellate>
        <coordinates>
          144.1437707,-35.1476559,0
          144.1439225,-35.1478844,0
        </coordinates>
      </LineString>
    </Placemark>
    <Placemark>
      <name>Forest Track</name>
      <styleUrl>#line-006064-1000-nodesc</styleUrl>
      <LineString>
        <tessellate>1</tessellate>
        <coordinates>
          144.1459985,-35.1517358,0
          144.1459177,-35.1515321,0
        </coordinates>
      </LineString>
    </Placemark>
    <Placemark>
      <name>Forest Track</name>
      <styleUrl>#line-006064-1000-nodesc</styleUrl>
      <LineString>
        <tessellate>1</tessellate>
        <coordinates>
          144.1423491,-35.1476548,0
          144.1422491,-35.1477784,0
          144.1419445,-35.1480731,0
        </coordinates>
      </LineString>
    </Placemark>
    <Placemark>
      <name>Forest Track</name>
      <styleUrl>#line-006064-1000-nodesc</styleUrl>
      <LineString>
        <tessellate>1</tessellate>
        <coordinates>
          144.1435159,-35.1479785,0
          144.1439225,-35.1478844,0
        </coordinates>
      </LineString>
    </Placemark>
    <Placemark>
      <name>Forest Track</name>
      <styleUrl>#line-006064-1000-nodesc</styleUrl>
      <LineString>
        <tessellate>1</tessellate>
        <coordinates>
          144.1474006,-35.1518475,0
          144.1469335,-35.1518816,0
          144.1465137,-35.1520033,0
          144.1464462,-35.1517175,0
          144.1465047,-35.1515691,0
        </coordinates>
      </LineString>
    </Placemark>
    <Placemark>
      <name>Forest Track</name>
      <styleUrl>#line-006064-1000-nodesc</styleUrl>
      <LineString>
        <tessellate>1</tessellate>
        <coordinates>
          144.1464462,-35.1517175,0
          144.1459985,-35.1517358,0
          144.1462336,-35.1515162,0
        </coordinates>
      </LineString>
    </Placemark>
    <Placemark>
      <name>Forest Track</name>
      <styleUrl>#line-006064-1000-nodesc</styleUrl>
      <LineString>
        <tessellate>1</tessellate>
        <coordinates>
          144.1418036,-35.147935,0
          144.1413932,-35.148083,0
          144.1407838,-35.1483189,0
          144.1404458,-35.1486164,0
        </coordinates>
      </LineString>
    </Placemark>
    <Placemark>
      <name>Tap</name>
      <description>///grins.arctic.cartoons</description>
      <styleUrl>#icon-1899-DB4436</styleUrl>
      <Point>
        <coordinates>
          144.1461246,-35.1488259,0
        </coordinates>
      </Point>
    </Placemark>
    <Placemark>
      <name>Tap</name>
      <description>///matchbook.weary.cabbage</description>
      <styleUrl>#icon-1899-DB4436</styleUrl>
      <Point>
        <coordinates>
          144.1455527,-35.1485437,0
        </coordinates>
      </Point>
    </Placemark>
    <Placemark>
      <name>Tap</name>
      <description>///drumstick.snipped.darkest</description>
      <styleUrl>#icon-1899-DB4436</styleUrl>
      <Point>
        <coordinates>
          144.1454143,-35.1482077,0
        </coordinates>
      </Point>
    </Placemark>
    <Placemark>
      <name>Tap</name>
      <description>///eyeglass.revives.muster</description>
      <styleUrl>#icon-1899-DB4436</styleUrl>
      <Point>
        <coordinates>
          144.1445827,-35.1476411,0
        </coordinates>
      </Point>
    </Placemark>
    <Placemark>
      <name>Tap</name>
      <description>///billowing.abrupt.planting</description>
      <styleUrl>#icon-1899-DB4436</styleUrl>
      <Point>
        <coordinates>
          144.1464829,-35.1499231,0
        </coordinates>
      </Point>
    </Placemark>
    <Placemark>
      <name>Tap</name>
      <description>///founding.rhythm.outbursts</description>
      <styleUrl>#icon-1899-DB4436</styleUrl>
      <Point>
        <coordinates>
          144.1461854,-35.1501293,0
        </coordinates>
      </Point>
    </Placemark>
    <Placemark>
      <name>Tap</name>
      <description>///regulating.mothballs.discarding</description>
      <styleUrl>#icon-1899-DB4436</styleUrl>
      <Point>
        <coordinates>
          144.1455991,-35.1491683,0
        </coordinates>
      </Point>
    </Placemark>
    <Placemark>
      <name>Tap</name>
      <description>///regency.degenerate.cooler</description>
      <styleUrl>#icon-1899-DB4436</styleUrl>
      <Point>
        <coordinates>
          144.1478293,-35.1489441,0
        </coordinates>
      </Point>
    </Placemark>
    <Placemark>
      <name>Tap</name>
      <description>///pleads.scorecard.lawnmower</description>
      <styleUrl>#icon-1899-DB4436</styleUrl>
      <Point>
        <coordinates>
          144.1481136,-35.1488903,0
        </coordinates>
      </Point>
    </Placemark>
    <Placemark>
      <name>Tap</name>
      <description>///detention.layered.diet</description>
      <styleUrl>#icon-1899-DB4436</styleUrl>
      <Point>
        <coordinates>
          144.1496797,-35.1484127,0
        </coordinates>
      </Point>
    </Placemark>
    <Placemark>
      <name>Tap</name>
      <description>///destined.contingent.toolbar</description>
      <styleUrl>#icon-1899-DB4436</styleUrl>
      <Point>
        <coordinates>
          144.1495122,-35.147789,0
        </coordinates>
      </Point>
    </Placemark>
    <Placemark>
      <name>Tap</name>
      <description>///lark.youthful.dental</description>
      <styleUrl>#icon-1899-DB4436</styleUrl>
      <Point>
        <coordinates>
          144.1498018,-35.1469928,0
        </coordinates>
      </Point>
    </Placemark>
    <Placemark>
      <name>Tap</name>
      <description>///ration.fumed.stalwarts</description>
      <styleUrl>#icon-1899-DB4436</styleUrl>
      <Point>
        <coordinates>
          144.150103,-35.1466119,0
        </coordinates>
      </Point>
    </Placemark>
    <Placemark>
      <name>Tap</name>
      <description>///corrosive.cheaper.erratic</description>
      <styleUrl>#icon-1899-DB4436</styleUrl>
      <Point>
        <coordinates>
          144.1506214,-35.1448946,0
        </coordinates>
      </Point>
    </Placemark>
    <Placemark>
      <name>Tap</name>
      <description>///restroom.resettle.rulings</description>
      <styleUrl>#icon-1899-DB4436</styleUrl>
      <Point>
        <coordinates>
          144.1445034,-35.1480093,0
        </coordinates>
      </Point>
    </Placemark>
    <Placemark>
      <name>Tap</name>
      <description>///soft.gloriously.faking</description>
      <styleUrl>#icon-1899-DB4436</styleUrl>
      <Point>
        <coordinates>
          144.1425794,-35.1482346,0
        </coordinates>
      </Point>
    </Placemark>
    <Placemark>
      <name>Tap</name>
      <description>///vandalism.dropped.mental</description>
      <styleUrl>#icon-1899-DB4436</styleUrl>
      <Point>
        <coordinates>
          144.143491,-35.1477029,0
        </coordinates>
      </Point>
    </Placemark>
    <Placemark>
      <name>Tap</name>
      <description>///endure.sandwiched.compliant</description>
      <styleUrl>#icon-1899-DB4436</styleUrl>
      <Point>
        <coordinates>
          144.1434052,-35.1475099,0
        </coordinates>
      </Point>
    </Placemark>
    <Placemark>
      <name>Tap</name>
      <description>///suburbs.intensity.reprisals</description>
      <styleUrl>#icon-1899-DB4436</styleUrl>
      <Point>
        <coordinates>
          144.1453879,-35.1475726,0
        </coordinates>
      </Point>
    </Placemark>
    <Placemark>
      <name>Tap</name>
      <description>///indecision.recessions.deficiency</description>
      <styleUrl>#icon-1899-DB4436</styleUrl>
      <Point>
        <coordinates>
          144.1451224,-35.1472162,0
        </coordinates>
      </Point>
    </Placemark>
    <Placemark>
      <name>Tap</name>
      <description>///chimed.stumble.overtones</description>
      <styleUrl>#icon-1899-DB4436</styleUrl>
      <Point>
        <coordinates>
          144.1445541,-35.1472215,0
        </coordinates>
      </Point>
    </Placemark>
    <Placemark>
      <name>Tap</name>
      <description>///speaks.opportune.remake</description>
      <styleUrl>#icon-1899-DB4436</styleUrl>
      <Point>
        <coordinates>
          144.1442604,-35.1468608,0
        </coordinates>
      </Point>
    </Placemark>
    <Placemark>
      <name>Tap</name>
      <description>///adopted.partial.snatched</description>
      <styleUrl>#icon-1899-DB4436</styleUrl>
      <Point>
        <coordinates>
          144.1441051,-35.1466557,0
        </coordinates>
      </Point>
    </Placemark>
    <Placemark>
      <name>Tap</name>
      <description>///audition.shorting.demographics</description>
      <styleUrl>#icon-1899-DB4436</styleUrl>
      <Point>
        <coordinates>
          144.1464845,-35.1467694,0
        </coordinates>
      </Point>
    </Placemark>
    <Placemark>
      <name>Tap</name>
      <description>///sieved.mirroring.unworn</description>
      <styleUrl>#icon-1899-DB4436</styleUrl>
      <Point>
        <coordinates>
          144.1465701,-35.1466872,0
        </coordinates>
      </Point>
    </Placemark>
    <Placemark>
      <name>Tap</name>
      <description>///edition.appointment.eggs</description>
      <styleUrl>#icon-1899-DB4436</styleUrl>
      <Point>
        <coordinates>
          144.147671,-35.1465909,0
        </coordinates>
      </Point>
    </Placemark>
    <Placemark>
      <name>Tap</name>
      <description>///gatehouse.sights.overtaking</description>
      <styleUrl>#icon-1899-DB4436</styleUrl>
      <Point>
        <coordinates>
          144.148478,-35.1453657,0
        </coordinates>
      </Point>
    </Placemark>
    <Placemark>
      <name>Tap</name>
      <description>///digestion.hormone.closet</description>
      <styleUrl>#icon-1899-DB4436</styleUrl>
      <Point>
        <coordinates>
          144.1484648,-35.1444393,0
        </coordinates>
      </Point>
    </Placemark>
    <Placemark>
      <name>Tap</name>
      <description>///accidents.asserts.mediators</description>
      <styleUrl>#icon-1899-DB4436</styleUrl>
      <Point>
        <coordinates>
          144.1432464,-35.1474611,0
        </coordinates>
      </Point>
    </Placemark>
    <Placemark>
      <name>Tap</name>
      <description>///desertion.dubious.gloss</description>
      <styleUrl>#icon-1899-DB4436</styleUrl>
      <Point>
        <coordinates>
          144.1429587,-35.1474805,0
        </coordinates>
      </Point>
    </Placemark>
    <Placemark>
      <name>Tap</name>
      <description>///gatekeeper.awakes.glistening</description>
      <styleUrl>#icon-1899-DB4436</styleUrl>
      <Point>
        <coordinates>
          144.1430494,-35.1476095,0
        </coordinates>
      </Point>
    </Placemark>
    <Placemark>
      <name>Tap</name>
      <description>///untapped.aircraft.translated</description>
      <styleUrl>#icon-1899-DB4436</styleUrl>
      <Point>
        <coordinates>
          144.1429676,-35.1477202,0
        </coordinates>
      </Point>
    </Placemark>
    <Placemark>
      <name>Tap</name>
      <description>///solidly.accordance.landlords</description>
      <styleUrl>#icon-1899-DB4436</styleUrl>
      <Point>
        <coordinates>
          144.1421429,-35.1478971,0
        </coordinates>
      </Point>
    </Placemark>
    <Placemark>
      <name>Tap</name>
      <description>///rare.chemistry.readymade</description>
      <styleUrl>#icon-1899-DB4436</styleUrl>
      <Point>
        <coordinates>
          144.1423306,-35.1478993,0
        </coordinates>
      </Point>
    </Placemark>
    <Placemark>
      <name>Tap</name>
      <description>///laser.slangy.unpack</description>
      <styleUrl>#icon-1899-DB4436</styleUrl>
      <Point>
        <coordinates>
          144.1422365,-35.147761,0
        </coordinates>
      </Point>
    </Placemark>
    <Placemark>
      <name>Tap</name>
      <description>///microwaves.choirs.intends</description>
      <styleUrl>#icon-1899-DB4436</styleUrl>
      <Point>
        <coordinates>
          144.1423947,-35.1477083,0
        </coordinates>
      </Point>
    </Placemark>
    <Placemark>
      <name>Tap</name>
      <description>///gritty.unwashed.freshen</description>
      <styleUrl>#icon-1899-DB4436</styleUrl>
      <Point>
        <coordinates>
          144.1445886,-35.1485521,0
        </coordinates>
      </Point>
    </Placemark>
    <Placemark>
      <name>Tap</name>
      <description>///drowsy.mappings.interlude</description>
      <styleUrl>#icon-1899-DB4436</styleUrl>
      <Point>
        <coordinates>
          144.1451747,-35.1483482,0
        </coordinates>
      </Point>
    </Placemark>
    <Placemark>
      <name>Tap</name>
      <description>///vintage.data.flunk</description>
      <styleUrl>#icon-1899-DB4436</styleUrl>
      <Point>
        <coordinates>
          144.1454269,-35.1489171,0
        </coordinates>
      </Point>
    </Placemark>
    <Placemark>
      <name>Tap</name>
      <description>///rescuer.objections.steadier</description>
      <styleUrl>#icon-1899-DB4436</styleUrl>
      <Point>
        <coordinates>
          144.1450916,-35.1487614,0
        </coordinates>
      </Point>
    </Placemark>
    <Placemark>
      <name>Tap</name>
      <description>///password.foyers.logs</description>
      <styleUrl>#icon-1899-DB4436</styleUrl>
      <Point>
        <coordinates>
          144.1449212,-35.1483612,0
        </coordinates>
      </Point>
    </Placemark>
    <Placemark>
      <name>Tap</name>
      <description>///conserved.besotted.ungreased</description>
      <styleUrl>#icon-1899-DB4436</styleUrl>
      <Point>
        <coordinates>
          144.1440511,-35.1486178,0
        </coordinates>
      </Point>
    </Placemark>
    <Placemark>
      <name>Tap</name>
      <description>///butter.conquest.smartphone</description>
      <styleUrl>#icon-1899-DB4436</styleUrl>
      <Point>
        <coordinates>
          144.1436889,-35.148794,0
        </coordinates>
      </Point>
    </Placemark>
    <Placemark>
      <name>Tap</name>
      <description>///bought.automation.slimy</description>
      <styleUrl>#icon-1899-DB4436</styleUrl>
      <Point>
        <coordinates>
          144.1422506,-35.1474458,0
        </coordinates>
      </Point>
    </Placemark>
    <Placemark>
      <name>Tap</name>
      <description>///demands.staircases.ascending</description>
      <styleUrl>#icon-1899-DB4436</styleUrl>
      <Point>
        <coordinates>
          144.1421513,-35.1474545,0
        </coordinates>
      </Point>
    </Placemark>
    <Placemark>
      <name>Tap</name>
      <description>///junior.warping.pocketing</description>
      <styleUrl>#icon-1899-DB4436</styleUrl>
      <Point>
        <coordinates>
          144.1421727,-35.1481103,0
        </coordinates>
      </Point>
    </Placemark>
    <Placemark>
      <name>Tap</name>
      <description>///carriage.sponsors.pocketing</description>
      <styleUrl>#icon-1899-DB4436</styleUrl>
      <Point>
        <coordinates>
          144.1414143,-35.147901,0
        </coordinates>
      </Point>
    </Placemark>
    <Placemark>
      <name>Tap</name>
      <description>///drifts.punch.numbering</description>
      <styleUrl>#icon-1899-DB4436</styleUrl>
      <Point>
        <coordinates>
          144.1404483,-35.1493617,0
        </coordinates>
      </Point>
    </Placemark>
    <Placemark>
      <name>Tap</name>
      <description>///courtrooms.outset.snouts</description>
      <styleUrl>#icon-1899-DB4436</styleUrl>
      <Point>
        <coordinates>
          144.140846,-35.1489493,0
        </coordinates>
      </Point>
    </Placemark>
    <Placemark>
      <name>Tap</name>
      <description>///capacities.snarl.gossip</description>
      <styleUrl>#icon-1899-DB4436</styleUrl>
      <Point>
        <coordinates>
          144.1411829,-35.1489461,0
        </coordinates>
      </Point>
    </Placemark>
    <Placemark>
      <name>Tap</name>
      <description>///fretting.delusional.pint</description>
      <styleUrl>#icon-1899-DB4436</styleUrl>
      <Point>
        <coordinates>
          144.1418857,-35.1487706,0
        </coordinates>
      </Point>
    </Placemark>
    <Placemark>
      <name>Tap</name>
      <description>///postal.cooks.ignores</description>
      <styleUrl>#icon-1899-DB4436</styleUrl>
      <Point>
        <coordinates>
          144.142512,-35.1485689,0
        </coordinates>
      </Point>
    </Placemark>
    <Placemark>
      <name>Tap</name>
      <description>///arise.ships.stimuli</description>
      <styleUrl>#icon-1899-DB4436</styleUrl>
      <Point>
        <coordinates>
          144.1428739,-35.1487513,0
        </coordinates>
      </Point>
    </Placemark>
    <Placemark>
      <name>Tap</name>
      <description>///monsoons.gain.breathless</description>
      <styleUrl>#icon-1899-DB4436</styleUrl>
      <Point>
        <coordinates>
          144.1433805,-35.1484389,0
        </coordinates>
      </Point>
    </Placemark>
    <Placemark>
      <name>Tap</name>
      <description>///relive.plus.ranging</description>
      <styleUrl>#icon-1899-DB4436</styleUrl>
      <Point>
        <coordinates>
          144.1432759,-35.148546,0
        </coordinates>
      </Point>
    </Placemark>
    <Placemark>
      <name>Tap</name>
      <description>///cringe.commencing.abandonment</description>
      <styleUrl>#icon-1899-DB4436</styleUrl>
      <Point>
        <coordinates>
          144.1437207,-35.1479801,0
        </coordinates>
      </Point>
    </Placemark>
    <Placemark>
      <name>Tap</name>
      <description>///twitchy.arenas.napkin</description>
      <styleUrl>#icon-1899-DB4436</styleUrl>
      <Point>
        <coordinates>
          144.143585,-35.1486198,0
        </coordinates>
      </Point>
    </Placemark>
    <Placemark>
      <name>Tap</name>
      <description>///overreach.saturation.jiving</description>
      <styleUrl>#icon-1899-DB4436</styleUrl>
      <Point>
        <coordinates>
          144.1439007,-35.1492409,0
        </coordinates>
      </Point>
    </Placemark>
    <Placemark>
      <name>Tap</name>
      <description>///setting.voyage.dentistry</description>
      <styleUrl>#icon-1899-DB4436</styleUrl>
      <Point>
        <coordinates>
          144.1440791,-35.1495446,0
        </coordinates>
      </Point>
    </Placemark>
    <Placemark>
      <name>Tap</name>
      <description>///skim.kinds.harmed</description>
      <styleUrl>#icon-1899-DB4436</styleUrl>
      <Point>
        <coordinates>
          144.1468403,-35.1506511,0
        </coordinates>
      </Point>
    </Placemark>
    <Placemark>
      <name>Tap</name>
      <description>///wised.hope.pouts </description>
      <styleUrl>#icon-1899-DB4436</styleUrl>
      <Point>
        <coordinates>
          144.1465091,-35.1512077,0
        </coordinates>
      </Point>
    </Placemark>
    <Placemark>
      <name>Tap</name>
      <description>///balance.sleeves.obscure</description>
      <styleUrl>#icon-1899-DB4436</styleUrl>
      <Point>
        <coordinates>
          144.147401,-35.1518708,0
        </coordinates>
      </Point>
    </Placemark>
    <Placemark>
      <name>Tap</name>
      <description>///stimuli.trespass.cheerful</description>
      <styleUrl>#icon-1899-DB4436</styleUrl>
      <Point>
        <coordinates>
          144.1459592,-35.1510204,0
        </coordinates>
      </Point>
    </Placemark>
    <Placemark>
      <name>Tap</name>
      <description>///deploy.brass.mock</description>
      <styleUrl>#icon-1899-DB4436</styleUrl>
      <Point>
        <coordinates>
          144.1443282,-35.1496951,0
        </coordinates>
      </Point>
    </Placemark>
    <Placemark>
      <name>Tap</name>
      <description>///generosity.preferences.sums</description>
      <styleUrl>#icon-1899-DB4436</styleUrl>
      <Point>
        <coordinates>
          144.1440652,-35.1498145,0
        </coordinates>
      </Point>
    </Placemark>
    <Placemark>
      <name>Tap</name>
      <description>///defaulted.enrolling.matrimony </description>
      <styleUrl>#icon-1899-DB4436</styleUrl>
      <Point>
        <coordinates>
          144.1445537,-35.1503582,0
        </coordinates>
      </Point>
    </Placemark>
    <Placemark>
      <name>Tap</name>
      <description>///surface.swatting.fearing</description>
      <styleUrl>#icon-1899-DB4436</styleUrl>
      <Point>
        <coordinates>
          144.1450874,-35.1499451,0
        </coordinates>
      </Point>
    </Placemark>
    <Placemark>
      <name>Tap</name>
      <description>///headlamps.dines.economics</description>
      <styleUrl>#icon-1899-DB4436</styleUrl>
      <Point>
        <coordinates>
          144.1455807,-35.1496959,0
        </coordinates>
      </Point>
    </Placemark>
    <Placemark>
      <name>Tap</name>
      <description>///enemies.worker.posterity </description>
      <styleUrl>#icon-1899-DB4436</styleUrl>
      <Point>
        <coordinates>
          144.145578,-35.1502145,0
        </coordinates>
      </Point>
    </Placemark>
    <Placemark>
      <name>Tap</name>
      <description>///fume.canine.utopia</description>
      <styleUrl>#icon-1899-DB4436</styleUrl>
      <Point>
        <coordinates>
          144.1439412,-35.150055,0
        </coordinates>
      </Point>
    </Placemark>
    <Placemark>
      <name>Tap</name>
      <description>///forgotten.estimating.screwball</description>
      <styleUrl>#icon-1899-DB4436</styleUrl>
      <Point>
        <coordinates>
          144.1450578,-35.1495709,0
        </coordinates>
      </Point>
    </Placemark>
    <Placemark>
      <name>Tap</name>
      <description>///flutes.order.snap</description>
      <styleUrl>#icon-1899-DB4436</styleUrl>
      <Point>
        <coordinates>
          144.1455566,-35.150317,0
        </coordinates>
      </Point>
    </Placemark>
    <Placemark>
      <name>Tap</name>
      <description>///sodium.raincoats.encoding</description>
      <styleUrl>#icon-1899-DB4436</styleUrl>
      <Point>
        <coordinates>
          144.1452521,-35.150555,0
        </coordinates>
      </Point>
    </Placemark>
    <Placemark>
      <name>Tap</name>
      <description>///drifters.marathons.exhibiting</description>
      <styleUrl>#icon-1899-DB4436</styleUrl>
      <Point>
        <coordinates>
          144.1452535,-35.1505232,0
        </coordinates>
      </Point>
    </Placemark>
    <Placemark>
      <name>Tap</name>
      <description>///exports.commute.alarmist</description>
      <styleUrl>#icon-1899-DB4436</styleUrl>
      <Point>
        <coordinates>
          144.1452883,-35.1506296,0
        </coordinates>
      </Point>
    </Placemark>
    <Placemark>
      <name>Tap</name>
      <description>///files.unleashes.lost</description>
      <styleUrl>#icon-1899-DB4436</styleUrl>
      <Point>
        <coordinates>
          144.1462763,-35.1509119,0
        </coordinates>
      </Point>
    </Placemark>
    <Placemark>
      <name>Cooking Circle </name>
      <description><![CDATA[///betting.truths.survive<br>15.5 x 29]]></description>
      <styleUrl>#icon-1899-0288D1</styleUrl>
      <Point>
        <coordinates>
          144.1429394,-35.1478572,0
        </coordinates>
      </Point>
    </Placemark>
    <Placemark>
      <name>Cooking Circle</name>
      <description><![CDATA[///rejoining.mobs.crawler<br>9.5m Radius]]></description>
      <styleUrl>#icon-1764-FF5252</styleUrl>
      <Point>
        <coordinates>
          144.1407403,-35.1489359,0
        </coordinates>
      </Point>
    </Placemark>
    <Placemark>
      <name>Cooking Circle</name>
      <description><![CDATA[///kilts.vole.sounded<br>9 x 21m<br>2 x Taps]]></description>
      <styleUrl>#icon-1764-FF5252</styleUrl>
      <Point>
        <coordinates>
          144.1422616,-35.1479742,0
        </coordinates>
      </Point>
    </Placemark>
    <Placemark>
      <name>Cooking Circle</name>
      <description><![CDATA[///laser.slangy.unpack<br>6m Radius]]></description>
      <styleUrl>#icon-1764-FF5252</styleUrl>
      <Point>
        <coordinates>
          144.1422603,-35.1477778,0
        </coordinates>
      </Point>
    </Placemark>
    <Placemark>
      <name>Cooking Circle</name>
      <description><![CDATA[Checkmates Kitchen<br>3m Radius]]></description>
      <styleUrl>#icon-1764-FF5252</styleUrl>
      <Point>
        <coordinates>
          144.1413966,-35.1479473,0
        </coordinates>
      </Point>
    </Placemark>
    <Placemark>
      <name>Cooking Circle </name>
      <description><![CDATA[///routines.serene.departure<br>8m radius flat all around ]]></description>
      <styleUrl>#icon-1899-0288D1</styleUrl>
      <Point>
        <coordinates>
          144.1455326,-35.1501291,0
        </coordinates>
      </Point>
    </Placemark>
    <Placemark>
      <name>Cooking Circle</name>
      <description><![CDATA[///waterfront.terrace.reclaim<br>13m <br>Cooking Circle "3"<br>cooking circle flat area surrounding ]]></description>
      <styleUrl>#icon-1764-FF5252</styleUrl>
      <Point>
        <coordinates>
          144.1466078,-35.1512333,0
        </coordinates>
      </Point>
    </Placemark>
    <Placemark>
      <name>Cooking Circle </name>
      <description>small flat spaces around circle </description>
      <styleUrl>#icon-1899-0288D1</styleUrl>
      <Point>
        <coordinates>
          144.1484219,-35.1519358,0
        </coordinates>
      </Point>
    </Placemark>
    <Placemark>
      <name>Cooking Circle </name>
      <description>///unicorns.craft.excess</description>
      <styleUrl>#icon-1899-0288D1</styleUrl>
      <Point>
        <coordinates>
          144.1437641,-35.1480547,0
        </coordinates>
      </Point>
    </Placemark>
    <Placemark>
      <name>Cooking Circle</name>
      <description><![CDATA[11.5m Radius<br>5 way rd junction]]></description>
      <styleUrl>#icon-1764-FF5252</styleUrl>
      <Point>
        <coordinates>
          144.1441285,-35.1487945,0
        </coordinates>
      </Point>
    </Placemark>
    <Placemark>
      <name>Cooking Circle</name>
      <description><![CDATA[///mineral.smoke.indulging<br>6m Radius]]></description>
      <styleUrl>#icon-1764-FF5252</styleUrl>
      <Point>
        <coordinates>
          144.148397,-35.1526402,0
        </coordinates>
      </Point>
    </Placemark>
    <Placemark>
      <name>Cooking Circle</name>
      <description><![CDATA[///materially.showcases.speaker<br>8.5m r ]]></description>
      <styleUrl>#icon-1764-FF5252</styleUrl>
      <Point>
        <coordinates>
          144.1493178,-35.1525785,0
        </coordinates>
      </Point>
    </Placemark>
    <Placemark>
      <name>Cooking Circle</name>
      <description><![CDATA[///punk.logging.vacuuming<br>42 x 18m<br>Road goes through - Cooking Circle "2"]]></description>
      <styleUrl>#icon-1764-FF5252</styleUrl>
      <Point>
        <coordinates>
          144.1479407,-35.1516481,0
        </coordinates>
      </Point>
    </Placemark>
    <Placemark>
      <name>Cooking Circle </name>
      <description><![CDATA[///unnatural.flying.exhibiting<br>8m r]]></description>
      <styleUrl>#icon-1899-0288D1</styleUrl>
      <Point>
        <coordinates>
          144.1503364,-35.1522076,0
        </coordinates>
      </Point>
    </Placemark>
    <Placemark>
      <name>Cooking Circle </name>
      <description><![CDATA[///sprinkle.reputable.puddle<br>7.5m radius<br>rd rejoins ]]></description>
      <styleUrl>#icon-1899-0288D1</styleUrl>
      <Point>
        <coordinates>
          144.1496419,-35.1511326,0
        </coordinates>
      </Point>
    </Placemark>
    <Placemark>
      <name>Cooking Circle</name>
      <description><![CDATA[8m Radius<br>Cooking Circle "1"]]></description>
      <styleUrl>#icon-1764-FF5252</styleUrl>
      <Point>
        <coordinates>
          144.1479232,-35.1510825,0
        </coordinates>
      </Point>
    </Placemark>
    <Placemark>
      <name>Cooking Circle</name>
      <description><![CDATA[///recurs.loses.renders<br>7m radius]]></description>
      <styleUrl>#icon-1764-FF5252</styleUrl>
      <Point>
        <coordinates>
          144.149403,-35.1501749,0
        </coordinates>
      </Point>
    </Placemark>
    <Placemark>
      <name>Tap</name>
      <description>///forecast.wised.clings</description>
      <styleUrl>#icon-1899-DB4436</styleUrl>
      <Point>
        <coordinates>
          144.146076,-35.1497186,0
        </coordinates>
      </Point>
    </Placemark>
    <Placemark>
      <name>Tap</name>
      <description>///horizon.moonlight.straddle</description>
      <styleUrl>#icon-1899-DB4436</styleUrl>
      <Point>
        <coordinates>
          144.1497435,-35.1511453,0
        </coordinates>
      </Point>
    </Placemark>
    <Placemark>
      <name>Tap</name>
      <description>///absorbent.twirl.novels</description>
      <styleUrl>#icon-1899-DB4436</styleUrl>
      <Point>
        <coordinates>
          144.1502496,-35.1521926,0
        </coordinates>
      </Point>
    </Placemark>
    <Placemark>
      <name>Tap</name>
      <description>///sidelined.freeway.hazelnut</description>
      <styleUrl>#icon-1899-DB4436</styleUrl>
      <Point>
        <coordinates>
          144.149216,-35.1524689,0
        </coordinates>
      </Point>
    </Placemark>
    <Placemark>
      <name>Tap</name>
      <description>///outer.toffee.sphere</description>
      <styleUrl>#icon-1899-DB4436</styleUrl>
      <Point>
        <coordinates>
          144.1481684,-35.1508092,0
        </coordinates>
      </Point>
    </Placemark>
    <Placemark>
      <name>Tap</name>
      <description>///shifting.bedridden.buttered</description>
      <styleUrl>#icon-1899-DB4436</styleUrl>
      <Point>
        <coordinates>
          144.1478492,-35.1511086,0
        </coordinates>
      </Point>
    </Placemark>
    <Placemark>
      <name>Tap</name>
      <description>///vaguely.pleasantly.wheels</description>
      <styleUrl>#icon-1899-DB4436</styleUrl>
      <Point>
        <coordinates>
          144.147927,-35.1515746,0
        </coordinates>
      </Point>
    </Placemark>
    <Placemark>
      <name>Tap</name>
      <description>///scribbles.quadrupled.inflates</description>
      <styleUrl>#icon-1899-DB4436</styleUrl>
      <Point>
        <coordinates>
          144.1484036,-35.151941,0
        </coordinates>
      </Point>
    </Placemark>
    <Placemark>
      <name>Tap</name>
      <description>///astronomer.kiosks.milky</description>
      <styleUrl>#icon-1899-DB4436</styleUrl>
      <Point>
        <coordinates>
          144.1479959,-35.1520507,0
        </coordinates>
      </Point>
    </Placemark>
    <Placemark>
      <name>Tap</name>
      <description>///texture.fine.napkin</description>
      <styleUrl>#icon-1899-DB4436</styleUrl>
      <Point>
        <coordinates>
          144.1475885,-35.1521203,0
        </coordinates>
      </Point>
    </Placemark>
    <Placemark>
      <name>Tap</name>
      <description>///twigs.backstroke.cyclists</description>
      <styleUrl>#icon-1899-DB4436</styleUrl>
      <Point>
        <coordinates>
          144.1493082,-35.1515019,0
        </coordinates>
      </Point>
    </Placemark>
    <Placemark>
      <name>Tap</name>
      <description>///danced.meows.identity</description>
      <styleUrl>#icon-1899-DB4436</styleUrl>
      <Point>
        <coordinates>
          144.1493405,-35.150127,0
        </coordinates>
      </Point>
    </Placemark>
    <Placemark>
      <name>Tap</name>
      <description>///authors.duplicated.mailings</description>
      <styleUrl>#icon-1899-DB4436</styleUrl>
      <Point>
        <coordinates>
          144.1490126,-35.1494889,0
        </coordinates>
      </Point>
    </Placemark>
    <Placemark>
      <name>Tap</name>
      <description>///manipulation.adapted.responsible</description>
      <styleUrl>#icon-1899-DB4436</styleUrl>
      <Point>
        <coordinates>
          144.1485821,-35.1499506,0
        </coordinates>
      </Point>
    </Placemark>
    <Placemark>
      <name>Tap</name>
      <description>///roller.answer.jumbled</description>
      <styleUrl>#icon-1899-DB4436</styleUrl>
      <Point>
        <coordinates>
          144.1476533,-35.1502756,0
        </coordinates>
      </Point>
    </Placemark>
    <Placemark>
      <name>Tap</name>
      <description>///zilch.laudable.condiments</description>
      <styleUrl>#icon-1899-DB4436</styleUrl>
      <Point>
        <coordinates>
          144.148018,-35.1501035,0
        </coordinates>
      </Point>
    </Placemark>
    <Placemark>
      <name>Tap</name>
      <description>///outbound.formulas.truces</description>
      <styleUrl>#icon-1899-DB4436</styleUrl>
      <Point>
        <coordinates>
          144.1479952,-35.1499346,0
        </coordinates>
      </Point>
    </Placemark>
    <Placemark>
      <name>Tap</name>
      <description>///cloths.moon.shredder</description>
      <styleUrl>#icon-1899-DB4436</styleUrl>
      <Point>
        <coordinates>
          144.1476234,-35.1494287,0
        </coordinates>
      </Point>
    </Placemark>
    <Placemark>
      <name>Tap</name>
      <description>///attending.erode.dulled</description>
      <styleUrl>#icon-1899-DB4436</styleUrl>
      <Point>
        <coordinates>
          144.147559,-35.149534,0
        </coordinates>
      </Point>
    </Placemark>
    <Placemark>
      <name>Tap</name>
      <description>///stun.coaches.dumbly</description>
      <styleUrl>#icon-1899-DB4436</styleUrl>
      <Point>
        <coordinates>
          144.1470776,-35.1489177,0
        </coordinates>
      </Point>
    </Placemark>
    <Placemark>
      <name>Tap</name>
      <description>///aired.maintaining.sampling</description>
      <styleUrl>#icon-1899-DB4436</styleUrl>
      <Point>
        <coordinates>
          144.1464079,-35.1487705,0
        </coordinates>
      </Point>
    </Placemark>
    <Placemark>
      <name>Tap</name>
      <description>///anyone.barrels.sniff</description>
      <styleUrl>#icon-1899-DB4436</styleUrl>
      <Point>
        <coordinates>
          144.1465366,-35.1484657,0
        </coordinates>
      </Point>
    </Placemark>
    <Placemark>
      <name>Tap</name>
      <description>///unbleached.yacht.roosts</description>
      <styleUrl>#icon-1899-DB4436</styleUrl>
      <Point>
        <coordinates>
          144.1467496,-35.1478753,0
        </coordinates>
      </Point>
    </Placemark>
    <Placemark>
      <name>Tap</name>
      <description>///dignify.contemplate.blot</description>
      <styleUrl>#icon-1899-DB4436</styleUrl>
      <Point>
        <coordinates>
          144.1464398,-35.1477086,0
        </coordinates>
      </Point>
    </Placemark>
    <Placemark>
      <name>Tap</name>
      <description>///famous.ruffling.vocations</description>
      <styleUrl>#icon-1899-DB4436</styleUrl>
      <Point>
        <coordinates>
          144.1461099,-35.1474619,0
        </coordinates>
      </Point>
    </Placemark>
    <Placemark>
      <name>Tap</name>
      <description>///hourly.cavemen.vessel</description>
      <styleUrl>#icon-1899-DB4436</styleUrl>
      <Point>
        <coordinates>
          144.1460147,-35.1473829,0
        </coordinates>
      </Point>
    </Placemark>
    <Placemark>
      <name>Tap</name>
      <description>///restroom.participants.unlimited</description>
      <styleUrl>#icon-1899-DB4436</styleUrl>
      <Point>
        <coordinates>
          144.1460536,-35.147213,0
        </coordinates>
      </Point>
    </Placemark>
    <Placemark>
      <name>Tap</name>
      <description>//seatbelt.access.fluffs</description>
      <styleUrl>#icon-1899-DB4436</styleUrl>
      <Point>
        <coordinates>
          144.1472339,-35.1480362,0
        </coordinates>
      </Point>
    </Placemark>
    <Placemark>
      <name>Tap</name>
      <description>///flashlight.passenger.compounded</description>
      <styleUrl>#icon-1899-DB4436</styleUrl>
      <Point>
        <coordinates>
          144.1474606,-35.1481524,0
        </coordinates>
      </Point>
    </Placemark>
    <Placemark>
      <name>Tap</name>
      <description>///advantage.trample.diesel</description>
      <styleUrl>#icon-1899-DB4436</styleUrl>
      <Point>
        <coordinates>
          144.147702,-35.1480504,0
        </coordinates>
      </Point>
    </Placemark>
    <Placemark>
      <name>Bus route</name>
      <styleUrl>#line-A52714-2733-nodesc</styleUrl>
      <LineString>
        <tessellate>1</tessellate>
        <coordinates>
          144.1485729,-35.143408,0
          144.1488572,-35.143601,0
          144.1491469,-35.1436756,0
          144.149855,-35.1437546,0
          144.1503914,-35.1438072,0
          144.1506596,-35.1438686,0
          144.1507776,-35.144009,0
          144.1507669,-35.1441801,0
          144.1506006,-35.1446538,0
          144.150091,-35.1458645,0
          144.1499515,-35.1461101,0
          144.1497101,-35.1465224,0
          144.1495492,-35.1468251,0
          144.149458,-35.14704,0
          144.1493239,-35.1473997,0
          144.1491227,-35.1479941,0
          144.1488304,-35.1488911,0
          144.1486828,-35.1493385,0
          144.1485407,-35.1497551,0
          144.1484817,-35.1499065,0
          144.1484254,-35.1500074,0
          144.1483395,-35.1501082,0
          144.1482188,-35.1501916,0
          144.1480713,-35.1502486,0
          144.1478889,-35.1503188,0
          144.1477414,-35.1503846,0
          144.1475992,-35.1504767,0
          144.1475027,-35.1505227,0
          144.1474034,-35.1505161,0
          144.1473096,-35.1504679,0
          144.1472291,-35.150389,0
          144.1470655,-35.1502157,0
          144.14669,-35.1498889,0
          144.1464164,-35.1496477,0
          144.1460731,-35.1493231,0
          144.1459175,-35.1491542,0
          144.1458531,-35.149049,0
          144.1457941,-35.148902,0
          144.1456975,-35.1486213,0
          144.1455661,-35.1483318,0
          144.1454749,-35.1482134,0
          144.1453515,-35.1480971,0
          144.1449304,-35.1477769,0
          144.1447024,-35.1475116,0
          144.144689,-35.1472879,0
          144.1446703,-35.1470335,0
          144.1446837,-35.1468865,0
          144.144791,-35.1467176,0
          144.1449197,-35.1465751,0
          144.1450055,-35.1465334,0
          144.1455768,-35.1465444,0
          144.1462662,-35.1465685,0
          144.1467034,-35.1465181,0
          144.1470896,-35.1464588,0
          144.14739,-35.1463733,0
          144.1475188,-35.1462439,0
          144.1476234,-35.1461386,0
          144.1479801,-35.1455925,0
          144.1481544,-35.1452021,0
          144.1482778,-35.1448183,0
          144.1483422,-35.1446319,0
          144.1484951,-35.1443182,0
          144.1486399,-35.14402,0
          144.1487606,-35.143827,0
          144.1488277,-35.1436756,0
          144.1488599,-35.143601,0
        </coordinates>
      </LineString>
    </Placemark>
    <Placemark>
      <name>Cooking Circle</name>
      <description><![CDATA[///cots.emerald.lantern<br>6.5m Radius]]></description>
      <styleUrl>#icon-1764-FF5252</styleUrl>
      <Point>
        <coordinates>
          144.147607,-35.1520183,0
        </coordinates>
      </Point>
    </Placemark>
    <Placemark>
      <name>Cooking Circle</name>
      <description>Gypsy Kitchen</description>
      <styleUrl>#icon-1764-FF5252</styleUrl>
      <Point>
        <coordinates>
          144.148978,-35.149072,0
        </coordinates>
      </Point>
    </Placemark>
    <Placemark>
      <name>Cooking Circle</name>
      <description>Bliss Kitchen</description>
      <styleUrl>#icon-1764-FF5252</styleUrl>
      <Point>
        <coordinates>
          144.1481188,-35.1508367,0
        </coordinates>
      </Point>
    </Placemark>
    <Placemark>
      <name>Cooking Circle</name>
      <description>Nudies cooking circle</description>
      <styleUrl>#icon-1764-FF5252</styleUrl>
      <Point>
        <coordinates>
          144.1428906,-35.1486654,0
        </coordinates>
      </Point>
    </Placemark>
  </Document>
</kml>
