<?xml version="1.0" encoding="UTF-8"?>
<kml xmlns="http://www.opengis.net/kml/2.2">
  <Document>
    <name>VaAS / Points of interest</name>
    <Style id="icon-1502-006064-labelson">
      <IconStyle>
        <color>ff646000</color>
        <scale>1</scale>
        <Icon>
          <href>https://www.gstatic.com/mapspro/images/stock/503-wht-blank_maps.png</href>
        </Icon>
      </IconStyle>
    </Style>
    <Style id="icon-1502-097138-labelson">
      <IconStyle>
        <color>ff387109</color>
        <scale>1</scale>
        <Icon>
          <href>https://www.gstatic.com/mapspro/images/stock/503-wht-blank_maps.png</href>
        </Icon>
      </IconStyle>
    </Style>
    <Style id="icon-1502-7CB342-labelson">
      <IconStyle>
        <color>ff42b37c</color>
        <scale>1</scale>
        <Icon>
          <href>https://www.gstatic.com/mapspro/images/stock/503-wht-blank_maps.png</href>
        </Icon>
      </IconStyle>
    </Style>
    <Style id="icon-1521-1A237E-labelson">
      <IconStyle>
        <color>ff7e231a</color>
        <scale>1</scale>
        <Icon>
          <href>https://www.gstatic.com/mapspro/images/stock/503-wht-blank_maps.png</href>
        </Icon>
      </IconStyle>
    </Style>
    <Style id="icon-1522-1A237E-labelson">
      <IconStyle>
        <color>ff7e231a</color>
        <scale>1</scale>
        <Icon>
          <href>https://www.gstatic.com/mapspro/images/stock/503-wht-blank_maps.png</href>
        </Icon>
      </IconStyle>
    </Style>
    <Style id="icon-1558-1A237E-labelson">
      <IconStyle>
        <color>ff7e231a</color>
        <scale>1</scale>
        <Icon>
          <href>https://www.gstatic.com/mapspro/images/stock/503-wht-blank_maps.png</href>
        </Icon>
      </IconStyle>
    </Style>
    <Style id="icon-1574-1A237E-labelson">
      <IconStyle>
        <color>ff7e231a</color>
        <scale>1</scale>
        <Icon>
          <href>https://www.gstatic.com/mapspro/images/stock/503-wht-blank_maps.png</href>
        </Icon>
      </IconStyle>
    </Style>
    <Style id="icon-1591-1A237E-labelson">
      <IconStyle>
        <color>ff7e231a</color>
        <scale>1</scale>
        <Icon>
          <href>https://www.gstatic.com/mapspro/images/stock/503-wht-blank_maps.png</href>
        </Icon>
      </IconStyle>
    </Style>
    <Style id="icon-1603-1A237E-labelson">
      <IconStyle>
        <color>ff7e231a</color>
        <scale>1</scale>
        <Icon>
          <href>https://www.gstatic.com/mapspro/images/stock/503-wht-blank_maps.png</href>
        </Icon>
      </IconStyle>
    </Style>
    <Style id="icon-1608-1A237E-labelson">
      <IconStyle>
        <color>ff7e231a</color>
        <scale>1</scale>
        <Icon>
          <href>https://www.gstatic.com/mapspro/images/stock/503-wht-blank_maps.png</href>
        </Icon>
      </IconStyle>
    </Style>
    <Style id="icon-1685-1A237E-labelson">
      <IconStyle>
        <color>ff7e231a</color>
        <scale>1</scale>
        <Icon>
          <href>https://www.gstatic.com/mapspro/images/stock/503-wht-blank_maps.png</href>
        </Icon>
      </IconStyle>
    </Style>
    <Style id="icon-1788-006064-labelson">
      <IconStyle>
        <color>ff646000</color>
        <scale>1</scale>
        <Icon>
          <href>https://www.gstatic.com/mapspro/images/stock/503-wht-blank_maps.png</href>
        </Icon>
      </IconStyle>
    </Style>
    <Placemark>
      <name>Playground</name>
      <description><![CDATA[abbreviation: PG<br>description: ///maturity.movements.sweaty<br>Visibility: false]]></description>
      <styleUrl>#icon-1574-1A237E-labelson</styleUrl>
      <ExtendedData>
        <Data name="abbreviation">
          <value>PG</value>
        </Data>
        <Data name="description">
          <value>///maturity.movements.sweaty</value>
        </Data>
        <Data name="Visibility">
          <value>0</value>
        </Data>
      </ExtendedData>
      <Point>
        <coordinates>
          144.1474295,-35.1498188,0
        </coordinates>
      </Point>
    </Placemark>
    <Placemark>
      <name>Info Tent</name>
      <description><![CDATA[abbreviation: IT<br>description: ///generosity.reflections.finals<br>(Estimated)<br>Visibility: false]]></description>
      <styleUrl>#icon-1608-1A237E-labelson</styleUrl>
      <ExtendedData>
        <Data name="abbreviation">
          <value>IT</value>
        </Data>
        <Data name="description">
          <value>///generosity.reflections.finals
(Estimated)</value>
        </Data>
        <Data name="Visibility">
          <value>0</value>
        </Data>
      </ExtendedData>
      <Point>
        <coordinates>
          144.1462751,-35.1492471,0
        </coordinates>
      </Point>
    </Placemark>
    <Placemark>
      <name>First Aid</name>
      <description><![CDATA[abbreviation: FA<br>description: ///sloppy.caged.dissolving<br>Visibility: false]]></description>
      <styleUrl>#icon-1558-1A237E-labelson</styleUrl>
      <ExtendedData>
        <Data name="abbreviation">
          <value>FA</value>
        </Data>
        <Data name="description">
          <value>///sloppy.caged.dissolving</value>
        </Data>
        <Data name="Visibility">
          <value>0</value>
        </Data>
      </ExtendedData>
      <Point>
        <coordinates>
          144.1471706,-35.1480096,0
        </coordinates>
      </Point>
    </Placemark>
    <Placemark>
      <name>Ranger</name>
      <description><![CDATA[abbreviation: R<br>description: ///carpeted.fishes.derive<br>Visibility: false]]></description>
      <styleUrl>#icon-1574-1A237E-labelson</styleUrl>
      <ExtendedData>
        <Data name="abbreviation">
          <value>R</value>
        </Data>
        <Data name="description">
          <value>///carpeted.fishes.derive</value>
        </Data>
        <Data name="Visibility">
          <value>0</value>
        </Data>
      </ExtendedData>
      <Point>
        <coordinates>
          144.1472872,-35.1480907,0
        </coordinates>
      </Point>
    </Placemark>
    <Placemark>
      <name>Site Ops</name>
      <description><![CDATA[abbreviation: SO<br>description: ///exact.buck.sensuality<br>Visibility: false]]></description>
      <styleUrl>#icon-1574-1A237E-labelson</styleUrl>
      <ExtendedData>
        <Data name="abbreviation">
          <value>SO</value>
        </Data>
        <Data name="description">
          <value>///exact.buck.sensuality</value>
        </Data>
        <Data name="Visibility">
          <value>0</value>
        </Data>
      </ExtendedData>
      <Point>
        <coordinates>
          144.147357,-35.1479854,0
        </coordinates>
      </Point>
    </Placemark>
    <Placemark>
      <name>Hive Kitchen</name>
      <description><![CDATA[abbreviation: HK<br>description: ///electrode.filmed.confiding<br>Visibility: false]]></description>
      <styleUrl>#icon-1591-1A237E-labelson</styleUrl>
      <ExtendedData>
        <Data name="abbreviation">
          <value>HK</value>
        </Data>
        <Data name="description">
          <value>///electrode.filmed.confiding</value>
        </Data>
        <Data name="Visibility">
          <value>0</value>
        </Data>
      </ExtendedData>
      <Point>
        <coordinates>
          144.1460013,-35.1472967,0
        </coordinates>
      </Point>
    </Placemark>
    <Placemark>
      <name>Lifeguard Beach</name>
      <description><![CDATA[abbreviation: LB<br>description: ///hangdog.slowly.fascinating<br><br><br>Visibility: false]]></description>
      <styleUrl>#icon-1521-1A237E-labelson</styleUrl>
      <ExtendedData>
        <Data name="abbreviation">
          <value>LB</value>
        </Data>
        <Data name="description">
          <value>///hangdog.slowly.fascinating

</value>
        </Data>
        <Data name="Visibility">
          <value>0</value>
        </Data>
      </ExtendedData>
      <Point>
        <coordinates>
          144.1431558,-35.1473027,0
        </coordinates>
      </Point>
    </Placemark>
    <Placemark>
      <name>Labrynth</name>
      <description><![CDATA[abbreviation: <br>description: ///censorship.flipping.lifetimes<br>Visibility: false]]></description>
      <styleUrl>#icon-1574-1A237E-labelson</styleUrl>
      <ExtendedData>
        <Data name="abbreviation">
          <value/>
        </Data>
        <Data name="description">
          <value>///censorship.flipping.lifetimes</value>
        </Data>
        <Data name="Visibility">
          <value>0</value>
        </Data>
      </ExtendedData>
      <Point>
        <coordinates>
          144.1438265,-35.1476174,0
        </coordinates>
      </Point>
    </Placemark>
    <Placemark>
      <name>Market</name>
      <description><![CDATA[abbreviation: <br>description: ///tearooms.puffed.polite<br>Visibility: false]]></description>
      <styleUrl>#icon-1685-1A237E-labelson</styleUrl>
      <ExtendedData>
        <Data name="abbreviation">
          <value/>
        </Data>
        <Data name="description">
          <value>///tearooms.puffed.polite</value>
        </Data>
        <Data name="Visibility">
          <value>0</value>
        </Data>
      </ExtendedData>
      <Point>
        <coordinates>
          144.1480248,-35.1494629,0
        </coordinates>
      </Point>
    </Placemark>
    <Placemark>
      <name>Market Tree Pole Gate</name>
      <description><![CDATA[abbreviation: <br>description: ///piled.thermometer.crossroad<br>Visibility: false]]></description>
      <styleUrl>#icon-1608-1A237E-labelson</styleUrl>
      <ExtendedData>
        <Data name="abbreviation">
          <value/>
        </Data>
        <Data name="description">
          <value>///piled.thermometer.crossroad</value>
        </Data>
        <Data name="Visibility">
          <value>0</value>
        </Data>
      </ExtendedData>
      <Point>
        <coordinates>
          144.1469991,-35.1490688,0
        </coordinates>
      </Point>
    </Placemark>
    <Placemark>
      <name>Bike Crew</name>
      <description><![CDATA[abbreviation: <br>description: ///risk.warmer.dropped<br>Visibility: false]]></description>
      <styleUrl>#icon-1522-1A237E-labelson</styleUrl>
      <ExtendedData>
        <Data name="abbreviation">
          <value/>
        </Data>
        <Data name="description">
          <value>///risk.warmer.dropped</value>
        </Data>
        <Data name="Visibility">
          <value>0</value>
        </Data>
      </ExtendedData>
      <Point>
        <coordinates>
          144.144382,-35.1467243,0
        </coordinates>
      </Point>
    </Placemark>
    <Placemark>
      <name>Sunset Beach</name>
      <description><![CDATA[abbreviation: <br>description: ///burgers.dreary.preferably<br>Visibility: false]]></description>
      <styleUrl>#icon-1521-1A237E-labelson</styleUrl>
      <ExtendedData>
        <Data name="abbreviation">
          <value/>
        </Data>
        <Data name="description">
          <value>///burgers.dreary.preferably</value>
        </Data>
        <Data name="Visibility">
          <value>0</value>
        </Data>
      </ExtendedData>
      <Point>
        <coordinates>
          144.1399055,-35.1494355,0
        </coordinates>
      </Point>
    </Placemark>
    <Placemark>
      <name>Wellness</name>
      <description><![CDATA[abbreviation: <br>description: #ESTIMATE#<br>Visibility: false]]></description>
      <styleUrl>#icon-1574-1A237E-labelson</styleUrl>
      <ExtendedData>
        <Data name="abbreviation">
          <value/>
        </Data>
        <Data name="description">
          <value>#ESTIMATE#</value>
        </Data>
        <Data name="Visibility">
          <value>0</value>
        </Data>
      </ExtendedData>
      <Point>
        <coordinates>
          144.147426,-35.1481101,0
        </coordinates>
      </Point>
    </Placemark>
    <Placemark>
      <name>Fire Team</name>
      <description><![CDATA[abbreviation: <br>description: #Estimate#<br>Visibility: false]]></description>
      <styleUrl>#icon-1574-1A237E-labelson</styleUrl>
      <ExtendedData>
        <Data name="abbreviation">
          <value/>
        </Data>
        <Data name="description">
          <value>#Estimate#</value>
        </Data>
        <Data name="Visibility">
          <value>0</value>
        </Data>
      </ExtendedData>
      <Point>
        <coordinates>
          144.1468342,-35.1477844,0
        </coordinates>
      </Point>
    </Placemark>
    <Placemark>
      <name>Ticket Box</name>
      <description><![CDATA[abbreviation: <br>description: #estimate#<br>Visibility: false]]></description>
      <styleUrl>#icon-1603-1A237E-labelson</styleUrl>
      <ExtendedData>
        <Data name="abbreviation">
          <value/>
        </Data>
        <Data name="description">
          <value>#estimate#</value>
        </Data>
        <Data name="Visibility">
          <value>0</value>
        </Data>
      </ExtendedData>
      <Point>
        <coordinates>
          144.146265,-35.1379566,0
        </coordinates>
      </Point>
    </Placemark>
    <Placemark>
      <name>Welcome Crew</name>
      <description><![CDATA[abbreviation: <br>description: #Estimate#<br>Visibility: false]]></description>
      <styleUrl>#icon-1603-1A237E-labelson</styleUrl>
      <ExtendedData>
        <Data name="abbreviation">
          <value/>
        </Data>
        <Data name="description">
          <value>#Estimate#</value>
        </Data>
        <Data name="Visibility">
          <value>0</value>
        </Data>
      </ExtendedData>
      <Point>
        <coordinates>
          144.1462301,-35.1377109,0
        </coordinates>
      </Point>
    </Placemark>
    <Placemark>
      <name>Aboriginal</name>
      <description><![CDATA[abbreviation: ABR<br>description: #needs W3W and confirmation<br>Visibility: true]]></description>
      <styleUrl>#icon-1502-7CB342-labelson</styleUrl>
      <ExtendedData>
        <Data name="abbreviation">
          <value>ABR</value>
        </Data>
        <Data name="description">
          <value>#needs W3W and confirmation</value>
        </Data>
        <Data name="Visibility">
          <value>1</value>
        </Data>
      </ExtendedData>
      <Point>
        <coordinates>
          144.1452911,-35.148684,0
        </coordinates>
      </Point>
    </Placemark>
    <Placemark>
      <name>Acrotown</name>
      <description><![CDATA[abbreviation: ACR<br>description: ///rarity.brother.prance<br>13m Radius<br>Visibility: true]]></description>
      <styleUrl>#icon-1502-7CB342-labelson</styleUrl>
      <ExtendedData>
        <Data name="abbreviation">
          <value>ACR</value>
        </Data>
        <Data name="description">
          <value>///rarity.brother.prance
13m Radius</value>
        </Data>
        <Data name="Visibility">
          <value>1</value>
        </Data>
      </ExtendedData>
      <Point>
        <coordinates>
          144.1443604,-35.1495504,0
        </coordinates>
      </Point>
    </Placemark>
    <Placemark>
      <name>Aboriginal Heritage</name>
      <description><![CDATA[abbreviation: ABH<br>description: confirm w/ Suzie - around 26/2<br>Visibility: true]]></description>
      <styleUrl>#icon-1502-7CB342-labelson</styleUrl>
      <ExtendedData>
        <Data name="abbreviation">
          <value>ABH</value>
        </Data>
        <Data name="description">
          <value>confirm w/ Suzie - around 26/2</value>
        </Data>
        <Data name="Visibility">
          <value>1</value>
        </Data>
      </ExtendedData>
      <Point>
        <coordinates>
          144.1452089,-35.1466372,0
        </coordinates>
      </Point>
    </Placemark>
    <Placemark>
      <name>Arts Village</name>
      <description><![CDATA[abbreviation: ART<br>description: <br>Visibility: true]]></description>
      <styleUrl>#icon-1502-7CB342-labelson</styleUrl>
      <ExtendedData>
        <Data name="abbreviation">
          <value>ART</value>
        </Data>
        <Data name="description">
          <value/>
        </Data>
        <Data name="Visibility">
          <value>1</value>
        </Data>
      </ExtendedData>
      <Point>
        <coordinates>
          144.1431865,-35.1475371,0
        </coordinates>
      </Point>
    </Placemark>
    <Placemark>
      <name>Arts - Body Painting</name>
      <description><![CDATA[abbreviation: <br>description: ///salvaging.blouse.evidence<br>11 x 21<br>Visibility: false]]></description>
      <styleUrl>#icon-1502-7CB342-labelson</styleUrl>
      <ExtendedData>
        <Data name="abbreviation">
          <value/>
        </Data>
        <Data name="description">
          <value>///salvaging.blouse.evidence
11 x 21</value>
        </Data>
        <Data name="Visibility">
          <value>0</value>
        </Data>
      </ExtendedData>
      <Point>
        <coordinates>
          144.1434134,-35.147656,0
        </coordinates>
      </Point>
    </Placemark>
    <Placemark>
      <name>Arts - Marigold </name>
      <description><![CDATA[abbreviation: <br>description: ///rivalry.intonation.budget<br>6m Radius <br>Visibility: false]]></description>
      <styleUrl>#icon-1502-7CB342-labelson</styleUrl>
      <ExtendedData>
        <Data name="abbreviation">
          <value/>
        </Data>
        <Data name="description">
          <value>///rivalry.intonation.budget
6m Radius </value>
        </Data>
        <Data name="Visibility">
          <value>0</value>
        </Data>
      </ExtendedData>
      <Point>
        <coordinates>
          144.1436026,-35.1476686,0
        </coordinates>
      </Point>
    </Placemark>
    <Placemark>
      <name>Arts - Mud Pit</name>
      <description><![CDATA[abbreviation: <br>description: ///detained.tailed.causing<br>11m Radius <br>Visibility: false]]></description>
      <styleUrl>#icon-1502-7CB342-labelson</styleUrl>
      <ExtendedData>
        <Data name="abbreviation">
          <value/>
        </Data>
        <Data name="description">
          <value>///detained.tailed.causing
11m Radius </value>
        </Data>
        <Data name="Visibility">
          <value>0</value>
        </Data>
      </ExtendedData>
      <Point>
        <coordinates>
          144.1426906,-35.1474904,0
        </coordinates>
      </Point>
    </Placemark>
    <Placemark>
      <name>Arts - Sauna</name>
      <description><![CDATA[abbreviation: <br>description: ///stand.dependents.airing<br>3m Radius <br>Visibility: false]]></description>
      <styleUrl>#icon-1502-7CB342-labelson</styleUrl>
      <ExtendedData>
        <Data name="abbreviation">
          <value/>
        </Data>
        <Data name="description">
          <value>///stand.dependents.airing
3m Radius </value>
        </Data>
        <Data name="Visibility">
          <value>0</value>
        </Data>
      </ExtendedData>
      <Point>
        <coordinates>
          144.1430582,-35.1473866,0
        </coordinates>
      </Point>
    </Placemark>
    <Placemark>
      <name>Arts - Showers </name>
      <description><![CDATA[abbreviation: <br>description: ///streams.pavements.unshed<br>6 m Radius <br>Visibility: false]]></description>
      <styleUrl>#icon-1502-7CB342-labelson</styleUrl>
      <ExtendedData>
        <Data name="abbreviation">
          <value/>
        </Data>
        <Data name="description">
          <value>///streams.pavements.unshed
6 m Radius </value>
        </Data>
        <Data name="Visibility">
          <value>0</value>
        </Data>
      </ExtendedData>
      <Point>
        <coordinates>
          144.1429335,-35.1474132,0
        </coordinates>
      </Point>
    </Placemark>
    <Placemark>
      <name>Arts - Space Lounge</name>
      <description><![CDATA[abbreviation: <br>description: ///irrigation.softest.fixated<br>4.5m Radius <br>Visibility: false]]></description>
      <styleUrl>#icon-1502-7CB342-labelson</styleUrl>
      <ExtendedData>
        <Data name="abbreviation">
          <value/>
        </Data>
        <Data name="description">
          <value>///irrigation.softest.fixated
4.5m Radius </value>
        </Data>
        <Data name="Visibility">
          <value>0</value>
        </Data>
      </ExtendedData>
      <Point>
        <coordinates>
          144.1434334,-35.1473268,0
        </coordinates>
      </Point>
    </Placemark>
    <Placemark>
      <name>Bliss</name>
      <description><![CDATA[abbreviation: BLS<br>description: ///outer.toffee.sphere<br>20 x 11.5m<br>Cooking Circle + Taps<br>Visibility: true]]></description>
      <styleUrl>#icon-1502-7CB342-labelson</styleUrl>
      <ExtendedData>
        <Data name="abbreviation">
          <value>BLS</value>
        </Data>
        <Data name="description">
          <value>///outer.toffee.sphere
20 x 11.5m
Cooking Circle + Taps</value>
        </Data>
        <Data name="Visibility">
          <value>1</value>
        </Data>
      </ExtendedData>
      <Point>
        <coordinates>
          144.1481322,-35.150818,0
        </coordinates>
      </Point>
    </Placemark>
    <Placemark>
      <name>Buddafield</name>
      <description><![CDATA[abbreviation: BUD<br>description: #Confirm location#<br>Visibility: true]]></description>
      <styleUrl>#icon-1502-006064-labelson</styleUrl>
      <ExtendedData>
        <Data name="abbreviation">
          <value>BUD</value>
        </Data>
        <Data name="description">
          <value>#Confirm location#</value>
        </Data>
        <Data name="Visibility">
          <value>1</value>
        </Data>
      </ExtendedData>
      <Point>
        <coordinates>
          144.1479159,-35.1514166,0
        </coordinates>
      </Point>
    </Placemark>
    <Placemark>
      <name>Carp Exitus</name>
      <description><![CDATA[abbreviation: CEX<br>description: ///excuse.sunset.mirage<br>5 x 10m<br>Visibility: true]]></description>
      <styleUrl>#icon-1502-7CB342-labelson</styleUrl>
      <ExtendedData>
        <Data name="abbreviation">
          <value>CEX</value>
        </Data>
        <Data name="description">
          <value>///excuse.sunset.mirage
5 x 10m</value>
        </Data>
        <Data name="Visibility">
          <value>1</value>
        </Data>
      </ExtendedData>
      <Point>
        <coordinates>
          144.1445798,-35.1504109,0
        </coordinates>
      </Point>
    </Placemark>
    <Placemark>
      <name>Checkmates</name>
      <description><![CDATA[abbreviation: CHK<br>description: ///dilute.sleepless.slingshot<br>15 x 13m<br>Visibility: true]]></description>
      <styleUrl>#icon-1502-7CB342-labelson</styleUrl>
      <ExtendedData>
        <Data name="abbreviation">
          <value>CHK</value>
        </Data>
        <Data name="description">
          <value>///dilute.sleepless.slingshot
15 x 13m</value>
        </Data>
        <Data name="Visibility">
          <value>1</value>
        </Data>
      </ExtendedData>
      <Point>
        <coordinates>
          144.1414842,-35.1477252,0
        </coordinates>
      </Point>
    </Placemark>
    <Placemark>
      <name>Consent Village</name>
      <description><![CDATA[abbreviation: CNT<br>description: ///blesses.toasts.disruptive<br>12 x 30.5<br>Visibility: true]]></description>
      <styleUrl>#icon-1502-7CB342-labelson</styleUrl>
      <ExtendedData>
        <Data name="abbreviation">
          <value>CNT</value>
        </Data>
        <Data name="description">
          <value>///blesses.toasts.disruptive
12 x 30.5</value>
        </Data>
        <Data name="Visibility">
          <value>1</value>
        </Data>
      </ExtendedData>
      <Point>
        <coordinates>
          144.1445935,-35.1482594,0
        </coordinates>
      </Point>
    </Placemark>
    <Placemark>
      <name>Craft Cafe </name>
      <description><![CDATA[abbreviation: CRF<br>description: ///bingo.sweeteners.panics<br>5 x 14m<br>Visibility: true]]></description>
      <styleUrl>#icon-1502-7CB342-labelson</styleUrl>
      <ExtendedData>
        <Data name="abbreviation">
          <value>CRF</value>
        </Data>
        <Data name="description">
          <value>///bingo.sweeteners.panics
5 x 14m</value>
        </Data>
        <Data name="Visibility">
          <value>1</value>
        </Data>
      </ExtendedData>
      <Point>
        <coordinates>
          144.1437566,-35.1474537,0
        </coordinates>
      </Point>
    </Placemark>
    <Placemark>
      <name>Discussion Space</name>
      <description><![CDATA[abbreviation: DIS<br>description: #TBA<br>Visibility: true]]></description>
      <styleUrl>#icon-1502-006064-labelson</styleUrl>
      <ExtendedData>
        <Data name="abbreviation">
          <value>DIS</value>
        </Data>
        <Data name="description">
          <value>#TBA</value>
        </Data>
        <Data name="Visibility">
          <value>1</value>
        </Data>
      </ExtendedData>
      <Point>
        <coordinates>
          144.145224,-35.1494374,0
        </coordinates>
      </Point>
    </Placemark>
    <Placemark>
      <name>Drumming</name>
      <description><![CDATA[abbreviation: DRM<br>description: ///icicle.wakes.compromises<br>Visibility: true]]></description>
      <styleUrl>#icon-1502-7CB342-labelson</styleUrl>
      <ExtendedData>
        <Data name="abbreviation">
          <value>DRM</value>
        </Data>
        <Data name="description">
          <value>///icicle.wakes.compromises</value>
        </Data>
        <Data name="Visibility">
          <value>1</value>
        </Data>
      </ExtendedData>
      <Point>
        <coordinates>
          144.1459416,-35.1483805,0
        </coordinates>
      </Point>
    </Placemark>
    <Placemark>
      <name>Erina Stage</name>
      <description><![CDATA[abbreviation: ERN<br>description: #Approx#<br>Visibility: true]]></description>
      <styleUrl>#icon-1502-7CB342-labelson</styleUrl>
      <ExtendedData>
        <Data name="abbreviation">
          <value>ERN</value>
        </Data>
        <Data name="description">
          <value>#Approx#</value>
        </Data>
        <Data name="Visibility">
          <value>1</value>
        </Data>
      </ExtendedData>
      <Point>
        <coordinates>
          144.1443203,-35.1466577,0
        </coordinates>
      </Point>
    </Placemark>
    <Placemark>
      <name>Evolve</name>
      <description><![CDATA[abbreviation: EVL<br>description: Shell: position as discussed with River 17/02/2026<br>Visibility: true]]></description>
      <styleUrl>#icon-1502-7CB342-labelson</styleUrl>
      <ExtendedData>
        <Data name="abbreviation">
          <value>EVL</value>
        </Data>
        <Data name="description">
          <value>Shell: position as discussed with River 17/02/2026</value>
        </Data>
        <Data name="Visibility">
          <value>1</value>
        </Data>
      </ExtendedData>
      <Point>
        <coordinates>
          144.1406365,-35.1490207,0
        </coordinates>
      </Point>
    </Placemark>
    <Placemark>
      <name>Family Village</name>
      <description><![CDATA[abbreviation: FAM<br>description: Added by Shell 22/02/26 based on previous years<br>Visibility: true]]></description>
      <styleUrl>#icon-1502-7CB342-labelson</styleUrl>
      <ExtendedData>
        <Data name="abbreviation">
          <value>FAM</value>
        </Data>
        <Data name="description">
          <value>Added by Shell 22/02/26 based on previous years</value>
        </Data>
        <Data name="Visibility">
          <value>1</value>
        </Data>
      </ExtendedData>
      <Point>
        <coordinates>
          144.1455477,-35.1500765,0
        </coordinates>
      </Point>
    </Placemark>
    <Placemark>
      <name>Fire Tribe</name>
      <description><![CDATA[abbreviation: FIR<br>description: ///drumsticks.crumbling.crunching<br>Visibility: true]]></description>
      <styleUrl>#icon-1502-7CB342-labelson</styleUrl>
      <ExtendedData>
        <Data name="abbreviation">
          <value>FIR</value>
        </Data>
        <Data name="description">
          <value>///drumsticks.crumbling.crunching</value>
        </Data>
        <Data name="Visibility">
          <value>1</value>
        </Data>
      </ExtendedData>
      <Point>
        <coordinates>
          144.1462783,-35.1485932,0
        </coordinates>
      </Point>
    </Placemark>
    <Placemark>
      <name>Gypsy</name>
      <description><![CDATA[abbreviation: GPS<br>description: ///carnivorous.assortment.extinction<br>Visibility: true]]></description>
      <styleUrl>#icon-1502-7CB342-labelson</styleUrl>
      <ExtendedData>
        <Data name="abbreviation">
          <value>GPS</value>
        </Data>
        <Data name="description">
          <value>///carnivorous.assortment.extinction</value>
        </Data>
        <Data name="Visibility">
          <value>1</value>
        </Data>
      </ExtendedData>
      <Point>
        <coordinates>
          144.1490641,-35.1491736,0
        </coordinates>
      </Point>
    </Placemark>
    <Placemark>
      <name>Kali Chai</name>
      <description><![CDATA[abbreviation: KAL<br>description: ///pavilion.midnight.jumping<br>10 x 5m<br><br>Visibility: true]]></description>
      <styleUrl>#icon-1502-7CB342-labelson</styleUrl>
      <ExtendedData>
        <Data name="abbreviation">
          <value>KAL</value>
        </Data>
        <Data name="description">
          <value>///pavilion.midnight.jumping
10 x 5m
</value>
        </Data>
        <Data name="Visibility">
          <value>1</value>
        </Data>
      </ExtendedData>
      <Point>
        <coordinates>
          144.147989,-35.1517048,0
        </coordinates>
      </Point>
    </Placemark>
    <Placemark>
      <name>Life Drawing</name>
      <description><![CDATA[abbreviation: LFD<br>description: ///sleek.patent.irritable<br>11 x 7 m <br><br>Visibility: true]]></description>
      <styleUrl>#icon-1502-006064-labelson</styleUrl>
      <ExtendedData>
        <Data name="abbreviation">
          <value>LFD</value>
        </Data>
        <Data name="description">
          <value>///sleek.patent.irritable
11 x 7 m 
</value>
        </Data>
        <Data name="Visibility">
          <value>1</value>
        </Data>
      </ExtendedData>
      <Point>
        <coordinates>
          144.1440306,-35.1485559,0
        </coordinates>
      </Point>
    </Placemark>
    <Placemark>
      <name>Lovefest</name>
      <description><![CDATA[abbreviation: LVF<br>description: sharing with the grove / sydney village<br>Visibility: true]]></description>
      <styleUrl>#icon-1502-006064-labelson</styleUrl>
      <ExtendedData>
        <Data name="abbreviation">
          <value>LVF</value>
        </Data>
        <Data name="description">
          <value>sharing with the grove / sydney village</value>
        </Data>
        <Data name="Visibility">
          <value>1</value>
        </Data>
      </ExtendedData>
      <Point>
        <coordinates>
          144.1421794,-35.1479198,0
        </coordinates>
      </Point>
    </Placemark>
    <Placemark>
      <name>Muni Marquee</name>
      <description><![CDATA[abbreviation: MUN<br>description: ///medicate.raisin.straddled<br>17x24m<br><br>Visibility: true]]></description>
      <styleUrl>#icon-1502-7CB342-labelson</styleUrl>
      <ExtendedData>
        <Data name="abbreviation">
          <value>MUN</value>
        </Data>
        <Data name="description">
          <value>///medicate.raisin.straddled
17x24m
</value>
        </Data>
        <Data name="Visibility">
          <value>1</value>
        </Data>
      </ExtendedData>
      <Point>
        <coordinates>
          144.14963,-35.1498231,0
        </coordinates>
      </Point>
    </Placemark>
    <Placemark>
      <name>Naad Village</name>
      <description><![CDATA[abbreviation: NAD<br>description: #To Confirm<br>Visibility: true]]></description>
      <styleUrl>#icon-1502-006064-labelson</styleUrl>
      <ExtendedData>
        <Data name="abbreviation">
          <value>NAD</value>
        </Data>
        <Data name="description">
          <value>#To Confirm</value>
        </Data>
        <Data name="Visibility">
          <value>1</value>
        </Data>
      </ExtendedData>
      <Point>
        <coordinates>
          144.1475679,-35.1520511,0
        </coordinates>
      </Point>
    </Placemark>
    <Placemark>
      <name>Nudies</name>
      <description><![CDATA[abbreviation: NUD<br>description: ///rashers.frying.composers <br>24.5 x 17<br><br>Visibility: true]]></description>
      <styleUrl>#icon-1502-7CB342-labelson</styleUrl>
      <ExtendedData>
        <Data name="abbreviation">
          <value>NUD</value>
        </Data>
        <Data name="description">
          <value>///rashers.frying.composers 
24.5 x 17
</value>
        </Data>
        <Data name="Visibility">
          <value>1</value>
        </Data>
      </ExtendedData>
      <Point>
        <coordinates>
          144.1428927,-35.1487425,0
        </coordinates>
      </Point>
    </Placemark>
    <Placemark>
      <name>Open Stage</name>
      <description><![CDATA[abbreviation: OPN<br>description: ///equestrian.deflection.prowling<br>12 x 12<br>Visibility: true]]></description>
      <styleUrl>#icon-1502-7CB342-labelson</styleUrl>
      <ExtendedData>
        <Data name="abbreviation">
          <value>OPN</value>
        </Data>
        <Data name="description">
          <value>///equestrian.deflection.prowling
12 x 12</value>
        </Data>
        <Data name="Visibility">
          <value>1</value>
        </Data>
      </ExtendedData>
      <Point>
        <coordinates>
          144.1433127,-35.1496721,0
        </coordinates>
      </Point>
    </Placemark>
    <Placemark>
      <name>Polyamory Space</name>
      <description><![CDATA[abbreviation: POL<br>description: ///sculptors.prequel.trigger<br>6.5m r<br><br>Visibility: true]]></description>
      <styleUrl>#icon-1502-7CB342-labelson</styleUrl>
      <ExtendedData>
        <Data name="abbreviation">
          <value>POL</value>
        </Data>
        <Data name="description">
          <value>///sculptors.prequel.trigger
6.5m r
</value>
        </Data>
        <Data name="Visibility">
          <value>1</value>
        </Data>
      </ExtendedData>
      <Point>
        <coordinates>
          144.1507166,-35.1520085,0
        </coordinates>
      </Point>
    </Placemark>
    <Placemark>
      <name>Puzzle Cafe</name>
      <description><![CDATA[abbreviation: PZC<br>description: Shell updated location 22/02/26 in discussion with Kate. [NB this w3w is probably incorrect: ///peering.probe.masters]<br>Visibility: true]]></description>
      <styleUrl>#icon-1502-7CB342-labelson</styleUrl>
      <ExtendedData>
        <Data name="abbreviation">
          <value>PZC</value>
        </Data>
        <Data name="description">
          <value>Shell updated location 22/02/26 in discussion with Kate. [NB this w3w is probably incorrect: ///peering.probe.masters]</value>
        </Data>
        <Data name="Visibility">
          <value>1</value>
        </Data>
      </ExtendedData>
      <Point>
        <coordinates>
          144.1463631,-35.1509091,0
        </coordinates>
      </Point>
    </Placemark>
    <Placemark>
      <name>Permaculture</name>
      <description><![CDATA[abbreviation: PER<br>description: Added by Shell 22/02/26 after discussing with Bryan<br>Visibility: true]]></description>
      <styleUrl>#icon-1502-7CB342-labelson</styleUrl>
      <ExtendedData>
        <Data name="abbreviation">
          <value>PER</value>
        </Data>
        <Data name="description">
          <value>Added by Shell 22/02/26 after discussing with Bryan</value>
        </Data>
        <Data name="Visibility">
          <value>1</value>
        </Data>
      </ExtendedData>
      <Point>
        <coordinates>
          144.1456462,-35.1504767,0
        </coordinates>
      </Point>
    </Placemark>
    <Placemark>
      <name>Presence Tent</name>
      <description><![CDATA[abbreviation: PRS<br>description: ///submitting.bagger.spirit<br>6.5 Radius<br><br>Visibility: true]]></description>
      <styleUrl>#icon-1502-7CB342-labelson</styleUrl>
      <ExtendedData>
        <Data name="abbreviation">
          <value>PRS</value>
        </Data>
        <Data name="description">
          <value>///submitting.bagger.spirit
6.5 Radius
</value>
        </Data>
        <Data name="Visibility">
          <value>1</value>
        </Data>
      </ExtendedData>
      <Point>
        <coordinates>
          144.1440931,-35.1479158,0
        </coordinates>
      </Point>
    </Placemark>
    <Placemark>
      <name>Rainbow</name>
      <description><![CDATA[abbreviation: RBW<br>description: ///concessions.pursued.shuttling<br>Shell: location edited as discussed with Teacosy 13/02/2026<br>Visibility: true]]></description>
      <styleUrl>#icon-1502-7CB342-labelson</styleUrl>
      <ExtendedData>
        <Data name="abbreviation">
          <value>RBW</value>
        </Data>
        <Data name="description">
          <value>///concessions.pursued.shuttling
Shell: location edited as discussed with Teacosy 13/02/2026</value>
        </Data>
        <Data name="Visibility">
          <value>1</value>
        </Data>
      </ExtendedData>
      <Point>
        <coordinates>
          144.1492453,-35.1501781,0
        </coordinates>
      </Point>
    </Placemark>
    <Placemark>
      <name>Red Tent</name>
      <description><![CDATA[abbreviation: RED<br>description: #approx - shares space with Vulva#<br>Visibility: true]]></description>
      <styleUrl>#icon-1502-006064-labelson</styleUrl>
      <ExtendedData>
        <Data name="abbreviation">
          <value>RED</value>
        </Data>
        <Data name="description">
          <value>#approx - shares space with Vulva#</value>
        </Data>
        <Data name="Visibility">
          <value>1</value>
        </Data>
      </ExtendedData>
      <Point>
        <coordinates>
          144.1442063,-35.1486085,0
        </coordinates>
      </Point>
    </Placemark>
    <Placemark>
      <name>Remake the World</name>
      <description><![CDATA[abbreviation: RTW<br>description: #TBA<br>Visibility: true]]></description>
      <styleUrl>#icon-1502-006064-labelson</styleUrl>
      <ExtendedData>
        <Data name="abbreviation">
          <value>RTW</value>
        </Data>
        <Data name="description">
          <value>#TBA</value>
        </Data>
        <Data name="Visibility">
          <value>1</value>
        </Data>
      </ExtendedData>
      <Point>
        <coordinates>
          144.1449458,-35.1495602,0
        </coordinates>
      </Point>
    </Placemark>
    <Placemark>
      <name>SA Confestors</name>
      <description><![CDATA[abbreviation: SAC<br>description: <br>Visibility: true]]></description>
      <styleUrl>#icon-1502-006064-labelson</styleUrl>
      <ExtendedData>
        <Data name="abbreviation">
          <value>SAC</value>
        </Data>
        <Data name="description">
          <value/>
        </Data>
        <Data name="Visibility">
          <value>1</value>
        </Data>
      </ExtendedData>
      <Point>
        <coordinates>
          144.1436914,-35.1480498,0
        </coordinates>
      </Point>
    </Placemark>
    <Placemark>
      <name>Shiatsu Playspace</name>
      <description><![CDATA[abbreviation: SHP<br>description: ///possessing.universe.velocity<br>6m Radius<br><br>Visibility: true]]></description>
      <styleUrl>#icon-1502-006064-labelson</styleUrl>
      <ExtendedData>
        <Data name="abbreviation">
          <value>SHP</value>
        </Data>
        <Data name="description">
          <value>///possessing.universe.velocity
6m Radius
</value>
        </Data>
        <Data name="Visibility">
          <value>1</value>
        </Data>
      </ExtendedData>
      <Point>
        <coordinates>
          144.1434829,-35.1489296,0
        </coordinates>
      </Point>
    </Placemark>
    <Placemark>
      <name>Shikibuntu</name>
      <description><![CDATA[abbreviation: SHB<br>description: ///decades.apparatus.keepsakes<br>13 x 16.5<br><br>Visibility: true]]></description>
      <styleUrl>#icon-1502-006064-labelson</styleUrl>
      <ExtendedData>
        <Data name="abbreviation">
          <value>SHB</value>
        </Data>
        <Data name="description">
          <value>///decades.apparatus.keepsakes
13 x 16.5
</value>
        </Data>
        <Data name="Visibility">
          <value>1</value>
        </Data>
      </ExtendedData>
      <Point>
        <coordinates>
          144.1440153,-35.1491539,0
        </coordinates>
      </Point>
    </Placemark>
    <Placemark>
      <name>Silent Disco</name>
      <description><![CDATA[abbreviation: SLD<br>description: ///heartened.automotive.ideal<br>Visibility: true]]></description>
      <styleUrl>#icon-1502-7CB342-labelson</styleUrl>
      <ExtendedData>
        <Data name="abbreviation">
          <value>SLD</value>
        </Data>
        <Data name="description">
          <value>///heartened.automotive.ideal</value>
        </Data>
        <Data name="Visibility">
          <value>1</value>
        </Data>
      </ExtendedData>
      <Point>
        <coordinates>
          144.1488205,-35.14966,0
        </coordinates>
      </Point>
    </Placemark>
    <Placemark>
      <name>Sway-cation</name>
      <description><![CDATA[abbreviation: SWY<br>description: TBA<br>Visibility: true]]></description>
      <styleUrl>#icon-1788-006064-labelson</styleUrl>
      <ExtendedData>
        <Data name="abbreviation">
          <value>SWY</value>
        </Data>
        <Data name="description">
          <value>TBA</value>
        </Data>
        <Data name="Visibility">
          <value>1</value>
        </Data>
      </ExtendedData>
      <Point>
        <coordinates>
          144.1455795,-35.1481449,0
        </coordinates>
      </Point>
    </Placemark>
    <Placemark>
      <name>The Grove</name>
      <description><![CDATA[abbreviation: GRV<br>description: #Unconfirmed#<br>Previously Sydney Village (Name-change)<br>Visibility: true]]></description>
      <styleUrl>#icon-1502-097138-labelson</styleUrl>
      <ExtendedData>
        <Data name="abbreviation">
          <value>GRV</value>
        </Data>
        <Data name="description">
          <value>#Unconfirmed#
Previously Sydney Village (Name-change)</value>
        </Data>
        <Data name="Visibility">
          <value>1</value>
        </Data>
      </ExtendedData>
      <Point>
        <coordinates>
          144.142232,-35.1478847,0
        </coordinates>
      </Point>
    </Placemark>
    <Placemark>
      <name>The Spectrum</name>
      <description><![CDATA[abbreviation: SPC<br>description: ///organ.walked.stockroom<br>Visibility: true]]></description>
      <styleUrl>#icon-1502-7CB342-labelson</styleUrl>
      <ExtendedData>
        <Data name="abbreviation">
          <value>SPC</value>
        </Data>
        <Data name="description">
          <value>///organ.walked.stockroom</value>
        </Data>
        <Data name="Visibility">
          <value>1</value>
        </Data>
      </ExtendedData>
      <Point>
        <coordinates>
          144.1449794,-35.1471455,0
        </coordinates>
      </Point>
    </Placemark>
    <Placemark>
      <name>Travelling Vulva Tent</name>
      <description><![CDATA[abbreviation: TVT<br>description: #Approx# - Smaller space in a big clearing<br>Sharing with Red Tent (Nights)<br>Visibility: true]]></description>
      <styleUrl>#icon-1502-006064-labelson</styleUrl>
      <ExtendedData>
        <Data name="abbreviation">
          <value>TVT</value>
        </Data>
        <Data name="description">
          <value>#Approx# - Smaller space in a big clearing
Sharing with Red Tent (Nights)</value>
        </Data>
        <Data name="Visibility">
          <value>1</value>
        </Data>
      </ExtendedData>
      <Point>
        <coordinates>
          144.1441994,-35.1486257,0
        </coordinates>
      </Point>
    </Placemark>
    <Placemark>
      <name>Uncertainty - lounge</name>
      <description><![CDATA[abbreviation: <br>description: <br>Visibility: false]]></description>
      <styleUrl>#icon-1502-7CB342-labelson</styleUrl>
      <ExtendedData>
        <Data name="abbreviation">
          <value/>
        </Data>
        <Data name="description">
          <value/>
        </Data>
        <Data name="Visibility">
          <value>0</value>
        </Data>
      </ExtendedData>
      <Point>
        <coordinates>
          144.1458564,-35.1507766,0
        </coordinates>
      </Point>
    </Placemark>
    <Placemark>
      <name>Veg Out</name>
      <description><![CDATA[abbreviation: VEG<br>description: ///stadiums.obligated.bespoke<br>8.5 x 35m<br>Visibility: true]]></description>
      <styleUrl>#icon-1502-7CB342-labelson</styleUrl>
      <ExtendedData>
        <Data name="abbreviation">
          <value>VEG</value>
        </Data>
        <Data name="description">
          <value>///stadiums.obligated.bespoke
8.5 x 35m</value>
        </Data>
        <Data name="Visibility">
          <value>1</value>
        </Data>
      </ExtendedData>
      <Point>
        <coordinates>
          144.1420873,-35.1474895,0
        </coordinates>
      </Point>
    </Placemark>
    <Placemark>
      <name>Unicorn Village</name>
      <description><![CDATA[abbreviation: UNI<br>description: #Approx# to confirm<br>Visibility: true]]></description>
      <styleUrl>#icon-1502-006064-labelson</styleUrl>
      <ExtendedData>
        <Data name="abbreviation">
          <value>UNI</value>
        </Data>
        <Data name="description">
          <value>#Approx# to confirm</value>
        </Data>
        <Data name="Visibility">
          <value>1</value>
        </Data>
      </ExtendedData>
      <Point>
        <coordinates>
          144.1464587,-35.1498777,0
        </coordinates>
      </Point>
    </Placemark>
    <Placemark>
      <name>White Gums </name>
      <description><![CDATA[abbreviation: WHG<br>description: ///drools.notepads.finals<br>7.5 x 21m <br>Visibility: true]]></description>
      <styleUrl>#icon-1502-7CB342-labelson</styleUrl>
      <ExtendedData>
        <Data name="abbreviation">
          <value>WHG</value>
        </Data>
        <Data name="description">
          <value>///drools.notepads.finals
7.5 x 21m </value>
        </Data>
        <Data name="Visibility">
          <value>1</value>
        </Data>
      </ExtendedData>
      <Point>
        <coordinates>
          144.1438255,-35.1482646,0
        </coordinates>
      </Point>
    </Placemark>
    <Placemark>
      <name>Vibe Optimisers</name>
      <description><![CDATA[abbreviation: VIB<br>description: TBA<br>Visibility: true]]></description>
      <styleUrl>#icon-1502-006064-labelson</styleUrl>
      <ExtendedData>
        <Data name="abbreviation">
          <value>VIB</value>
        </Data>
        <Data name="description">
          <value>TBA</value>
        </Data>
        <Data name="Visibility">
          <value>1</value>
        </Data>
      </ExtendedData>
      <Point>
        <coordinates>
          144.1460165,-35.1519183,0
        </coordinates>
      </Point>
    </Placemark>
    <Placemark>
      <name>Wilding</name>
      <description><![CDATA[abbreviation: WLD<br>description: ///lenders.founds.clarified<br>7m Radius<br><br>Visibility: true]]></description>
      <styleUrl>#icon-1502-7CB342-labelson</styleUrl>
      <ExtendedData>
        <Data name="abbreviation">
          <value>WLD</value>
        </Data>
        <Data name="description">
          <value>///lenders.founds.clarified
7m Radius
</value>
        </Data>
        <Data name="Visibility">
          <value>1</value>
        </Data>
      </ExtendedData>
      <Point>
        <coordinates>
          144.1437126,-35.148565,0
        </coordinates>
      </Point>
    </Placemark>
    <Placemark>
      <name>Uncertainty</name>
      <description><![CDATA[abbreviation: UNC<br>description: ///song.darted.joining<br>7m Radius<br><br>Visibility: true]]></description>
      <styleUrl>#icon-1502-7CB342-labelson</styleUrl>
      <ExtendedData>
        <Data name="abbreviation">
          <value>UNC</value>
        </Data>
        <Data name="description">
          <value>///song.darted.joining
7m Radius
</value>
        </Data>
        <Data name="Visibility">
          <value>1</value>
        </Data>
      </ExtendedData>
      <Point>
        <coordinates>
          144.1457301,-35.150783,0
        </coordinates>
      </Point>
    </Placemark>
  </Document>
</kml>
