<?xml version="1.0" encoding="UTF-8"?>
<kml xmlns="http://www.opengis.net/kml/2.2">
  <Document>
    <name>Volunter Map (Internal Co-Op Only)</name>
    <Style id="icon-1521-F9A825-normal">
      <IconStyle>
        <color>ff25a8f9</color>
        <scale>1</scale>
        <Icon>
          <href>https://www.gstatic.com/mapspro/images/stock/503-wht-blank_maps.png</href>
        </Icon>
      </IconStyle>
      <LabelStyle>
        <scale>0</scale>
      </LabelStyle>
    </Style>
    <Style id="icon-1521-F9A825-highlight">
      <IconStyle>
        <color>ff25a8f9</color>
        <scale>1</scale>
        <Icon>
          <href>https://www.gstatic.com/mapspro/images/stock/503-wht-blank_maps.png</href>
        </Icon>
      </IconStyle>
      <LabelStyle>
        <scale>1</scale>
      </LabelStyle>
    </Style>
    <StyleMap id="icon-1521-F9A825">
      <Pair>
        <key>normal</key>
        <styleUrl>#icon-1521-F9A825-normal</styleUrl>
      </Pair>
      <Pair>
        <key>highlight</key>
        <styleUrl>#icon-1521-F9A825-highlight</styleUrl>
      </Pair>
    </StyleMap>
    <Style id="icon-1541-0288D1-normal">
      <IconStyle>
        <color>ffd18802</color>
        <scale>1</scale>
        <Icon>
          <href>https://www.gstatic.com/mapspro/images/stock/503-wht-blank_maps.png</href>
        </Icon>
      </IconStyle>
      <LabelStyle>
        <scale>0</scale>
      </LabelStyle>
    </Style>
    <Style id="icon-1541-0288D1-highlight">
      <IconStyle>
        <color>ffd18802</color>
        <scale>1</scale>
        <Icon>
          <href>https://www.gstatic.com/mapspro/images/stock/503-wht-blank_maps.png</href>
        </Icon>
      </IconStyle>
      <LabelStyle>
        <scale>1</scale>
      </LabelStyle>
    </Style>
    <StyleMap id="icon-1541-0288D1">
      <Pair>
        <key>normal</key>
        <styleUrl>#icon-1541-0288D1-normal</styleUrl>
      </Pair>
      <Pair>
        <key>highlight</key>
        <styleUrl>#icon-1541-0288D1-highlight</styleUrl>
      </Pair>
    </StyleMap>
    <Style id="icon-1591-673AB7-normal">
      <IconStyle>
        <color>ffb73a67</color>
        <scale>1</scale>
        <Icon>
          <href>https://www.gstatic.com/mapspro/images/stock/503-wht-blank_maps.png</href>
        </Icon>
      </IconStyle>
      <LabelStyle>
        <scale>0</scale>
      </LabelStyle>
    </Style>
    <Style id="icon-1591-673AB7-highlight">
      <IconStyle>
        <color>ffb73a67</color>
        <scale>1</scale>
        <Icon>
          <href>https://www.gstatic.com/mapspro/images/stock/503-wht-blank_maps.png</href>
        </Icon>
      </IconStyle>
      <LabelStyle>
        <scale>1</scale>
      </LabelStyle>
    </Style>
    <StyleMap id="icon-1591-673AB7">
      <Pair>
        <key>normal</key>
        <styleUrl>#icon-1591-673AB7-normal</styleUrl>
      </Pair>
      <Pair>
        <key>highlight</key>
        <styleUrl>#icon-1591-673AB7-highlight</styleUrl>
      </Pair>
    </StyleMap>
    <Style id="icon-1603-558B2F-normal">
      <IconStyle>
        <color>ff2f8b55</color>
        <scale>1</scale>
        <Icon>
          <href>https://www.gstatic.com/mapspro/images/stock/503-wht-blank_maps.png</href>
        </Icon>
      </IconStyle>
      <LabelStyle>
        <scale>0</scale>
      </LabelStyle>
    </Style>
    <Style id="icon-1603-558B2F-highlight">
      <IconStyle>
        <color>ff2f8b55</color>
        <scale>1</scale>
        <Icon>
          <href>https://www.gstatic.com/mapspro/images/stock/503-wht-blank_maps.png</href>
        </Icon>
      </IconStyle>
      <LabelStyle>
        <scale>1</scale>
      </LabelStyle>
    </Style>
    <StyleMap id="icon-1603-558B2F">
      <Pair>
        <key>normal</key>
        <styleUrl>#icon-1603-558B2F-normal</styleUrl>
      </Pair>
      <Pair>
        <key>highlight</key>
        <styleUrl>#icon-1603-558B2F-highlight</styleUrl>
      </Pair>
    </StyleMap>
    <Style id="icon-1603-673AB7-normal">
      <IconStyle>
        <color>ffb73a67</color>
        <scale>1</scale>
        <Icon>
          <href>https://www.gstatic.com/mapspro/images/stock/503-wht-blank_maps.png</href>
        </Icon>
      </IconStyle>
      <LabelStyle>
        <scale>0</scale>
      </LabelStyle>
    </Style>
    <Style id="icon-1603-673AB7-highlight">
      <IconStyle>
        <color>ffb73a67</color>
        <scale>1</scale>
        <Icon>
          <href>https://www.gstatic.com/mapspro/images/stock/503-wht-blank_maps.png</href>
        </Icon>
      </IconStyle>
      <LabelStyle>
        <scale>1</scale>
      </LabelStyle>
    </Style>
    <StyleMap id="icon-1603-673AB7">
      <Pair>
        <key>normal</key>
        <styleUrl>#icon-1603-673AB7-normal</styleUrl>
      </Pair>
      <Pair>
        <key>highlight</key>
        <styleUrl>#icon-1603-673AB7-highlight</styleUrl>
      </Pair>
    </StyleMap>
    <Style id="icon-1665-1A237E-nodesc-normal">
      <IconStyle>
        <color>ff7e231a</color>
        <scale>1</scale>
        <Icon>
          <href>https://www.gstatic.com/mapspro/images/stock/503-wht-blank_maps.png</href>
        </Icon>
      </IconStyle>
      <LabelStyle>
        <scale>0</scale>
      </LabelStyle>
      <BalloonStyle>
        <text><![CDATA[<h3>$[name]</h3>]]></text>
      </BalloonStyle>
    </Style>
    <Style id="icon-1665-1A237E-nodesc-highlight">
      <IconStyle>
        <color>ff7e231a</color>
        <scale>1</scale>
        <Icon>
          <href>https://www.gstatic.com/mapspro/images/stock/503-wht-blank_maps.png</href>
        </Icon>
      </IconStyle>
      <LabelStyle>
        <scale>1</scale>
      </LabelStyle>
      <BalloonStyle>
        <text><![CDATA[<h3>$[name]</h3>]]></text>
      </BalloonStyle>
    </Style>
    <StyleMap id="icon-1665-1A237E-nodesc">
      <Pair>
        <key>normal</key>
        <styleUrl>#icon-1665-1A237E-nodesc-normal</styleUrl>
      </Pair>
      <Pair>
        <key>highlight</key>
        <styleUrl>#icon-1665-1A237E-nodesc-highlight</styleUrl>
      </Pair>
    </StyleMap>
    <Style id="icon-1685-1A237E-normal">
      <IconStyle>
        <color>ff7e231a</color>
        <scale>1</scale>
        <Icon>
          <href>https://www.gstatic.com/mapspro/images/stock/503-wht-blank_maps.png</href>
        </Icon>
      </IconStyle>
      <LabelStyle>
        <scale>0</scale>
      </LabelStyle>
    </Style>
    <Style id="icon-1685-1A237E-highlight">
      <IconStyle>
        <color>ff7e231a</color>
        <scale>1</scale>
        <Icon>
          <href>https://www.gstatic.com/mapspro/images/stock/503-wht-blank_maps.png</href>
        </Icon>
      </IconStyle>
      <LabelStyle>
        <scale>1</scale>
      </LabelStyle>
    </Style>
    <StyleMap id="icon-1685-1A237E">
      <Pair>
        <key>normal</key>
        <styleUrl>#icon-1685-1A237E-normal</styleUrl>
      </Pair>
      <Pair>
        <key>highlight</key>
        <styleUrl>#icon-1685-1A237E-highlight</styleUrl>
      </Pair>
    </StyleMap>
    <Style id="icon-1685-1A237E-nodesc-normal">
      <IconStyle>
        <color>ff7e231a</color>
        <scale>1</scale>
        <Icon>
          <href>https://www.gstatic.com/mapspro/images/stock/503-wht-blank_maps.png</href>
        </Icon>
      </IconStyle>
      <LabelStyle>
        <scale>0</scale>
      </LabelStyle>
      <BalloonStyle>
        <text><![CDATA[<h3>$[name]</h3>]]></text>
      </BalloonStyle>
    </Style>
    <Style id="icon-1685-1A237E-nodesc-highlight">
      <IconStyle>
        <color>ff7e231a</color>
        <scale>1</scale>
        <Icon>
          <href>https://www.gstatic.com/mapspro/images/stock/503-wht-blank_maps.png</href>
        </Icon>
      </IconStyle>
      <LabelStyle>
        <scale>1</scale>
      </LabelStyle>
      <BalloonStyle>
        <text><![CDATA[<h3>$[name]</h3>]]></text>
      </BalloonStyle>
    </Style>
    <StyleMap id="icon-1685-1A237E-nodesc">
      <Pair>
        <key>normal</key>
        <styleUrl>#icon-1685-1A237E-nodesc-normal</styleUrl>
      </Pair>
      <Pair>
        <key>highlight</key>
        <styleUrl>#icon-1685-1A237E-nodesc-highlight</styleUrl>
      </Pair>
    </StyleMap>
    <Style id="icon-1735-673AB7-normal">
      <IconStyle>
        <color>ffb73a67</color>
        <scale>1</scale>
        <Icon>
          <href>https://www.gstatic.com/mapspro/images/stock/503-wht-blank_maps.png</href>
        </Icon>
      </IconStyle>
      <LabelStyle>
        <scale>0</scale>
      </LabelStyle>
    </Style>
    <Style id="icon-1735-673AB7-highlight">
      <IconStyle>
        <color>ffb73a67</color>
        <scale>1</scale>
        <Icon>
          <href>https://www.gstatic.com/mapspro/images/stock/503-wht-blank_maps.png</href>
        </Icon>
      </IconStyle>
      <LabelStyle>
        <scale>1</scale>
      </LabelStyle>
    </Style>
    <StyleMap id="icon-1735-673AB7">
      <Pair>
        <key>normal</key>
        <styleUrl>#icon-1735-673AB7-normal</styleUrl>
      </Pair>
      <Pair>
        <key>highlight</key>
        <styleUrl>#icon-1735-673AB7-highlight</styleUrl>
      </Pair>
    </StyleMap>
    <Style id="icon-1823-1A237E-normal">
      <IconStyle>
        <color>ff7e231a</color>
        <scale>1</scale>
        <Icon>
          <href>https://www.gstatic.com/mapspro/images/stock/503-wht-blank_maps.png</href>
        </Icon>
      </IconStyle>
      <LabelStyle>
        <scale>0</scale>
      </LabelStyle>
    </Style>
    <Style id="icon-1823-1A237E-highlight">
      <IconStyle>
        <color>ff7e231a</color>
        <scale>1</scale>
        <Icon>
          <href>https://www.gstatic.com/mapspro/images/stock/503-wht-blank_maps.png</href>
        </Icon>
      </IconStyle>
      <LabelStyle>
        <scale>1</scale>
      </LabelStyle>
    </Style>
    <StyleMap id="icon-1823-1A237E">
      <Pair>
        <key>normal</key>
        <styleUrl>#icon-1823-1A237E-normal</styleUrl>
      </Pair>
      <Pair>
        <key>highlight</key>
        <styleUrl>#icon-1823-1A237E-highlight</styleUrl>
      </Pair>
    </StyleMap>
    <Style id="icon-1823-1A237E-nodesc-normal">
      <IconStyle>
        <color>ff7e231a</color>
        <scale>1</scale>
        <Icon>
          <href>https://www.gstatic.com/mapspro/images/stock/503-wht-blank_maps.png</href>
        </Icon>
      </IconStyle>
      <LabelStyle>
        <scale>0</scale>
      </LabelStyle>
      <BalloonStyle>
        <text><![CDATA[<h3>$[name]</h3>]]></text>
      </BalloonStyle>
    </Style>
    <Style id="icon-1823-1A237E-nodesc-highlight">
      <IconStyle>
        <color>ff7e231a</color>
        <scale>1</scale>
        <Icon>
          <href>https://www.gstatic.com/mapspro/images/stock/503-wht-blank_maps.png</href>
        </Icon>
      </IconStyle>
      <LabelStyle>
        <scale>1</scale>
      </LabelStyle>
      <BalloonStyle>
        <text><![CDATA[<h3>$[name]</h3>]]></text>
      </BalloonStyle>
    </Style>
    <StyleMap id="icon-1823-1A237E-nodesc">
      <Pair>
        <key>normal</key>
        <styleUrl>#icon-1823-1A237E-nodesc-normal</styleUrl>
      </Pair>
      <Pair>
        <key>highlight</key>
        <styleUrl>#icon-1823-1A237E-nodesc-highlight</styleUrl>
      </Pair>
    </StyleMap>
    <Style id="line-A52714-12553-nodesc-normal">
      <LineStyle>
        <color>ff1427a5</color>
        <width>12.553</width>
      </LineStyle>
      <BalloonStyle>
        <text><![CDATA[<h3>$[name]</h3>]]></text>
      </BalloonStyle>
    </Style>
    <Style id="line-A52714-12553-nodesc-highlight">
      <LineStyle>
        <color>ff1427a5</color>
        <width>18.8295</width>
      </LineStyle>
      <BalloonStyle>
        <text><![CDATA[<h3>$[name]</h3>]]></text>
      </BalloonStyle>
    </Style>
    <StyleMap id="line-A52714-12553-nodesc">
      <Pair>
        <key>normal</key>
        <styleUrl>#line-A52714-12553-nodesc-normal</styleUrl>
      </Pair>
      <Pair>
        <key>highlight</key>
        <styleUrl>#line-A52714-12553-nodesc-highlight</styleUrl>
      </Pair>
    </StyleMap>
    <Style id="line-A52714-12938-nodesc-normal">
      <LineStyle>
        <color>ff1427a5</color>
        <width>12.938</width>
      </LineStyle>
      <BalloonStyle>
        <text><![CDATA[<h3>$[name]</h3>]]></text>
      </BalloonStyle>
    </Style>
    <Style id="line-A52714-12938-nodesc-highlight">
      <LineStyle>
        <color>ff1427a5</color>
        <width>19.407</width>
      </LineStyle>
      <BalloonStyle>
        <text><![CDATA[<h3>$[name]</h3>]]></text>
      </BalloonStyle>
    </Style>
    <StyleMap id="line-A52714-12938-nodesc">
      <Pair>
        <key>normal</key>
        <styleUrl>#line-A52714-12938-nodesc-normal</styleUrl>
      </Pair>
      <Pair>
        <key>highlight</key>
        <styleUrl>#line-A52714-12938-nodesc-highlight</styleUrl>
      </Pair>
    </StyleMap>
    <Style id="poly-A52714-1200-77-nodesc-normal">
      <LineStyle>
        <color>ff1427a5</color>
        <width>1.2</width>
      </LineStyle>
      <PolyStyle>
        <color>4d1427a5</color>
        <fill>1</fill>
        <outline>1</outline>
      </PolyStyle>
      <BalloonStyle>
        <text><![CDATA[<h3>$[name]</h3>]]></text>
      </BalloonStyle>
    </Style>
    <Style id="poly-A52714-1200-77-nodesc-highlight">
      <LineStyle>
        <color>ff1427a5</color>
        <width>1.8</width>
      </LineStyle>
      <PolyStyle>
        <color>4d1427a5</color>
        <fill>1</fill>
        <outline>1</outline>
      </PolyStyle>
      <BalloonStyle>
        <text><![CDATA[<h3>$[name]</h3>]]></text>
      </BalloonStyle>
    </Style>
    <StyleMap id="poly-A52714-1200-77-nodesc">
      <Pair>
        <key>normal</key>
        <styleUrl>#poly-A52714-1200-77-nodesc-normal</styleUrl>
      </Pair>
      <Pair>
        <key>highlight</key>
        <styleUrl>#poly-A52714-1200-77-nodesc-highlight</styleUrl>
      </Pair>
    </StyleMap>
    <Placemark>
      <name>DG Containers</name>
      <styleUrl>#line-A52714-12553-nodesc</styleUrl>
      <LineString>
        <tessellate>1</tessellate>
        <coordinates>
          144.1425413,-35.1371328,0
          144.142548,-35.1370812,0
        </coordinates>
      </LineString>
    </Placemark>
    <Placemark>
      <name>DG Containers</name>
      <styleUrl>#line-A52714-12938-nodesc</styleUrl>
      <LineString>
        <tessellate>1</tessellate>
        <coordinates>
          144.1425346,-35.1371875,0
          144.1425266,-35.1372468,0
        </coordinates>
      </LineString>
    </Placemark>
    <Placemark>
      <name>Family Beach #Not in use#</name>
      <description><![CDATA[///welcomed.finite.usage<br>#NO LONGER USED / CONSIDERED SAFE#]]></description>
      <styleUrl>#icon-1521-F9A825</styleUrl>
      <Point>
        <coordinates>
          144.1447677,-35.1511641,0
        </coordinates>
      </Point>
    </Placemark>
    <Placemark>
      <name>Accessible Bathroom</name>
      <description>///eats.fillets.clergy</description>
      <styleUrl>#icon-1603-673AB7</styleUrl>
      <Point>
        <coordinates>
          144.1475832,-35.1480246,0
        </coordinates>
      </Point>
    </Placemark>
    <Placemark>
      <name>Hive Drystore</name>
      <description>///exercising.typhoon.glaring</description>
      <styleUrl>#icon-1591-673AB7</styleUrl>
      <Point>
        <coordinates>
          144.145898,-35.1472627,0
        </coordinates>
      </Point>
    </Placemark>
    <Placemark>
      <name>Hive Cool Room Container </name>
      <description>///issuer.locks.grassy</description>
      <styleUrl>#icon-1591-673AB7</styleUrl>
      <Point>
        <coordinates>
          144.1458739,-35.1472156,0
        </coordinates>
      </Point>
    </Placemark>
    <Placemark>
      <name>Hive Cafe</name>
      <description>///diverging.tonight.dismisses</description>
      <styleUrl>#icon-1591-673AB7</styleUrl>
      <Point>
        <coordinates>
          144.1460012,-35.1474307,0
        </coordinates>
      </Point>
    </Placemark>
    <Placemark>
      <name>Veg Out Container</name>
      <description>20ft</description>
      <styleUrl>#icon-1823-1A237E</styleUrl>
      <Point>
        <coordinates>
          144.1463867,-35.1470588,0
        </coordinates>
      </Point>
    </Placemark>
    <Placemark>
      <name>Asset Management Container</name>
      <description>20ft</description>
      <styleUrl>#icon-1823-1A237E</styleUrl>
      <Point>
        <coordinates>
          144.1462888,-35.147118,0
        </coordinates>
      </Point>
    </Placemark>
    <Placemark>
      <name>Arts Container</name>
      <description>20ft</description>
      <styleUrl>#icon-1823-1A237E</styleUrl>
      <Point>
        <coordinates>
          144.1462016,-35.1470248,0
        </coordinates>
      </Point>
    </Placemark>
    <Placemark>
      <name>Nudies Container</name>
      <description>20ft</description>
      <styleUrl>#icon-1823-1A237E</styleUrl>
      <Point>
        <coordinates>
          144.1462365,-35.147072,0
        </coordinates>
      </Point>
    </Placemark>
    <Placemark>
      <name>Bliss Kitchen Container</name>
      <styleUrl>#icon-1823-1A237E-nodesc</styleUrl>
      <Point>
        <coordinates>
          144.1477036,-35.1505259,0
        </coordinates>
      </Point>
    </Placemark>
    <Placemark>
      <name>ConFest Library cum Freestone</name>
      <styleUrl>#icon-1823-1A237E-nodesc</styleUrl>
      <Point>
        <coordinates>
          144.1477707,-35.1504765,0
        </coordinates>
      </Point>
    </Placemark>
    <Placemark>
      <name>Gypsy Kitchen Container</name>
      <description>20ft</description>
      <styleUrl>#icon-1823-1A237E</styleUrl>
      <Point>
        <coordinates>
          144.1490907,-35.1493154,0
        </coordinates>
      </Point>
    </Placemark>
    <Placemark>
      <name>Rainbow Village / Polyamory Space</name>
      <description>///described.reintroduced.materially</description>
      <styleUrl>#icon-1823-1A237E</styleUrl>
      <Point>
        <coordinates>
          144.1468783,-35.1504794,0
        </coordinates>
      </Point>
    </Placemark>
    <Placemark>
      <name>VaAS 1 Container</name>
      <description><![CDATA[///renting.scooped.sleeves<br>As at Spring 2025, used by: Discussion Space, Spectrum and White Gums]]></description>
      <styleUrl>#icon-1823-1A237E</styleUrl>
      <Point>
        <coordinates>
          144.1469481,-35.1504202,0
        </coordinates>
      </Point>
    </Placemark>
    <Placemark>
      <name>Bike Crew Container</name>
      <description>20ft</description>
      <styleUrl>#icon-1823-1A237E</styleUrl>
      <Point>
        <coordinates>
          144.1443969,-35.1466795,0
        </coordinates>
      </Point>
    </Placemark>
    <Placemark>
      <name>Market Container </name>
      <styleUrl>#icon-1823-1A237E-nodesc</styleUrl>
      <Point>
        <coordinates>
          144.1481389,-35.1499621,0
        </coordinates>
      </Point>
    </Placemark>
    <Placemark>
      <name>Open Stage Container</name>
      <description>///hook.plated.demote</description>
      <styleUrl>#icon-1823-1A237E</styleUrl>
      <Point>
        <coordinates>
          144.1469856,-35.1505015,0
        </coordinates>
      </Point>
    </Placemark>
    <Placemark>
      <name>Family Container</name>
      <description>///account.lisped.farm</description>
      <styleUrl>#icon-1823-1A237E</styleUrl>
      <Point>
        <coordinates>
          144.1461872,-35.149899,0
        </coordinates>
      </Point>
    </Placemark>
    <Placemark>
      <name>VaAS 3 Container</name>
      <description><![CDATA[Villages and activity spaces container 3<br>20ft<br>#ROUGH needs W3W#]]></description>
      <styleUrl>#icon-1823-1A237E</styleUrl>
      <Point>
        <coordinates>
          144.1455592,-35.1481208,0
        </coordinates>
      </Point>
    </Placemark>
    <Placemark>
      <name>VaAS 2 Container</name>
      <description><![CDATA[Villages and activity spaces container 2<br>#ROUGH needs W3W#]]></description>
      <styleUrl>#icon-1823-1A237E</styleUrl>
      <Point>
        <coordinates>
          144.1456021,-35.1481778,0
        </coordinates>
      </Point>
    </Placemark>
    <Placemark>
      <name>River Water Outlet for landcare</name>
      <description>///reminder.refinement.emigrated</description>
      <styleUrl>#icon-1541-0288D1</styleUrl>
      <Point>
        <coordinates>
          144.1450243,-35.1469315,0
        </coordinates>
      </Point>
    </Placemark>
    <Placemark>
      <name>Woolshed Loading Dock</name>
      <description>Truck Height - Into this side of the woolshed</description>
      <styleUrl>#icon-1823-1A237E</styleUrl>
      <Point>
        <coordinates>
          144.1422222,-35.1377382,0
        </coordinates>
      </Point>
    </Placemark>
    <Placemark>
      <name>Woolshed Loading Ramp</name>
      <description>Into sheep runs</description>
      <styleUrl>#icon-1823-1A237E</styleUrl>
      <Point>
        <coordinates>
          144.1423958,-35.1380842,0
        </coordinates>
      </Point>
    </Placemark>
    <Placemark>
      <name>Woolshed Skinny Ramp</name>
      <description>Into sheep runs</description>
      <styleUrl>#icon-1823-1A237E</styleUrl>
      <Point>
        <coordinates>
          144.1425514,-35.1379636,0
        </coordinates>
      </Point>
    </Placemark>
    <Placemark>
      <name>Peter Container</name>
      <styleUrl>#icon-1823-1A237E-nodesc</styleUrl>
      <Point>
        <coordinates>
          144.1420682,-35.137331,0
        </coordinates>
      </Point>
    </Placemark>
    <Placemark>
      <name>Borris Container</name>
      <styleUrl>#icon-1823-1A237E-nodesc</styleUrl>
      <Point>
        <coordinates>
          144.1419314,-35.1373846,0
        </coordinates>
      </Point>
    </Placemark>
    <Placemark>
      <name>Trailer Parking</name>
      <styleUrl>#icon-1665-1A237E-nodesc</styleUrl>
      <Point>
        <coordinates>
          144.1424748,-35.1369186,0
        </coordinates>
      </Point>
    </Placemark>
    <Placemark>
      <name>Accessible Bathroom</name>
      <description>No longer opperational.</description>
      <styleUrl>#icon-1735-673AB7</styleUrl>
      <Point>
        <coordinates>
          144.1476001,-35.1480289,0
        </coordinates>
      </Point>
    </Placemark>
    <Placemark>
      <name>Cottage</name>
      <description>Location of admin team</description>
      <styleUrl>#icon-1603-558B2F</styleUrl>
      <Point>
        <coordinates>
          144.1413451,-35.1381751,0
        </coordinates>
      </Point>
    </Placemark>
    <Placemark>
      <name>Materials Graveyard</name>
      <description>///pints.batting.teased</description>
      <styleUrl>#icon-1685-1A237E</styleUrl>
      <Point>
        <coordinates>
          144.1417859,-35.1366077,0
        </coordinates>
      </Point>
    </Placemark>
    <Placemark>
      <name>Water crew storage</name>
      <description>Approx</description>
      <styleUrl>#icon-1823-1A237E</styleUrl>
      <Point>
        <coordinates>
          144.1418428,-35.1372229,0
        </coordinates>
      </Point>
    </Placemark>
    <Placemark>
      <name>M2 - Indigenous </name>
      <styleUrl>#poly-A52714-1200-77-nodesc</styleUrl>
      <Polygon>
        <outerBoundaryIs>
          <LinearRing>
            <tessellate>1</tessellate>
            <coordinates>
              144.1476943,-35.1442694,0
              144.1478283,-35.1446664,0
              144.1477962,-35.1449713,0
              144.1475172,-35.145491,0
              144.1473416,-35.1456577,0
              144.1471337,-35.1459209,0
              144.1468815,-35.1460832,0
              144.1466307,-35.1460986,0
              144.1463907,-35.1460986,0
              144.1462029,-35.1460416,0
              144.1460662,-35.1460317,0
              144.1459589,-35.1460301,0
              144.1458516,-35.1460132,0
              144.1457107,-35.1459757,0
              144.1455009,-35.1459527,0
              144.145291,-35.1459209,0
              144.1450308,-35.1457805,0
              144.1447921,-35.1458025,0
              144.1445232,-35.1459264,0
              144.1443938,-35.1460723,0
              144.1443388,-35.1462499,0
              144.1444541,-35.1463771,0
              144.1448082,-35.1462653,0
              144.1449557,-35.1462373,0
              144.1450978,-35.1462751,0
              144.1452856,-35.1463946,0
              144.1456235,-35.1464561,0
              144.1459293,-35.1464254,0
              144.1463209,-35.1464254,0
              144.1467233,-35.1463903,0
              144.1471685,-35.1462806,0
              144.1474367,-35.1461446,0
              144.1476835,-35.1458814,0
              144.147941,-35.1455305,0
              144.1481341,-35.1451752,0
              144.1483004,-35.144741,0
              144.1482628,-35.1443506,0
              144.1481287,-35.144219,0
              144.1479893,-35.1442321,0
              144.1476943,-35.1442694,0
            </coordinates>
          </LinearRing>
        </outerBoundaryIs>
      </Polygon>
    </Placemark>
    <Placemark>
      <name>M16 - Indigenous </name>
      <styleUrl>#poly-A52714-1200-77-nodesc</styleUrl>
      <Polygon>
        <outerBoundaryIs>
          <LinearRing>
            <tessellate>1</tessellate>
            <coordinates>
              144.1499371,-35.1482228,0
              144.1498781,-35.1483544,0
              144.1496689,-35.1489597,0
              144.1495831,-35.1493106,0
              144.1495106,-35.1494422,0
              144.149508,-35.1495913,0
              144.1495368,-35.1496368,0
              144.1495871,-35.1496692,0
              144.1496555,-35.1496675,0
              144.1497185,-35.1496461,0
              144.1497929,-35.1495244,0
              144.1498781,-35.1493961,0
              144.1499264,-35.1490584,0
              144.1500551,-35.1486636,0
              144.1501732,-35.1482952,0
              144.1501021,-35.1482261,0
              144.1499934,-35.1482074,0
              144.1499371,-35.1482228,0
            </coordinates>
          </LinearRing>
        </outerBoundaryIs>
      </Polygon>
    </Placemark>
    <Placemark>
      <name>Scrap Metal Graveyard</name>
      <styleUrl>#icon-1685-1A237E-nodesc</styleUrl>
      <Point>
        <coordinates>
          144.1429821,-35.1349656,0
        </coordinates>
      </Point>
    </Placemark>
    <Placemark>
      <name>Loo Crew</name>
      <description>Approx</description>
      <styleUrl>#icon-1823-1A237E</styleUrl>
      <Point>
        <coordinates>
          144.1418764,-35.1372828,0
        </coordinates>
      </Point>
    </Placemark>
    <Placemark>
      <name>Fire Crew Storage</name>
      <description>Approx</description>
      <styleUrl>#icon-1823-1A237E</styleUrl>
      <Point>
        <coordinates>
          144.1420024,-35.1372423,0
        </coordinates>
      </Point>
    </Placemark>
    <Placemark>
      <name>M1 - Indigenous </name>
      <styleUrl>#poly-A52714-1200-77-nodesc</styleUrl>
      <Polygon>
        <outerBoundaryIs>
          <LinearRing>
            <tessellate>1</tessellate>
            <coordinates>
              144.1427628,-35.1460928,0
              144.1431034,-35.1462068,0
              144.1435755,-35.146459,0
              144.1437163,-35.1469086,0
              144.1441253,-35.1474635,0
              144.1442005,-35.1475315,0
              144.1442729,-35.1475776,0
              144.1443614,-35.1476258,0
              144.1444204,-35.1476762,0
              144.144512,-35.147674,0
              144.1445827,-35.1476411,0
              144.1446095,-35.1476006,0
              144.1446376,-35.1475611,0
              144.1446522,-35.1474789,0
              144.1446483,-35.1474218,0
              144.1445277,-35.1472968,0
              144.1441267,-35.1468615,0
              144.1439403,-35.146356,0
              144.1437686,-35.1461783,0
              144.1434494,-35.1460478,0
              144.1431196,-35.145948,0
              144.1429184,-35.1459305,0
              144.1427709,-35.1459897,0
              144.1427628,-35.1460928,0
            </coordinates>
          </LinearRing>
        </outerBoundaryIs>
      </Polygon>
    </Placemark>
  </Document>
</kml>
