<?xml version="1.0" encoding="UTF-8"?>
<kml xmlns="http://www.opengis.net/kml/2.2">
  <Document>
    <name>Markets Site Exclusion Plots 2026 Autumn ConFest</name>
    <description>Data from Markets Team :-D</description>
    <Style id="icon-1899-0288D1-normal">
      <IconStyle>
        <color>ffd18802</color>
        <scale>1</scale>
        <Icon>
          <href>https://www.gstatic.com/mapspro/images/stock/503-wht-blank_maps.png</href>
        </Icon>
        <hotSpot x="32" xunits="pixels" y="64" yunits="insetPixels"/>
      </IconStyle>
      <LabelStyle>
        <scale>0</scale>
      </LabelStyle>
    </Style>
    <Style id="icon-1899-0288D1-highlight">
      <IconStyle>
        <color>ffd18802</color>
        <scale>1</scale>
        <Icon>
          <href>https://www.gstatic.com/mapspro/images/stock/503-wht-blank_maps.png</href>
        </Icon>
        <hotSpot x="32" xunits="pixels" y="64" yunits="insetPixels"/>
      </IconStyle>
      <LabelStyle>
        <scale>1</scale>
      </LabelStyle>
    </Style>
    <StyleMap id="icon-1899-0288D1">
      <Pair>
        <key>normal</key>
        <styleUrl>#icon-1899-0288D1-normal</styleUrl>
      </Pair>
      <Pair>
        <key>highlight</key>
        <styleUrl>#icon-1899-0288D1-highlight</styleUrl>
      </Pair>
    </StyleMap>
    <Style id="icon-1899-0288D1-nodesc-normal">
      <IconStyle>
        <color>ffd18802</color>
        <scale>1</scale>
        <Icon>
          <href>https://www.gstatic.com/mapspro/images/stock/503-wht-blank_maps.png</href>
        </Icon>
        <hotSpot x="32" xunits="pixels" y="64" yunits="insetPixels"/>
      </IconStyle>
      <LabelStyle>
        <scale>0</scale>
      </LabelStyle>
      <BalloonStyle>
        <text><![CDATA[<h3>$[name]</h3>]]></text>
      </BalloonStyle>
    </Style>
    <Style id="icon-1899-0288D1-nodesc-highlight">
      <IconStyle>
        <color>ffd18802</color>
        <scale>1</scale>
        <Icon>
          <href>https://www.gstatic.com/mapspro/images/stock/503-wht-blank_maps.png</href>
        </Icon>
        <hotSpot x="32" xunits="pixels" y="64" yunits="insetPixels"/>
      </IconStyle>
      <LabelStyle>
        <scale>1</scale>
      </LabelStyle>
      <BalloonStyle>
        <text><![CDATA[<h3>$[name]</h3>]]></text>
      </BalloonStyle>
    </Style>
    <StyleMap id="icon-1899-0288D1-nodesc">
      <Pair>
        <key>normal</key>
        <styleUrl>#icon-1899-0288D1-nodesc-normal</styleUrl>
      </Pair>
      <Pair>
        <key>highlight</key>
        <styleUrl>#icon-1899-0288D1-nodesc-highlight</styleUrl>
      </Pair>
    </StyleMap>
    <Style id="line-0086E3-1000-normal">
      <LineStyle>
        <color>ffe38600</color>
        <width>1</width>
      </LineStyle>
    </Style>
    <Style id="line-0086E3-1000-highlight">
      <LineStyle>
        <color>ffe38600</color>
        <width>1.5</width>
      </LineStyle>
    </Style>
    <StyleMap id="line-0086E3-1000">
      <Pair>
        <key>normal</key>
        <styleUrl>#line-0086E3-1000-normal</styleUrl>
      </Pair>
      <Pair>
        <key>highlight</key>
        <styleUrl>#line-0086E3-1000-highlight</styleUrl>
      </Pair>
    </StyleMap>
    <Style id="line-26D1E3-1000-normal">
      <LineStyle>
        <color>ffe3d126</color>
        <width>1</width>
      </LineStyle>
    </Style>
    <Style id="line-26D1E3-1000-highlight">
      <LineStyle>
        <color>ffe3d126</color>
        <width>1.5</width>
      </LineStyle>
    </Style>
    <StyleMap id="line-26D1E3-1000">
      <Pair>
        <key>normal</key>
        <styleUrl>#line-26D1E3-1000-normal</styleUrl>
      </Pair>
      <Pair>
        <key>highlight</key>
        <styleUrl>#line-26D1E3-1000-highlight</styleUrl>
      </Pair>
    </StyleMap>
    <Style id="line-27D6E8-1000-normal">
      <LineStyle>
        <color>ffe8d627</color>
        <width>1</width>
      </LineStyle>
    </Style>
    <Style id="line-27D6E8-1000-highlight">
      <LineStyle>
        <color>ffe8d627</color>
        <width>1.5</width>
      </LineStyle>
    </Style>
    <StyleMap id="line-27D6E8-1000">
      <Pair>
        <key>normal</key>
        <styleUrl>#line-27D6E8-1000-normal</styleUrl>
      </Pair>
      <Pair>
        <key>highlight</key>
        <styleUrl>#line-27D6E8-1000-highlight</styleUrl>
      </Pair>
    </StyleMap>
    <Style id="line-E3A600-1000-normal">
      <LineStyle>
        <color>ff00a6e3</color>
        <width>1</width>
      </LineStyle>
    </Style>
    <Style id="line-E3A600-1000-highlight">
      <LineStyle>
        <color>ff00a6e3</color>
        <width>1.5</width>
      </LineStyle>
    </Style>
    <StyleMap id="line-E3A600-1000">
      <Pair>
        <key>normal</key>
        <styleUrl>#line-E3A600-1000-normal</styleUrl>
      </Pair>
      <Pair>
        <key>highlight</key>
        <styleUrl>#line-E3A600-1000-highlight</styleUrl>
      </Pair>
    </StyleMap>
    <Style id="line-EBB04E-1000-nodesc-normal">
      <LineStyle>
        <color>ff4eb0eb</color>
        <width>1</width>
      </LineStyle>
      <BalloonStyle>
        <text><![CDATA[<h3>$[name]</h3>]]></text>
      </BalloonStyle>
    </Style>
    <Style id="line-EBB04E-1000-nodesc-highlight">
      <LineStyle>
        <color>ff4eb0eb</color>
        <width>1.5</width>
      </LineStyle>
      <BalloonStyle>
        <text><![CDATA[<h3>$[name]</h3>]]></text>
      </BalloonStyle>
    </Style>
    <StyleMap id="line-EBB04E-1000-nodesc">
      <Pair>
        <key>normal</key>
        <styleUrl>#line-EBB04E-1000-nodesc-normal</styleUrl>
      </Pair>
      <Pair>
        <key>highlight</key>
        <styleUrl>#line-EBB04E-1000-nodesc-highlight</styleUrl>
      </Pair>
    </StyleMap>
    <Style id="line-FF2B2B-1000-normal">
      <LineStyle>
        <color>ff2b2bff</color>
        <width>1</width>
      </LineStyle>
    </Style>
    <Style id="line-FF2B2B-1000-highlight">
      <LineStyle>
        <color>ff2b2bff</color>
        <width>1.5</width>
      </LineStyle>
    </Style>
    <StyleMap id="line-FF2B2B-1000">
      <Pair>
        <key>normal</key>
        <styleUrl>#line-FF2B2B-1000-normal</styleUrl>
      </Pair>
      <Pair>
        <key>highlight</key>
        <styleUrl>#line-FF2B2B-1000-highlight</styleUrl>
      </Pair>
    </StyleMap>
    <Style id="poly-28ED67-2000-94-nodesc-normal">
      <LineStyle>
        <color>ff67ed28</color>
        <width>2</width>
      </LineStyle>
      <PolyStyle>
        <color>5e67ed28</color>
        <fill>1</fill>
        <outline>1</outline>
      </PolyStyle>
      <BalloonStyle>
        <text><![CDATA[<h3>$[name]</h3>]]></text>
      </BalloonStyle>
    </Style>
    <Style id="poly-28ED67-2000-94-nodesc-highlight">
      <LineStyle>
        <color>ff67ed28</color>
        <width>3</width>
      </LineStyle>
      <PolyStyle>
        <color>5e67ed28</color>
        <fill>1</fill>
        <outline>1</outline>
      </PolyStyle>
      <BalloonStyle>
        <text><![CDATA[<h3>$[name]</h3>]]></text>
      </BalloonStyle>
    </Style>
    <StyleMap id="poly-28ED67-2000-94-nodesc">
      <Pair>
        <key>normal</key>
        <styleUrl>#poly-28ED67-2000-94-nodesc-normal</styleUrl>
      </Pair>
      <Pair>
        <key>highlight</key>
        <styleUrl>#poly-28ED67-2000-94-nodesc-highlight</styleUrl>
      </Pair>
    </StyleMap>
    <Style id="poly-55FF6A-2000-80-nodesc-normal">
      <LineStyle>
        <color>ff6aff55</color>
        <width>2</width>
      </LineStyle>
      <PolyStyle>
        <color>506aff55</color>
        <fill>1</fill>
        <outline>1</outline>
      </PolyStyle>
      <BalloonStyle>
        <text><![CDATA[<h3>$[name]</h3>]]></text>
      </BalloonStyle>
    </Style>
    <Style id="poly-55FF6A-2000-80-nodesc-highlight">
      <LineStyle>
        <color>ff6aff55</color>
        <width>3</width>
      </LineStyle>
      <PolyStyle>
        <color>506aff55</color>
        <fill>1</fill>
        <outline>1</outline>
      </PolyStyle>
      <BalloonStyle>
        <text><![CDATA[<h3>$[name]</h3>]]></text>
      </BalloonStyle>
    </Style>
    <StyleMap id="poly-55FF6A-2000-80-nodesc">
      <Pair>
        <key>normal</key>
        <styleUrl>#poly-55FF6A-2000-80-nodesc-normal</styleUrl>
      </Pair>
      <Pair>
        <key>highlight</key>
        <styleUrl>#poly-55FF6A-2000-80-nodesc-highlight</styleUrl>
      </Pair>
    </StyleMap>
    <Style id="poly-55FF95-2000-112-nodesc-normal">
      <LineStyle>
        <color>ff95ff55</color>
        <width>2</width>
      </LineStyle>
      <PolyStyle>
        <color>7095ff55</color>
        <fill>1</fill>
        <outline>1</outline>
      </PolyStyle>
      <BalloonStyle>
        <text><![CDATA[<h3>$[name]</h3>]]></text>
      </BalloonStyle>
    </Style>
    <Style id="poly-55FF95-2000-112-nodesc-highlight">
      <LineStyle>
        <color>ff95ff55</color>
        <width>3</width>
      </LineStyle>
      <PolyStyle>
        <color>7095ff55</color>
        <fill>1</fill>
        <outline>1</outline>
      </PolyStyle>
      <BalloonStyle>
        <text><![CDATA[<h3>$[name]</h3>]]></text>
      </BalloonStyle>
    </Style>
    <StyleMap id="poly-55FF95-2000-112-nodesc">
      <Pair>
        <key>normal</key>
        <styleUrl>#poly-55FF95-2000-112-nodesc-normal</styleUrl>
      </Pair>
      <Pair>
        <key>highlight</key>
        <styleUrl>#poly-55FF95-2000-112-nodesc-highlight</styleUrl>
      </Pair>
    </StyleMap>
    <Style id="poly-55FF95-2000-80-nodesc-normal">
      <LineStyle>
        <color>ff95ff55</color>
        <width>2</width>
      </LineStyle>
      <PolyStyle>
        <color>5095ff55</color>
        <fill>1</fill>
        <outline>1</outline>
      </PolyStyle>
      <BalloonStyle>
        <text><![CDATA[<h3>$[name]</h3>]]></text>
      </BalloonStyle>
    </Style>
    <Style id="poly-55FF95-2000-80-nodesc-highlight">
      <LineStyle>
        <color>ff95ff55</color>
        <width>3</width>
      </LineStyle>
      <PolyStyle>
        <color>5095ff55</color>
        <fill>1</fill>
        <outline>1</outline>
      </PolyStyle>
      <BalloonStyle>
        <text><![CDATA[<h3>$[name]</h3>]]></text>
      </BalloonStyle>
    </Style>
    <StyleMap id="poly-55FF95-2000-80-nodesc">
      <Pair>
        <key>normal</key>
        <styleUrl>#poly-55FF95-2000-80-nodesc-normal</styleUrl>
      </Pair>
      <Pair>
        <key>highlight</key>
        <styleUrl>#poly-55FF95-2000-80-nodesc-highlight</styleUrl>
      </Pair>
    </StyleMap>
    <Style id="poly-6AFF55-2000-80-nodesc-normal">
      <LineStyle>
        <color>ff55ff6a</color>
        <width>2</width>
      </LineStyle>
      <PolyStyle>
        <color>5055ff6a</color>
        <fill>1</fill>
        <outline>1</outline>
      </PolyStyle>
      <BalloonStyle>
        <text><![CDATA[<h3>$[name]</h3>]]></text>
      </BalloonStyle>
    </Style>
    <Style id="poly-6AFF55-2000-80-nodesc-highlight">
      <LineStyle>
        <color>ff55ff6a</color>
        <width>3</width>
      </LineStyle>
      <PolyStyle>
        <color>5055ff6a</color>
        <fill>1</fill>
        <outline>1</outline>
      </PolyStyle>
      <BalloonStyle>
        <text><![CDATA[<h3>$[name]</h3>]]></text>
      </BalloonStyle>
    </Style>
    <StyleMap id="poly-6AFF55-2000-80-nodesc">
      <Pair>
        <key>normal</key>
        <styleUrl>#poly-6AFF55-2000-80-nodesc-normal</styleUrl>
      </Pair>
      <Pair>
        <key>highlight</key>
        <styleUrl>#poly-6AFF55-2000-80-nodesc-highlight</styleUrl>
      </Pair>
    </StyleMap>
    <Style id="poly-7D48D7-2000-80-normal">
      <LineStyle>
        <color>ffd7487d</color>
        <width>2</width>
      </LineStyle>
      <PolyStyle>
        <color>50d7487d</color>
        <fill>1</fill>
        <outline>1</outline>
      </PolyStyle>
    </Style>
    <Style id="poly-7D48D7-2000-80-highlight">
      <LineStyle>
        <color>ffd7487d</color>
        <width>3</width>
      </LineStyle>
      <PolyStyle>
        <color>50d7487d</color>
        <fill>1</fill>
        <outline>1</outline>
      </PolyStyle>
    </Style>
    <StyleMap id="poly-7D48D7-2000-80">
      <Pair>
        <key>normal</key>
        <styleUrl>#poly-7D48D7-2000-80-normal</styleUrl>
      </Pair>
      <Pair>
        <key>highlight</key>
        <styleUrl>#poly-7D48D7-2000-80-highlight</styleUrl>
      </Pair>
    </StyleMap>
    <Style id="poly-864DE7-2000-80-normal">
      <LineStyle>
        <color>ffe74d86</color>
        <width>2</width>
      </LineStyle>
      <PolyStyle>
        <color>50e74d86</color>
        <fill>1</fill>
        <outline>1</outline>
      </PolyStyle>
    </Style>
    <Style id="poly-864DE7-2000-80-highlight">
      <LineStyle>
        <color>ffe74d86</color>
        <width>3</width>
      </LineStyle>
      <PolyStyle>
        <color>50e74d86</color>
        <fill>1</fill>
        <outline>1</outline>
      </PolyStyle>
    </Style>
    <StyleMap id="poly-864DE7-2000-80">
      <Pair>
        <key>normal</key>
        <styleUrl>#poly-864DE7-2000-80-normal</styleUrl>
      </Pair>
      <Pair>
        <key>highlight</key>
        <styleUrl>#poly-864DE7-2000-80-highlight</styleUrl>
      </Pair>
    </StyleMap>
    <Style id="poly-ED634F-2000-50-normal">
      <LineStyle>
        <color>ff4f63ed</color>
        <width>2</width>
      </LineStyle>
      <PolyStyle>
        <color>324f63ed</color>
        <fill>1</fill>
        <outline>1</outline>
      </PolyStyle>
    </Style>
    <Style id="poly-ED634F-2000-50-highlight">
      <LineStyle>
        <color>ff4f63ed</color>
        <width>3</width>
      </LineStyle>
      <PolyStyle>
        <color>324f63ed</color>
        <fill>1</fill>
        <outline>1</outline>
      </PolyStyle>
    </Style>
    <StyleMap id="poly-ED634F-2000-50">
      <Pair>
        <key>normal</key>
        <styleUrl>#poly-ED634F-2000-50-normal</styleUrl>
      </Pair>
      <Pair>
        <key>highlight</key>
        <styleUrl>#poly-ED634F-2000-50-highlight</styleUrl>
      </Pair>
    </StyleMap>
    <Style id="poly-F1299D-2000-178-nodesc-normal">
      <LineStyle>
        <color>ff9d29f1</color>
        <width>2</width>
      </LineStyle>
      <PolyStyle>
        <color>b29d29f1</color>
        <fill>1</fill>
        <outline>1</outline>
      </PolyStyle>
      <BalloonStyle>
        <text><![CDATA[<h3>$[name]</h3>]]></text>
      </BalloonStyle>
    </Style>
    <Style id="poly-F1299D-2000-178-nodesc-highlight">
      <LineStyle>
        <color>ff9d29f1</color>
        <width>3</width>
      </LineStyle>
      <PolyStyle>
        <color>b29d29f1</color>
        <fill>1</fill>
        <outline>1</outline>
      </PolyStyle>
      <BalloonStyle>
        <text><![CDATA[<h3>$[name]</h3>]]></text>
      </BalloonStyle>
    </Style>
    <StyleMap id="poly-F1299D-2000-178-nodesc">
      <Pair>
        <key>normal</key>
        <styleUrl>#poly-F1299D-2000-178-nodesc-normal</styleUrl>
      </Pair>
      <Pair>
        <key>highlight</key>
        <styleUrl>#poly-F1299D-2000-178-nodesc-highlight</styleUrl>
      </Pair>
    </StyleMap>
    <Style id="poly-F46551-2000-80-normal">
      <LineStyle>
        <color>ff5165f4</color>
        <width>2</width>
      </LineStyle>
      <PolyStyle>
        <color>505165f4</color>
        <fill>1</fill>
        <outline>1</outline>
      </PolyStyle>
    </Style>
    <Style id="poly-F46551-2000-80-highlight">
      <LineStyle>
        <color>ff5165f4</color>
        <width>3</width>
      </LineStyle>
      <PolyStyle>
        <color>505165f4</color>
        <fill>1</fill>
        <outline>1</outline>
      </PolyStyle>
    </Style>
    <StyleMap id="poly-F46551-2000-80">
      <Pair>
        <key>normal</key>
        <styleUrl>#poly-F46551-2000-80-normal</styleUrl>
      </Pair>
      <Pair>
        <key>highlight</key>
        <styleUrl>#poly-F46551-2000-80-highlight</styleUrl>
      </Pair>
    </StyleMap>
    <Style id="poly-FF5595-2000-124-nodesc-normal">
      <LineStyle>
        <color>ff9555ff</color>
        <width>2</width>
      </LineStyle>
      <PolyStyle>
        <color>7c9555ff</color>
        <fill>1</fill>
        <outline>1</outline>
      </PolyStyle>
      <BalloonStyle>
        <text><![CDATA[<h3>$[name]</h3>]]></text>
      </BalloonStyle>
    </Style>
    <Style id="poly-FF5595-2000-124-nodesc-highlight">
      <LineStyle>
        <color>ff9555ff</color>
        <width>3</width>
      </LineStyle>
      <PolyStyle>
        <color>7c9555ff</color>
        <fill>1</fill>
        <outline>1</outline>
      </PolyStyle>
      <BalloonStyle>
        <text><![CDATA[<h3>$[name]</h3>]]></text>
      </BalloonStyle>
    </Style>
    <StyleMap id="poly-FF5595-2000-124-nodesc">
      <Pair>
        <key>normal</key>
        <styleUrl>#poly-FF5595-2000-124-nodesc-normal</styleUrl>
      </Pair>
      <Pair>
        <key>highlight</key>
        <styleUrl>#poly-FF5595-2000-124-nodesc-highlight</styleUrl>
      </Pair>
    </StyleMap>
    <Style id="poly-FFA62B-2000-35-nodesc-normal">
      <LineStyle>
        <color>ff2ba6ff</color>
        <width>2</width>
      </LineStyle>
      <PolyStyle>
        <color>232ba6ff</color>
        <fill>1</fill>
        <outline>1</outline>
      </PolyStyle>
      <BalloonStyle>
        <text><![CDATA[<h3>$[name]</h3>]]></text>
      </BalloonStyle>
    </Style>
    <Style id="poly-FFA62B-2000-35-nodesc-highlight">
      <LineStyle>
        <color>ff2ba6ff</color>
        <width>3</width>
      </LineStyle>
      <PolyStyle>
        <color>232ba6ff</color>
        <fill>1</fill>
        <outline>1</outline>
      </PolyStyle>
      <BalloonStyle>
        <text><![CDATA[<h3>$[name]</h3>]]></text>
      </BalloonStyle>
    </Style>
    <StyleMap id="poly-FFA62B-2000-35-nodesc">
      <Pair>
        <key>normal</key>
        <styleUrl>#poly-FFA62B-2000-35-nodesc-normal</styleUrl>
      </Pair>
      <Pair>
        <key>highlight</key>
        <styleUrl>#poly-FFA62B-2000-35-nodesc-highlight</styleUrl>
      </Pair>
    </StyleMap>
    <Folder>
      <name>2026 Confest Market Layout. Mapping team v1.kml</name>
      <Placemark>
        <name>unicorn camp</name>
        <styleUrl>#icon-1899-0288D1-nodesc</styleUrl>
        <Point>
          <coordinates>
            144.146533,-35.150047,0
          </coordinates>
        </Point>
      </Placemark>
      <Placemark>
        <name>Play Ground</name>
        <description>Rex Town</description>
        <styleUrl>#icon-1899-0288D1</styleUrl>
        <Point>
          <coordinates>
            144.147377,-35.149827,0
          </coordinates>
        </Point>
      </Placemark>
      <Placemark>
        <name>Holy Cow Chai</name>
        <styleUrl>#icon-1899-0288D1-nodesc</styleUrl>
        <Point>
          <coordinates>
            144.147908,-35.14897,0
          </coordinates>
        </Point>
      </Placemark>
      <Placemark>
        <name>Craft Stalls North</name>
        <description>Back of House</description>
        <styleUrl>#icon-1899-0288D1</styleUrl>
        <Point>
          <coordinates>
            144.147229,-35.148653,0
          </coordinates>
        </Point>
      </Placemark>
      <Placemark>
        <name>Wifi antenna</name>
        <styleUrl>#icon-1899-0288D1-nodesc</styleUrl>
        <Point>
          <coordinates>
            144.147388,-35.149533,0
          </coordinates>
        </Point>
      </Placemark>
      <Placemark>
        <name>Market Fire</name>
        <styleUrl>#icon-1899-0288D1-nodesc</styleUrl>
        <Point>
          <coordinates>
            144.147686,-35.149369,0
          </coordinates>
        </Point>
      </Placemark>
      <Placemark>
        <name>Food Stalls</name>
        <styleUrl>#icon-1899-0288D1-nodesc</styleUrl>
        <Point>
          <coordinates>
            144.14805,-35.149546,0
          </coordinates>
        </Point>
      </Placemark>
      <Placemark>
        <name>WT</name>
        <styleUrl>#icon-1899-0288D1-nodesc</styleUrl>
        <Point>
          <coordinates>
            144.149901,-35.146952,0
          </coordinates>
        </Point>
      </Placemark>
      <Placemark>
        <name>#2 Generator</name>
        <description>Ice Geni</description>
        <styleUrl>#icon-1899-0288D1</styleUrl>
        <Point>
          <coordinates>
            144.148298,-35.149727,0
          </coordinates>
        </Point>
      </Placemark>
      <Placemark>
        <name>#1 Generator</name>
        <description>Holy Cow Geni</description>
        <styleUrl>#icon-1899-0288D1</styleUrl>
        <Point>
          <coordinates>
            144.148425,-35.149328,0
          </coordinates>
        </Point>
      </Placemark>
      <Placemark>
        <name>Stage</name>
        <styleUrl>#icon-1899-0288D1-nodesc</styleUrl>
        <Point>
          <coordinates>
            144.147651,-35.149057,0
          </coordinates>
        </Point>
      </Placemark>
      <Placemark>
        <name>Craft Stalls South</name>
        <description>Back of house</description>
        <styleUrl>#icon-1899-0288D1</styleUrl>
        <Point>
          <coordinates>
            144.147658,-35.150214,0
          </coordinates>
        </Point>
      </Placemark>
      <Placemark>
        <name>Gypsy loop</name>
        <description>230m</description>
        <styleUrl>#line-E3A600-1000</styleUrl>
        <LineString>
          <tessellate>1</tessellate>
          <coordinates>
            144.147236,-35.150134,0
            144.147128,-35.150031,0
            144.147092,-35.149901,0
            144.147074,-35.149739,0
            144.147154,-35.149604,0
            144.147261,-35.149473,0
            144.147381,-35.149372,0
            144.147553,-35.149256,0
            144.147724,-35.149167,0
            144.148166,-35.149068,0
            144.148345,-35.149023,0
            144.14841,-35.149014,0
            144.148597,-35.14902,0
          </coordinates>
        </LineString>
      </Placemark>
      <Placemark>
        <name>sand inner loop</name>
        <description>300m</description>
        <styleUrl>#line-E3A600-1000</styleUrl>
        <LineString>
          <tessellate>1</tessellate>
          <coordinates>
            144.146991,-35.150102,0
            144.147143,-35.150135,0
            144.147341,-35.150137,0
            144.147571,-35.150121,0
            144.147778,-35.14994,0
            144.147869,-35.14983,0
            144.147899,-35.149644,0
            144.147915,-35.14946,0
            144.147894,-35.149244,0
            144.14786,-35.149107,0
            144.147668,-35.149086,0
            144.147523,-35.149039,0
            144.147454,-35.148821,0
            144.147253,-35.148757,0
            144.146831,-35.148614,0
          </coordinates>
        </LineString>
      </Placemark>
      <Placemark>
        <name/>
        <styleUrl>#line-EBB04E-1000-nodesc</styleUrl>
        <LineString>
          <tessellate>1</tessellate>
          <coordinates>
            144.147842,-35.149866,0
            144.147963,-35.150013,0
            144.147967,-35.150093,0
            144.148087,-35.15023,0
          </coordinates>
        </LineString>
      </Placemark>
      <Placemark>
        <name>Craft South Frontage</name>
        <description>65m</description>
        <styleUrl>#line-26D1E3-1000</styleUrl>
        <LineString>
          <tessellate>1</tessellate>
          <coordinates>
            144.147828,-35.149906,0
            144.147773,-35.149968,0
            144.147673,-35.150053,0
            144.147583,-35.150131,0
            144.147451,-35.150142,0
            144.147239,-35.150149,0
          </coordinates>
        </LineString>
      </Placemark>
      <Placemark>
        <name>Craft Stalls North Frontage</name>
        <description>96m</description>
        <styleUrl>#line-27D6E8-1000</styleUrl>
        <LineString>
          <tessellate>1</tessellate>
          <coordinates>
            144.146851,-35.148606,0
            144.147033,-35.148673,0
            144.147185,-35.148724,0
            144.1473,-35.148763,0
            144.147398,-35.148796,0
            144.147483,-35.148802,0
            144.147579,-35.148792,0
            144.14763,-35.148776,0
            144.147696,-35.148802,0
            144.147776,-35.148824,0
            144.14784,-35.148841,0
          </coordinates>
        </LineString>
      </Placemark>
      <Placemark>
        <name>Under Road Power</name>
        <description>Tench dug allowing power under road</description>
        <styleUrl>#line-0086E3-1000</styleUrl>
        <LineString>
          <tessellate>1</tessellate>
          <coordinates>
            144.14844,-35.149344,0
            144.148816,-35.149432,0
          </coordinates>
        </LineString>
      </Placemark>
      <Placemark>
        <name>Food Stall Frontage</name>
        <description>80m</description>
        <styleUrl>#line-FF2B2B-1000</styleUrl>
        <LineString>
          <tessellate>1</tessellate>
          <coordinates>
            144.14786,-35.149859,0
            144.147885,-35.14981,0
            144.147906,-35.149666,0
            144.147925,-35.149451,0
            144.147914,-35.149312,0
            144.147885,-35.149148,0
          </coordinates>
        </LineString>
      </Placemark>
      <Placemark>
        <name>Gyspy Kitchen</name>
        <styleUrl>#poly-FF5595-2000-124-nodesc</styleUrl>
        <Polygon>
          <outerBoundaryIs>
            <LinearRing>
              <tessellate>1</tessellate>
              <coordinates>
                144.148971,-35.149036,0
                144.148899,-35.149229,0
                144.149164,-35.149291,0
                144.149225,-35.149092,0
                144.148971,-35.149036,0
              </coordinates>
            </LinearRing>
          </outerBoundaryIs>
        </Polygon>
      </Placemark>
      <Placemark>
        <name>Holy Cow</name>
        <description>Back of House</description>
        <styleUrl>#poly-F46551-2000-80</styleUrl>
        <Polygon>
          <outerBoundaryIs>
            <LinearRing>
              <tessellate>1</tessellate>
              <coordinates>
                144.147861,-35.148976,0
                144.147883,-35.149071,0
                144.147939,-35.149074,0
                144.147979,-35.149049,0
                144.147962,-35.148966,0
                144.147911,-35.148933,0
                144.147861,-35.148976,0
              </coordinates>
            </LinearRing>
          </outerBoundaryIs>
        </Polygon>
      </Placemark>
      <Placemark>
        <name>Craft Stalls South</name>
        <description>Back of House</description>
        <styleUrl>#poly-7D48D7-2000-80</styleUrl>
        <Polygon>
          <outerBoundaryIs>
            <LinearRing>
              <tessellate>1</tessellate>
              <coordinates>
                144.14782,-35.149947,0
                144.147708,-35.150052,0
                144.147591,-35.150138,0
                144.147464,-35.150151,0
                144.14728,-35.150154,0
                144.147222,-35.150217,0
                144.1473,-35.150271,0
                144.147422,-35.150262,0
                144.147616,-35.150233,0
                144.147743,-35.150174,0
                144.147885,-35.150044,0
                144.147899,-35.150001,0
                144.147842,-35.14992,0
                144.14782,-35.149947,0
              </coordinates>
            </LinearRing>
          </outerBoundaryIs>
        </Polygon>
      </Placemark>
      <Placemark>
        <name>HC seating</name>
        <styleUrl>#poly-FFA62B-2000-35-nodesc</styleUrl>
        <Polygon>
          <outerBoundaryIs>
            <LinearRing>
              <tessellate>1</tessellate>
              <coordinates>
                144.147856,-35.148975,0
                144.14783,-35.148962,0
                144.14778,-35.148965,0
                144.147774,-35.149031,0
                144.147809,-35.149061,0
                144.147868,-35.149066,0
                144.147856,-35.148975,0
              </coordinates>
            </LinearRing>
          </outerBoundaryIs>
        </Polygon>
      </Placemark>
      <Placemark>
        <name>Holy Cow</name>
        <description>Back of House</description>
        <styleUrl>#poly-F46551-2000-80</styleUrl>
        <Polygon>
          <outerBoundaryIs>
            <LinearRing>
              <tessellate>1</tessellate>
              <coordinates>
                144.147861,-35.148976,0
                144.147883,-35.149071,0
                144.147939,-35.149074,0
                144.147979,-35.149049,0
                144.147962,-35.148966,0
                144.147911,-35.148933,0
                144.147861,-35.148976,0
              </coordinates>
            </LinearRing>
          </outerBoundaryIs>
        </Polygon>
      </Placemark>
      <Placemark>
        <name>Holy Cow</name>
        <description>Back of House</description>
        <styleUrl>#poly-F46551-2000-80</styleUrl>
        <Polygon>
          <outerBoundaryIs>
            <LinearRing>
              <tessellate>1</tessellate>
              <coordinates>
                144.147861,-35.148976,0
                144.147883,-35.149071,0
                144.147939,-35.149074,0
                144.147979,-35.149049,0
                144.147962,-35.148966,0
                144.147911,-35.148933,0
                144.147861,-35.148976,0
              </coordinates>
            </LinearRing>
          </outerBoundaryIs>
        </Polygon>
      </Placemark>
      <Placemark>
        <name>Food Stalls</name>
        <description>Back of House</description>
        <styleUrl>#poly-ED634F-2000-50</styleUrl>
        <Polygon>
          <outerBoundaryIs>
            <LinearRing>
              <tessellate>1</tessellate>
              <coordinates>
                144.148345,-35.149877,0
                144.148371,-35.149798,0
                144.148399,-35.149798,0
                144.148422,-35.149744,0
                144.148424,-35.149688,0
                144.148472,-35.149668,0
                144.148528,-35.149499,0
                144.148508,-35.149451,0
                144.148527,-35.149363,0
                144.148563,-35.149341,0
                144.148569,-35.149293,0
                144.148588,-35.149183,0
                144.148621,-35.149138,0
                144.148547,-35.149093,0
                144.148494,-35.14913,0
                144.148445,-35.149104,0
                144.148485,-35.149061,0
                144.148422,-35.14904,0
                144.148399,-35.149053,0
                144.148358,-35.149047,0
                144.148231,-35.149071,0
                144.14809,-35.149094,0
                144.147896,-35.149146,0
                144.14792,-35.149284,0
                144.147937,-35.149442,0
                144.147918,-35.149631,0
                144.147898,-35.149797,0
                144.147871,-35.149866,0
                144.148031,-35.150015,0
                144.148045,-35.149985,0
                144.148123,-35.149952,0
                144.148245,-35.149956,0
                144.148345,-35.149877,0
              </coordinates>
            </LinearRing>
          </outerBoundaryIs>
        </Polygon>
      </Placemark>
      <Placemark>
        <name>Craft Stalls South</name>
        <description>Back of House</description>
        <styleUrl>#poly-7D48D7-2000-80</styleUrl>
        <Polygon>
          <outerBoundaryIs>
            <LinearRing>
              <tessellate>1</tessellate>
              <coordinates>
                144.14782,-35.149947,0
                144.147708,-35.150052,0
                144.147591,-35.150138,0
                144.147464,-35.150151,0
                144.14728,-35.150154,0
                144.147222,-35.150217,0
                144.1473,-35.150271,0
                144.147422,-35.150262,0
                144.147616,-35.150233,0
                144.147743,-35.150174,0
                144.147885,-35.150044,0
                144.147899,-35.150001,0
                144.147842,-35.14992,0
                144.14782,-35.149947,0
              </coordinates>
            </LinearRing>
          </outerBoundaryIs>
        </Polygon>
      </Placemark>
      <Placemark>
        <name>Holy Cow</name>
        <description>Back of House</description>
        <styleUrl>#poly-F46551-2000-80</styleUrl>
        <Polygon>
          <outerBoundaryIs>
            <LinearRing>
              <tessellate>1</tessellate>
              <coordinates>
                144.147861,-35.148976,0
                144.147878,-35.149079,0
                144.147884,-35.149101,0
                144.147924,-35.149091,0
                144.147965,-35.149063,0
                144.148025,-35.14903,0
                144.148061,-35.148969,0
                144.148083,-35.14893,0
                144.147965,-35.148877,0
                144.147948,-35.14892,0
                144.147912,-35.148968,0
                144.147861,-35.148976,0
              </coordinates>
            </LinearRing>
          </outerBoundaryIs>
        </Polygon>
      </Placemark>
      <Placemark>
        <name>Craft Stalls North</name>
        <description>Back of House</description>
        <styleUrl>#poly-864DE7-2000-80</styleUrl>
        <Polygon>
          <outerBoundaryIs>
            <LinearRing>
              <tessellate>1</tessellate>
              <coordinates>
                144.14784,-35.148834,0
                144.147916,-35.148785,0
                144.147886,-35.14876,0
                144.147606,-35.14863,0
                144.147552,-35.148647,0
                144.147489,-35.148656,0
                144.147459,-35.148613,0
                144.147466,-35.148577,0
                144.14735,-35.148492,0
                144.147301,-35.148489,0
                144.147262,-35.148452,0
                144.147066,-35.148453,0
                144.146904,-35.14845,0
                144.146865,-35.148596,0
                144.146913,-35.148621,0
                144.147042,-35.148659,0
                144.147419,-35.148797,0
                144.147558,-35.148782,0
                144.147637,-35.148769,0
                144.147721,-35.148804,0
                144.14784,-35.148834,0
              </coordinates>
            </LinearRing>
          </outerBoundaryIs>
        </Polygon>
      </Placemark>
      <Placemark>
        <name>Market Shade Structure</name>
        <styleUrl>#poly-F1299D-2000-178-nodesc</styleUrl>
        <Polygon>
          <outerBoundaryIs>
            <LinearRing>
              <tessellate>1</tessellate>
              <coordinates>
                144.147662,-35.149605,0
                144.147663,-35.149707,0
                144.147747,-35.14971,0
                144.147747,-35.149606,0
                144.147662,-35.149605,0
              </coordinates>
            </LinearRing>
          </outerBoundaryIs>
        </Polygon>
      </Placemark>
      <Placemark>
        <name>Food Stalls</name>
        <description>Back of House</description>
        <styleUrl>#poly-ED634F-2000-50</styleUrl>
        <Polygon>
          <outerBoundaryIs>
            <LinearRing>
              <tessellate>1</tessellate>
              <coordinates>
                144.148345,-35.149877,0
                144.148371,-35.149798,0
                144.148399,-35.149798,0
                144.148422,-35.149744,0
                144.148424,-35.149688,0
                144.148472,-35.149668,0
                144.148528,-35.149499,0
                144.148508,-35.149451,0
                144.148527,-35.149363,0
                144.148563,-35.149341,0
                144.148569,-35.149293,0
                144.148588,-35.149183,0
                144.148621,-35.149138,0
                144.148547,-35.149093,0
                144.148494,-35.14913,0
                144.148445,-35.149104,0
                144.148485,-35.149061,0
                144.148422,-35.14904,0
                144.148399,-35.149053,0
                144.148358,-35.149047,0
                144.148231,-35.149071,0
                144.14809,-35.149094,0
                144.147896,-35.149146,0
                144.14792,-35.149284,0
                144.147937,-35.149442,0
                144.147918,-35.149631,0
                144.147898,-35.149797,0
                144.147871,-35.149866,0
                144.148031,-35.150015,0
                144.148045,-35.149985,0
                144.148123,-35.149952,0
                144.148245,-35.149956,0
                144.148345,-35.149877,0
              </coordinates>
            </LinearRing>
          </outerBoundaryIs>
        </Polygon>
      </Placemark>
    </Folder>
    <Folder>
      <name>Tree Planting areas</name>
      <Placemark>
        <name>WT</name>
        <styleUrl>#icon-1899-0288D1-nodesc</styleUrl>
        <Point>
          <coordinates>
            144.149901,-35.146952,0
          </coordinates>
        </Point>
      </Placemark>
      <Placemark>
        <name>Plot 1</name>
        <styleUrl>#poly-28ED67-2000-94-nodesc</styleUrl>
        <Polygon>
          <outerBoundaryIs>
            <LinearRing>
              <tessellate>1</tessellate>
              <coordinates>
                144.148362,-35.14989,0
                144.148403,-35.149887,0
                144.148422,-35.149838,0
                144.148435,-35.149812,0
                144.148389,-35.149794,0
                144.148367,-35.149804,0
                144.148355,-35.149865,0
                144.148362,-35.14989,0
              </coordinates>
            </LinearRing>
          </outerBoundaryIs>
        </Polygon>
      </Placemark>
      <Placemark>
        <name>Plot 2</name>
        <styleUrl>#poly-55FF6A-2000-80-nodesc</styleUrl>
        <Polygon>
          <outerBoundaryIs>
            <LinearRing>
              <tessellate>1</tessellate>
              <coordinates>
                144.148438,-35.149751,0
                144.148471,-35.149736,0
                144.148481,-35.149727,0
                144.148491,-35.149679,0
                144.148464,-35.149671,0
                144.148437,-35.149689,0
                144.148424,-35.149704,0
                144.148438,-35.149751,0
              </coordinates>
            </LinearRing>
          </outerBoundaryIs>
        </Polygon>
      </Placemark>
      <Placemark>
        <name>Plot 3</name>
        <styleUrl>#poly-55FF6A-2000-80-nodesc</styleUrl>
        <Polygon>
          <outerBoundaryIs>
            <LinearRing>
              <tessellate>1</tessellate>
              <coordinates>
                144.148537,-35.149496,0
                144.148578,-35.149491,0
                144.148596,-35.14946,0
                144.14861,-35.149415,0
                144.148618,-35.149352,0
                144.148584,-35.149344,0
                144.148567,-35.149346,0
                144.148542,-35.149357,0
                144.148521,-35.149415,0
                144.14851,-35.149466,0
                144.148537,-35.149496,0
              </coordinates>
            </LinearRing>
          </outerBoundaryIs>
        </Polygon>
      </Placemark>
      <Placemark>
        <name>Plot 4</name>
        <styleUrl>#poly-55FF6A-2000-80-nodesc</styleUrl>
        <Polygon>
          <outerBoundaryIs>
            <LinearRing>
              <tessellate>1</tessellate>
              <coordinates>
                144.14858,-35.149293,0
                144.148625,-35.149298,0
                144.148646,-35.149267,0
                144.148666,-35.149188,0
                144.148666,-35.149155,0
                144.148631,-35.149142,0
                144.148595,-35.149167,0
                144.148579,-35.14921,0
                144.14858,-35.149293,0
              </coordinates>
            </LinearRing>
          </outerBoundaryIs>
        </Polygon>
      </Placemark>
      <Placemark>
        <name>Plot 5</name>
        <styleUrl>#poly-55FF6A-2000-80-nodesc</styleUrl>
        <Polygon>
          <outerBoundaryIs>
            <LinearRing>
              <tessellate>1</tessellate>
              <coordinates>
                144.148415,-35.149035,0
                144.148398,-35.149019,0
                144.14838,-35.14902,0
                144.148364,-35.149026,0
                144.148363,-35.14904,0
                144.148391,-35.149053,0
                144.148409,-35.149046,0
                144.148415,-35.149035,0
              </coordinates>
            </LinearRing>
          </outerBoundaryIs>
        </Polygon>
      </Placemark>
      <Placemark>
        <name>Plot 6</name>
        <styleUrl>#poly-55FF6A-2000-80-nodesc</styleUrl>
        <Polygon>
          <outerBoundaryIs>
            <LinearRing>
              <tessellate>1</tessellate>
              <coordinates>
                144.14757,-35.148597,0
                144.147537,-35.148573,0
                144.147488,-35.148562,0
                144.147474,-35.148589,0
                144.147467,-35.148613,0
                144.147502,-35.148656,0
                144.147559,-35.148635,0
                144.14757,-35.148597,0
              </coordinates>
            </LinearRing>
          </outerBoundaryIs>
        </Polygon>
      </Placemark>
      <Placemark>
        <name>Plot 7</name>
        <styleUrl>#poly-55FF6A-2000-80-nodesc</styleUrl>
        <Polygon>
          <outerBoundaryIs>
            <LinearRing>
              <tessellate>1</tessellate>
              <coordinates>
                144.147365,-35.148441,0
                144.147342,-35.148419,0
                144.147287,-35.148428,0
                144.147281,-35.148448,0
                144.14729,-35.148467,0
                144.147308,-35.148481,0
                144.147335,-35.148483,0
                144.147358,-35.148468,0
                144.147365,-35.148441,0
              </coordinates>
            </LinearRing>
          </outerBoundaryIs>
        </Polygon>
      </Placemark>
      <Placemark>
        <name>Plot 8</name>
        <styleUrl>#poly-55FF6A-2000-80-nodesc</styleUrl>
        <Polygon>
          <outerBoundaryIs>
            <LinearRing>
              <tessellate>1</tessellate>
              <coordinates>
                144.149822,-35.146964,0
                144.149869,-35.146987,0
                144.149882,-35.146938,0
                144.149822,-35.146964,0
              </coordinates>
            </LinearRing>
          </outerBoundaryIs>
        </Polygon>
      </Placemark>
      <Placemark>
        <name>Plot 9</name>
        <styleUrl>#poly-6AFF55-2000-80-nodesc</styleUrl>
        <Polygon>
          <outerBoundaryIs>
            <LinearRing>
              <tessellate>1</tessellate>
              <coordinates>
                144.149912,-35.146996,0
                144.149978,-35.147016,0
                144.149923,-35.14696,0
                144.149912,-35.146996,0
              </coordinates>
            </LinearRing>
          </outerBoundaryIs>
        </Polygon>
      </Placemark>
      <Placemark>
        <name>Plot 10</name>
        <styleUrl>#poly-55FF95-2000-112-nodesc</styleUrl>
        <Polygon>
          <outerBoundaryIs>
            <LinearRing>
              <tessellate>1</tessellate>
              <coordinates>
                144.146512,-35.149573,0
                144.14653,-35.149574,0
                144.146547,-35.149564,0
                144.146557,-35.149549,0
                144.146557,-35.149535,0
                144.146553,-35.14952,0
                144.146535,-35.149513,0
                144.146516,-35.149516,0
                144.146501,-35.149531,0
                144.146495,-35.149547,0
                144.146491,-35.149563,0
                144.146512,-35.149573,0
              </coordinates>
            </LinearRing>
          </outerBoundaryIs>
        </Polygon>
      </Placemark>
      <Placemark>
        <name>Plot 11</name>
        <styleUrl>#poly-55FF95-2000-80-nodesc</styleUrl>
        <Polygon>
          <outerBoundaryIs>
            <LinearRing>
              <tessellate>1</tessellate>
              <coordinates>
                144.14644,-35.149812,0
                144.146459,-35.14979,0
                144.146425,-35.149766,0
                144.14644,-35.149812,0
              </coordinates>
            </LinearRing>
          </outerBoundaryIs>
        </Polygon>
      </Placemark>
    </Folder>
  </Document>
</kml>
