<?xml version="1.0" encoding="UTF-8"?>
<kml xmlns="http://www.opengis.net/kml/2.2">
  <Document>
    <name>Cooking Circles 2025 Autumn ConFest </name>
    <description>This is the internal draft planning map for Cooking Circle placements for the Autumn 2025 event.</description>
    <Style id="icon-1739-FF5252-normal">
      <IconStyle>
        <color>ff5252ff</color>
        <scale>1</scale>
        <Icon>
          <href>https://www.gstatic.com/mapspro/images/stock/503-wht-blank_maps.png</href>
        </Icon>
      </IconStyle>
      <LabelStyle>
        <scale>0</scale>
      </LabelStyle>
    </Style>
    <Style id="icon-1739-FF5252-highlight">
      <IconStyle>
        <color>ff5252ff</color>
        <scale>1</scale>
        <Icon>
          <href>https://www.gstatic.com/mapspro/images/stock/503-wht-blank_maps.png</href>
        </Icon>
      </IconStyle>
      <LabelStyle>
        <scale>1</scale>
      </LabelStyle>
    </Style>
    <StyleMap id="icon-1739-FF5252">
      <Pair>
        <key>normal</key>
        <styleUrl>#icon-1739-FF5252-normal</styleUrl>
      </Pair>
      <Pair>
        <key>highlight</key>
        <styleUrl>#icon-1739-FF5252-highlight</styleUrl>
      </Pair>
    </StyleMap>
    <Style id="icon-1899-0288D1-normal">
      <IconStyle>
        <color>ffd18802</color>
        <scale>1</scale>
        <Icon>
          <href>https://www.gstatic.com/mapspro/images/stock/503-wht-blank_maps.png</href>
        </Icon>
        <hotSpot x="32" xunits="pixels" y="64" yunits="insetPixels"/>
      </IconStyle>
      <LabelStyle>
        <scale>0</scale>
      </LabelStyle>
    </Style>
    <Style id="icon-1899-0288D1-highlight">
      <IconStyle>
        <color>ffd18802</color>
        <scale>1</scale>
        <Icon>
          <href>https://www.gstatic.com/mapspro/images/stock/503-wht-blank_maps.png</href>
        </Icon>
        <hotSpot x="32" xunits="pixels" y="64" yunits="insetPixels"/>
      </IconStyle>
      <LabelStyle>
        <scale>1</scale>
      </LabelStyle>
    </Style>
    <StyleMap id="icon-1899-0288D1">
      <Pair>
        <key>normal</key>
        <styleUrl>#icon-1899-0288D1-normal</styleUrl>
      </Pair>
      <Pair>
        <key>highlight</key>
        <styleUrl>#icon-1899-0288D1-highlight</styleUrl>
      </Pair>
    </StyleMap>
    <Folder>
      <name>Cooking Circles 2025 Autumn</name>
      <Placemark>
        <name>Nudies</name>
        <description><![CDATA[1: 2<br>-35.14795: -35.14869<br>144.1428: 144.14278]]></description>
        <styleUrl>#icon-1739-FF5252</styleUrl>
        <ExtendedData>
          <Data name="1">
            <value>2.0</value>
          </Data>
          <Data name="-35.14795">
            <value>-35.14869</value>
          </Data>
          <Data name="144.1428">
            <value>144.14278</value>
          </Data>
        </ExtendedData>
        <Point>
          <coordinates>
            144.14278,-35.14869,0
          </coordinates>
        </Point>
      </Placemark>
      <Placemark>
        <name>Poly</name>
        <description><![CDATA[1: 3<br>-35.14795: -35.14884<br>144.1428: 144.1407]]></description>
        <styleUrl>#icon-1739-FF5252</styleUrl>
        <ExtendedData>
          <Data name="1">
            <value>3.0</value>
          </Data>
          <Data name="-35.14795">
            <value>-35.14884</value>
          </Data>
          <Data name="144.1428">
            <value>144.1407</value>
          </Data>
        </ExtendedData>
        <Point>
          <coordinates>
            144.1407,-35.14884,0
          </coordinates>
        </Point>
      </Placemark>
      <Placemark>
        <name>Open Stage</name>
        <description><![CDATA[1: 4<br>-35.14795: -35.14996<br>144.1428: 144.14387]]></description>
        <styleUrl>#icon-1739-FF5252</styleUrl>
        <ExtendedData>
          <Data name="1">
            <value>4.0</value>
          </Data>
          <Data name="-35.14795">
            <value>-35.14996</value>
          </Data>
          <Data name="144.1428">
            <value>144.14387</value>
          </Data>
        </ExtendedData>
        <Point>
          <coordinates>
            144.14387,-35.14996,0
          </coordinates>
        </Point>
      </Placemark>
      <Placemark>
        <name>Family</name>
        <description><![CDATA[1: 5<br>-35.14795: -35.1501<br>144.1428: 144.14477]]></description>
        <styleUrl>#icon-1739-FF5252</styleUrl>
        <ExtendedData>
          <Data name="1">
            <value>5.0</value>
          </Data>
          <Data name="-35.14795">
            <value>-35.1501</value>
          </Data>
          <Data name="144.1428">
            <value>144.14477</value>
          </Data>
        </ExtendedData>
        <Point>
          <coordinates>
            144.14477,-35.1501,0
          </coordinates>
        </Point>
      </Placemark>
      <Placemark>
        <name>Wellness</name>
        <description><![CDATA[1: 6<br>-35.14795: -35.14823<br>144.1428: 144.14746]]></description>
        <styleUrl>#icon-1739-FF5252</styleUrl>
        <ExtendedData>
          <Data name="1">
            <value>6.0</value>
          </Data>
          <Data name="-35.14795">
            <value>-35.14823</value>
          </Data>
          <Data name="144.1428">
            <value>144.14746</value>
          </Data>
        </ExtendedData>
        <Point>
          <coordinates>
            144.14746,-35.14823,0
          </coordinates>
        </Point>
      </Placemark>
      <Placemark>
        <name>Uncertainty</name>
        <description><![CDATA[1: 7<br>-35.14795: -35.15115<br>144.1428: 144.14649]]></description>
        <styleUrl>#icon-1739-FF5252</styleUrl>
        <ExtendedData>
          <Data name="1">
            <value>7.0</value>
          </Data>
          <Data name="-35.14795">
            <value>-35.15115</value>
          </Data>
          <Data name="144.1428">
            <value>144.14649</value>
          </Data>
        </ExtendedData>
        <Point>
          <coordinates>
            144.14649,-35.15115,0
          </coordinates>
        </Point>
      </Placemark>
      <Placemark>
        <name>Bliss</name>
        <description><![CDATA[1: 8<br>-35.14795: -35.15117<br>144.1428: 144.14785]]></description>
        <styleUrl>#icon-1739-FF5252</styleUrl>
        <ExtendedData>
          <Data name="1">
            <value>8.0</value>
          </Data>
          <Data name="-35.14795">
            <value>-35.15117</value>
          </Data>
          <Data name="144.1428">
            <value>144.14785</value>
          </Data>
        </ExtendedData>
        <Point>
          <coordinates>
            144.14785,-35.15117,0
          </coordinates>
        </Point>
      </Placemark>
      <Placemark>
        <name>Tranquillity River</name>
        <description><![CDATA[1: 9<br>-35.14795: -35.15244<br>144.1428: 144.14858]]></description>
        <styleUrl>#icon-1739-FF5252</styleUrl>
        <ExtendedData>
          <Data name="1">
            <value>9.0</value>
          </Data>
          <Data name="-35.14795">
            <value>-35.15244</value>
          </Data>
          <Data name="144.1428">
            <value>144.14858</value>
          </Data>
        </ExtendedData>
        <Point>
          <coordinates>
            144.14858,-35.15244,0
          </coordinates>
        </Point>
      </Placemark>
      <Placemark>
        <name>Rainbow 1</name>
        <description><![CDATA[1: 10<br>-35.14795: -35.150011<br>144.1428: 144.14938]]></description>
        <styleUrl>#icon-1739-FF5252</styleUrl>
        <ExtendedData>
          <Data name="1">
            <value>10.0</value>
          </Data>
          <Data name="-35.14795">
            <value>-35.150011</value>
          </Data>
          <Data name="144.1428">
            <value>144.14938</value>
          </Data>
        </ExtendedData>
        <Point>
          <coordinates>
            144.14938,-35.150011,0
          </coordinates>
        </Point>
      </Placemark>
      <Placemark>
        <name>Rainbow 2</name>
        <description><![CDATA[1: 11<br>-35.14795: -35.151123<br>144.1428: 144.14938]]></description>
        <styleUrl>#icon-1739-FF5252</styleUrl>
        <ExtendedData>
          <Data name="1">
            <value>11.0</value>
          </Data>
          <Data name="-35.14795">
            <value>-35.151123</value>
          </Data>
          <Data name="144.1428">
            <value>144.14938</value>
          </Data>
        </ExtendedData>
        <Point>
          <coordinates>
            144.14938,-35.151123,0
          </coordinates>
        </Point>
      </Placemark>
      <Placemark>
        <name>Bike Station</name>
        <description><![CDATA[1: 12<br>-35.14795: -35.14686<br>144.1428: 144.14451]]></description>
        <styleUrl>#icon-1739-FF5252</styleUrl>
        <ExtendedData>
          <Data name="1">
            <value>12.0</value>
          </Data>
          <Data name="-35.14795">
            <value>-35.14686</value>
          </Data>
          <Data name="144.1428">
            <value>144.14451</value>
          </Data>
        </ExtendedData>
        <Point>
          <coordinates>
            144.14451,-35.14686,0
          </coordinates>
        </Point>
      </Placemark>
      <Placemark>
        <name>Gypsy</name>
        <description><![CDATA[1: 13<br>-35.14795: -35.14835<br>144.1428: 144.14963]]></description>
        <styleUrl>#icon-1739-FF5252</styleUrl>
        <ExtendedData>
          <Data name="1">
            <value>13.0</value>
          </Data>
          <Data name="-35.14795">
            <value>-35.14835</value>
          </Data>
          <Data name="144.1428">
            <value>144.14963</value>
          </Data>
        </ExtendedData>
        <Point>
          <coordinates>
            144.14963,-35.14835,0
          </coordinates>
        </Point>
      </Placemark>
      <Placemark>
        <name>Access Road – Out</name>
        <description><![CDATA[1: 14<br>-35.14795: -35.14415<br>144.1428: 144.14839]]></description>
        <styleUrl>#icon-1739-FF5252</styleUrl>
        <ExtendedData>
          <Data name="1">
            <value>14.0</value>
          </Data>
          <Data name="-35.14795">
            <value>-35.14415</value>
          </Data>
          <Data name="144.1428">
            <value>144.14839</value>
          </Data>
        </ExtendedData>
        <Point>
          <coordinates>
            144.14839,-35.14415,0
          </coordinates>
        </Point>
      </Placemark>
      <Placemark>
        <name>Access Road – In</name>
        <description><![CDATA[1: 15<br>-35.14795: -35.14496<br>144.1428: 144.15067]]></description>
        <styleUrl>#icon-1739-FF5252</styleUrl>
        <ExtendedData>
          <Data name="1">
            <value>15.0</value>
          </Data>
          <Data name="-35.14795">
            <value>-35.14496</value>
          </Data>
          <Data name="144.1428">
            <value>144.15067</value>
          </Data>
        </ExtendedData>
        <Point>
          <coordinates>
            144.15067,-35.14496,0
          </coordinates>
        </Point>
      </Placemark>
      <Placemark>
        <name>Unicorn</name>
        <description><![CDATA[1: 16<br>-35.14795: -35.14963<br>144.1428: 144.1463]]></description>
        <styleUrl>#icon-1739-FF5252</styleUrl>
        <ExtendedData>
          <Data name="1">
            <value>16.0</value>
          </Data>
          <Data name="-35.14795">
            <value>-35.14963</value>
          </Data>
          <Data name="144.1428">
            <value>144.1463</value>
          </Data>
        </ExtendedData>
        <Point>
          <coordinates>
            144.1463,-35.14963,0
          </coordinates>
        </Point>
      </Placemark>
      <Placemark>
        <name>Sydney Village</name>
        <description><![CDATA[1: 17<br>-35.14795: -35.14789<br>144.1428: 144.14228]]></description>
        <styleUrl>#icon-1739-FF5252</styleUrl>
        <ExtendedData>
          <Data name="1">
            <value>17.0</value>
          </Data>
          <Data name="-35.14795">
            <value>-35.14789</value>
          </Data>
          <Data name="144.1428">
            <value>144.14228</value>
          </Data>
        </ExtendedData>
        <Point>
          <coordinates>
            144.14228,-35.14789,0
          </coordinates>
        </Point>
      </Placemark>
      <Placemark>
        <name>Access Camping 1</name>
        <description><![CDATA[1: 19<br>-35.14795: -35.1463<br>144.1428: 144.1493]]></description>
        <styleUrl>#icon-1739-FF5252</styleUrl>
        <ExtendedData>
          <Data name="1">
            <value>19.0</value>
          </Data>
          <Data name="-35.14795">
            <value>-35.1463</value>
          </Data>
          <Data name="144.1428">
            <value>144.1493</value>
          </Data>
        </ExtendedData>
        <Point>
          <coordinates>
            144.1493,-35.1463,0
          </coordinates>
        </Point>
      </Placemark>
      <Placemark>
        <name>Stay Put 1</name>
        <description><![CDATA[1: 20<br>-35.14795: -35.1474<br>144.1428: 144.14899]]></description>
        <styleUrl>#icon-1739-FF5252</styleUrl>
        <ExtendedData>
          <Data name="1">
            <value>20.0</value>
          </Data>
          <Data name="-35.14795">
            <value>-35.1474</value>
          </Data>
          <Data name="144.1428">
            <value>144.14899</value>
          </Data>
        </ExtendedData>
        <Point>
          <coordinates>
            144.14899,-35.1474,0
          </coordinates>
        </Point>
      </Placemark>
      <Placemark>
        <name>Stay Put 2</name>
        <description><![CDATA[1: 21<br>-35.14795: -35.14528<br>144.1428: 144.14548]]></description>
        <styleUrl>#icon-1739-FF5252</styleUrl>
        <ExtendedData>
          <Data name="1">
            <value>21.0</value>
          </Data>
          <Data name="-35.14795">
            <value>-35.14528</value>
          </Data>
          <Data name="144.1428">
            <value>144.14548</value>
          </Data>
        </ExtendedData>
        <Point>
          <coordinates>
            144.14548,-35.14528,0
          </coordinates>
        </Point>
      </Placemark>
      <Placemark>
        <name>Veg Out Crew Kitchen</name>
        <description><![CDATA[1: 22<br>-35.14795: -35.14751<br>144.1428: 144.14218]]></description>
        <styleUrl>#icon-1739-FF5252</styleUrl>
        <ExtendedData>
          <Data name="1">
            <value>22.0</value>
          </Data>
          <Data name="-35.14795">
            <value>-35.14751</value>
          </Data>
          <Data name="144.1428">
            <value>144.14218</value>
          </Data>
        </ExtendedData>
        <Point>
          <coordinates>
            144.14218,-35.14751,0
          </coordinates>
        </Point>
      </Placemark>
      <Placemark>
        <name>Forest Fire Camp</name>
        <description><![CDATA[1: 23<br>-35.14795: -35.14888<br>144.1428: 144.14408]]></description>
        <styleUrl>#icon-1739-FF5252</styleUrl>
        <ExtendedData>
          <Data name="1">
            <value>23.0</value>
          </Data>
          <Data name="-35.14795">
            <value>-35.14888</value>
          </Data>
          <Data name="144.1428">
            <value>144.14408</value>
          </Data>
        </ExtendedData>
        <Point>
          <coordinates>
            144.14408,-35.14888,0
          </coordinates>
        </Point>
      </Placemark>
    </Folder>
    <Folder>
      <name>Cooking Circles 2025 Autumn</name>
      <Placemark>
        <name>Nudies</name>
        <description><![CDATA[description: 1: 2<br>-35.14795: -35.14869<br>144.1428: 144.14278<br>1: 2.0<br>-35.14795: -35.14869<br>144.1428: 144.14278]]></description>
        <styleUrl>#icon-1899-0288D1</styleUrl>
        <ExtendedData>
          <Data name="description">
            <value>1: 2
-35.14795: -35.14869
144.1428: 144.14278</value>
          </Data>
          <Data name="1">
            <value>2.0</value>
          </Data>
          <Data name="-35.14795">
            <value>-35.14869</value>
          </Data>
          <Data name="144.1428">
            <value>144.14278</value>
          </Data>
        </ExtendedData>
        <Point>
          <coordinates>
            144.14278,-35.14869,0
          </coordinates>
        </Point>
      </Placemark>
      <Placemark>
        <name>Poly</name>
        <description><![CDATA[description: 1: 3<br>-35.14795: -35.14884<br>144.1428: 144.1407<br>1: 3.0<br>-35.14795: -35.14884<br>144.1428: 144.1407]]></description>
        <styleUrl>#icon-1899-0288D1</styleUrl>
        <ExtendedData>
          <Data name="description">
            <value>1: 3
-35.14795: -35.14884
144.1428: 144.1407</value>
          </Data>
          <Data name="1">
            <value>3.0</value>
          </Data>
          <Data name="-35.14795">
            <value>-35.14884</value>
          </Data>
          <Data name="144.1428">
            <value>144.1407</value>
          </Data>
        </ExtendedData>
        <Point>
          <coordinates>
            144.1407,-35.14884,0
          </coordinates>
        </Point>
      </Placemark>
      <Placemark>
        <name>Open Stage</name>
        <description><![CDATA[description: 1: 4<br>-35.14795: -35.14996<br>144.1428: 144.14387<br>1: 4.0<br>-35.14795: -35.14996<br>144.1428: 144.14387]]></description>
        <styleUrl>#icon-1899-0288D1</styleUrl>
        <ExtendedData>
          <Data name="description">
            <value>1: 4
-35.14795: -35.14996
144.1428: 144.14387</value>
          </Data>
          <Data name="1">
            <value>4.0</value>
          </Data>
          <Data name="-35.14795">
            <value>-35.14996</value>
          </Data>
          <Data name="144.1428">
            <value>144.14387</value>
          </Data>
        </ExtendedData>
        <Point>
          <coordinates>
            144.14387,-35.14996,0
          </coordinates>
        </Point>
      </Placemark>
      <Placemark>
        <name>Family</name>
        <description><![CDATA[description: 1: 5<br>-35.14795: -35.1501<br>144.1428: 144.14477<br>1: 5.0<br>-35.14795: -35.1501<br>144.1428: 144.14477]]></description>
        <styleUrl>#icon-1899-0288D1</styleUrl>
        <ExtendedData>
          <Data name="description">
            <value>1: 5
-35.14795: -35.1501
144.1428: 144.14477</value>
          </Data>
          <Data name="1">
            <value>5.0</value>
          </Data>
          <Data name="-35.14795">
            <value>-35.1501</value>
          </Data>
          <Data name="144.1428">
            <value>144.14477</value>
          </Data>
        </ExtendedData>
        <Point>
          <coordinates>
            144.14477,-35.1501,0
          </coordinates>
        </Point>
      </Placemark>
      <Placemark>
        <name>Wellness</name>
        <description><![CDATA[description: 1: 6<br>-35.14795: -35.14823<br>144.1428: 144.14746<br>1: 6.0<br>-35.14795: -35.14823<br>144.1428: 144.14746]]></description>
        <styleUrl>#icon-1899-0288D1</styleUrl>
        <ExtendedData>
          <Data name="description">
            <value>1: 6
-35.14795: -35.14823
144.1428: 144.14746</value>
          </Data>
          <Data name="1">
            <value>6.0</value>
          </Data>
          <Data name="-35.14795">
            <value>-35.14823</value>
          </Data>
          <Data name="144.1428">
            <value>144.14746</value>
          </Data>
        </ExtendedData>
        <Point>
          <coordinates>
            144.14746,-35.14823,0
          </coordinates>
        </Point>
      </Placemark>
      <Placemark>
        <name>Uncertainty</name>
        <description><![CDATA[description: 1: 7<br>-35.14795: -35.15115<br>144.1428: 144.14649<br>1: 7.0<br>-35.14795: -35.15115<br>144.1428: 144.14649]]></description>
        <styleUrl>#icon-1899-0288D1</styleUrl>
        <ExtendedData>
          <Data name="description">
            <value>1: 7
-35.14795: -35.15115
144.1428: 144.14649</value>
          </Data>
          <Data name="1">
            <value>7.0</value>
          </Data>
          <Data name="-35.14795">
            <value>-35.15115</value>
          </Data>
          <Data name="144.1428">
            <value>144.14649</value>
          </Data>
        </ExtendedData>
        <Point>
          <coordinates>
            144.14649,-35.15115,0
          </coordinates>
        </Point>
      </Placemark>
      <Placemark>
        <name>Bliss</name>
        <description><![CDATA[description: 1: 8<br>-35.14795: -35.15117<br>144.1428: 144.14785<br>1: 8.0<br>-35.14795: -35.15117<br>144.1428: 144.14785]]></description>
        <styleUrl>#icon-1899-0288D1</styleUrl>
        <ExtendedData>
          <Data name="description">
            <value>1: 8
-35.14795: -35.15117
144.1428: 144.14785</value>
          </Data>
          <Data name="1">
            <value>8.0</value>
          </Data>
          <Data name="-35.14795">
            <value>-35.15117</value>
          </Data>
          <Data name="144.1428">
            <value>144.14785</value>
          </Data>
        </ExtendedData>
        <Point>
          <coordinates>
            144.14785,-35.15117,0
          </coordinates>
        </Point>
      </Placemark>
      <Placemark>
        <name>Tranquillity River</name>
        <description><![CDATA[description: 1: 9<br>-35.14795: -35.15244<br>144.1428: 144.14858<br>1: 9.0<br>-35.14795: -35.15244<br>144.1428: 144.14858]]></description>
        <styleUrl>#icon-1899-0288D1</styleUrl>
        <ExtendedData>
          <Data name="description">
            <value>1: 9
-35.14795: -35.15244
144.1428: 144.14858</value>
          </Data>
          <Data name="1">
            <value>9.0</value>
          </Data>
          <Data name="-35.14795">
            <value>-35.15244</value>
          </Data>
          <Data name="144.1428">
            <value>144.14858</value>
          </Data>
        </ExtendedData>
        <Point>
          <coordinates>
            144.14858,-35.15244,0
          </coordinates>
        </Point>
      </Placemark>
      <Placemark>
        <name>Rainbow 1</name>
        <description><![CDATA[description: 1: 10<br>-35.14795: -35.150011<br>144.1428: 144.14938<br>1: 10.0<br>-35.14795: -35.150011<br>144.1428: 144.14938]]></description>
        <styleUrl>#icon-1899-0288D1</styleUrl>
        <ExtendedData>
          <Data name="description">
            <value>1: 10
-35.14795: -35.150011
144.1428: 144.14938</value>
          </Data>
          <Data name="1">
            <value>10.0</value>
          </Data>
          <Data name="-35.14795">
            <value>-35.150011</value>
          </Data>
          <Data name="144.1428">
            <value>144.14938</value>
          </Data>
        </ExtendedData>
        <Point>
          <coordinates>
            144.14938,-35.150011,0
          </coordinates>
        </Point>
      </Placemark>
      <Placemark>
        <name>Rainbow 2</name>
        <description><![CDATA[description: 1: 11<br>-35.14795: -35.151123<br>144.1428: 144.14938<br>1: 11.0<br>-35.14795: -35.151123<br>144.1428: 144.14938]]></description>
        <styleUrl>#icon-1899-0288D1</styleUrl>
        <ExtendedData>
          <Data name="description">
            <value>1: 11
-35.14795: -35.151123
144.1428: 144.14938</value>
          </Data>
          <Data name="1">
            <value>11.0</value>
          </Data>
          <Data name="-35.14795">
            <value>-35.151123</value>
          </Data>
          <Data name="144.1428">
            <value>144.14938</value>
          </Data>
        </ExtendedData>
        <Point>
          <coordinates>
            144.14938,-35.151123,0
          </coordinates>
        </Point>
      </Placemark>
      <Placemark>
        <name>Bike Station</name>
        <description><![CDATA[description: 1: 12<br>-35.14795: -35.14686<br>144.1428: 144.14451<br>1: 12.0<br>-35.14795: -35.14686<br>144.1428: 144.14451]]></description>
        <styleUrl>#icon-1899-0288D1</styleUrl>
        <ExtendedData>
          <Data name="description">
            <value>1: 12
-35.14795: -35.14686
144.1428: 144.14451</value>
          </Data>
          <Data name="1">
            <value>12.0</value>
          </Data>
          <Data name="-35.14795">
            <value>-35.14686</value>
          </Data>
          <Data name="144.1428">
            <value>144.14451</value>
          </Data>
        </ExtendedData>
        <Point>
          <coordinates>
            144.14451,-35.14686,0
          </coordinates>
        </Point>
      </Placemark>
      <Placemark>
        <name>Gypsy</name>
        <description><![CDATA[description: 1: 13<br>-35.14795: -35.14835<br>144.1428: 144.14963<br>1: 13.0<br>-35.14795: -35.14835<br>144.1428: 144.14963]]></description>
        <styleUrl>#icon-1899-0288D1</styleUrl>
        <ExtendedData>
          <Data name="description">
            <value>1: 13
-35.14795: -35.14835
144.1428: 144.14963</value>
          </Data>
          <Data name="1">
            <value>13.0</value>
          </Data>
          <Data name="-35.14795">
            <value>-35.14835</value>
          </Data>
          <Data name="144.1428">
            <value>144.14963</value>
          </Data>
        </ExtendedData>
        <Point>
          <coordinates>
            144.14963,-35.14835,0
          </coordinates>
        </Point>
      </Placemark>
      <Placemark>
        <name>Access Road – Out</name>
        <description><![CDATA[description: 1: 14<br>-35.14795: -35.14415<br>144.1428: 144.14839<br>1: 14.0<br>-35.14795: -35.14415<br>144.1428: 144.14839]]></description>
        <styleUrl>#icon-1899-0288D1</styleUrl>
        <ExtendedData>
          <Data name="description">
            <value>1: 14
-35.14795: -35.14415
144.1428: 144.14839</value>
          </Data>
          <Data name="1">
            <value>14.0</value>
          </Data>
          <Data name="-35.14795">
            <value>-35.14415</value>
          </Data>
          <Data name="144.1428">
            <value>144.14839</value>
          </Data>
        </ExtendedData>
        <Point>
          <coordinates>
            144.14839,-35.14415,0
          </coordinates>
        </Point>
      </Placemark>
      <Placemark>
        <name>Access Road – In</name>
        <description><![CDATA[description: 1: 15<br>-35.14795: -35.14496<br>144.1428: 144.15067<br>1: 15.0<br>-35.14795: -35.14496<br>144.1428: 144.15067]]></description>
        <styleUrl>#icon-1899-0288D1</styleUrl>
        <ExtendedData>
          <Data name="description">
            <value>1: 15
-35.14795: -35.14496
144.1428: 144.15067</value>
          </Data>
          <Data name="1">
            <value>15.0</value>
          </Data>
          <Data name="-35.14795">
            <value>-35.14496</value>
          </Data>
          <Data name="144.1428">
            <value>144.15067</value>
          </Data>
        </ExtendedData>
        <Point>
          <coordinates>
            144.15067,-35.14496,0
          </coordinates>
        </Point>
      </Placemark>
      <Placemark>
        <name>Unicorn</name>
        <description><![CDATA[description: 1: 16<br>-35.14795: -35.14963<br>144.1428: 144.1463<br>1: 16.0<br>-35.14795: -35.14963<br>144.1428: 144.1463]]></description>
        <styleUrl>#icon-1899-0288D1</styleUrl>
        <ExtendedData>
          <Data name="description">
            <value>1: 16
-35.14795: -35.14963
144.1428: 144.1463</value>
          </Data>
          <Data name="1">
            <value>16.0</value>
          </Data>
          <Data name="-35.14795">
            <value>-35.14963</value>
          </Data>
          <Data name="144.1428">
            <value>144.1463</value>
          </Data>
        </ExtendedData>
        <Point>
          <coordinates>
            144.1463,-35.14963,0
          </coordinates>
        </Point>
      </Placemark>
      <Placemark>
        <name>Sydney Village</name>
        <description><![CDATA[description: 1: 17<br>-35.14795: -35.14789<br>144.1428: 144.14228<br>1: 17.0<br>-35.14795: -35.14789<br>144.1428: 144.14228]]></description>
        <styleUrl>#icon-1899-0288D1</styleUrl>
        <ExtendedData>
          <Data name="description">
            <value>1: 17
-35.14795: -35.14789
144.1428: 144.14228</value>
          </Data>
          <Data name="1">
            <value>17.0</value>
          </Data>
          <Data name="-35.14795">
            <value>-35.14789</value>
          </Data>
          <Data name="144.1428">
            <value>144.14228</value>
          </Data>
        </ExtendedData>
        <Point>
          <coordinates>
            144.14228,-35.14789,0
          </coordinates>
        </Point>
      </Placemark>
      <Placemark>
        <name>Access Camping 1</name>
        <description><![CDATA[description: 1: 19<br>-35.14795: -35.1463<br>144.1428: 144.1493<br>1: 19.0<br>-35.14795: -35.1463<br>144.1428: 144.1493]]></description>
        <styleUrl>#icon-1899-0288D1</styleUrl>
        <ExtendedData>
          <Data name="description">
            <value>1: 19
-35.14795: -35.1463
144.1428: 144.1493</value>
          </Data>
          <Data name="1">
            <value>19.0</value>
          </Data>
          <Data name="-35.14795">
            <value>-35.1463</value>
          </Data>
          <Data name="144.1428">
            <value>144.1493</value>
          </Data>
        </ExtendedData>
        <Point>
          <coordinates>
            144.1493,-35.1463,0
          </coordinates>
        </Point>
      </Placemark>
      <Placemark>
        <name>Stay Put 1</name>
        <description><![CDATA[description: 1: 20<br>-35.14795: -35.1474<br>144.1428: 144.14899<br>1: 20.0<br>-35.14795: -35.1474<br>144.1428: 144.14899]]></description>
        <styleUrl>#icon-1899-0288D1</styleUrl>
        <ExtendedData>
          <Data name="description">
            <value>1: 20
-35.14795: -35.1474
144.1428: 144.14899</value>
          </Data>
          <Data name="1">
            <value>20.0</value>
          </Data>
          <Data name="-35.14795">
            <value>-35.1474</value>
          </Data>
          <Data name="144.1428">
            <value>144.14899</value>
          </Data>
        </ExtendedData>
        <Point>
          <coordinates>
            144.14899,-35.1474,0
          </coordinates>
        </Point>
      </Placemark>
      <Placemark>
        <name>Stay Put 2</name>
        <description><![CDATA[description: 1: 21<br>-35.14795: -35.14528<br>144.1428: 144.14548<br>1: 21.0<br>-35.14795: -35.14528<br>144.1428: 144.14548]]></description>
        <styleUrl>#icon-1899-0288D1</styleUrl>
        <ExtendedData>
          <Data name="description">
            <value>1: 21
-35.14795: -35.14528
144.1428: 144.14548</value>
          </Data>
          <Data name="1">
            <value>21.0</value>
          </Data>
          <Data name="-35.14795">
            <value>-35.14528</value>
          </Data>
          <Data name="144.1428">
            <value>144.14548</value>
          </Data>
        </ExtendedData>
        <Point>
          <coordinates>
            144.14548,-35.14528,0
          </coordinates>
        </Point>
      </Placemark>
      <Placemark>
        <name>Veg Out Crew Kitchen</name>
        <description><![CDATA[description: 1: 22<br>-35.14795: -35.14751<br>144.1428: 144.14218<br>1: 22.0<br>-35.14795: -35.14751<br>144.1428: 144.14218]]></description>
        <styleUrl>#icon-1899-0288D1</styleUrl>
        <ExtendedData>
          <Data name="description">
            <value>1: 22
-35.14795: -35.14751
144.1428: 144.14218</value>
          </Data>
          <Data name="1">
            <value>22.0</value>
          </Data>
          <Data name="-35.14795">
            <value>-35.14751</value>
          </Data>
          <Data name="144.1428">
            <value>144.14218</value>
          </Data>
        </ExtendedData>
        <Point>
          <coordinates>
            144.14218,-35.14751,0
          </coordinates>
        </Point>
      </Placemark>
      <Placemark>
        <name>Forest Fire Camp</name>
        <description><![CDATA[description: 1: 23<br>-35.14795: -35.14888<br>144.1428: 144.14408<br>1: 23.0<br>-35.14795: -35.14888<br>144.1428: 144.14408]]></description>
        <styleUrl>#icon-1899-0288D1</styleUrl>
        <ExtendedData>
          <Data name="description">
            <value>1: 23
-35.14795: -35.14888
144.1428: 144.14408</value>
          </Data>
          <Data name="1">
            <value>23.0</value>
          </Data>
          <Data name="-35.14795">
            <value>-35.14888</value>
          </Data>
          <Data name="144.1428">
            <value>144.14408</value>
          </Data>
        </ExtendedData>
        <Point>
          <coordinates>
            144.14408,-35.14888,0
          </coordinates>
        </Point>
      </Placemark>
    </Folder>
  </Document>
</kml>
