<?xml version="1.0" encoding="UTF-8"?>
<kml xmlns="http://www.opengis.net/kml/2.2">
  <Document id="root_doc">
    <Style id="PolyStyle00">
      <LabelStyle>
        <color>00000000</color>
        <scale>0</scale>
      </LabelStyle>
      <LineStyle>
        <color>99000000</color>
        <width>0.4</width>
      </LineStyle>
      <PolyStyle>
        <color>9900aaff</color>
      </PolyStyle>
    </Style>
    <Document id="RMW_027_CEA_WGS84">
      <name>RMW_027_CEA_WGS84</name>
      <Placemark id="ID_00000">
        <name>RZ01</name>
        <description><![CDATA[<html xmlns:fo="http://www.w3.org/1999/XSL/Format" xmlns:msxsl="urn:schemas-microsoft-com:xslt">

<head>

<META http-equiv="Content-Type" content="text/html">

<meta http-equiv="content-type" content="text/html; charset=UTF-8">

</head>

<body style="margin:0px 0px 0px 0px;overflow:auto;background:#FFFFFF;">

<table style="font-family:Arial,Verdana,Times;font-size:12px;text-align:left;width:100%;border-collapse:collapse;padding:3px 3px 3px 3px">

<tr style="text-align:center;font-weight:bold;background:#9CBCE2">

<td>Down to Earth Cooperative</td>

</tr>

<tr>

<td>

<table style="font-family:Arial,Verdana,Times;font-size:12px;text-align:left;width:100%;border-spacing:0px; padding:3px 3px 3px 3px">

<tr>

<td>Landholder surname</td>

<td>Down to Earth Cooperative</td>

</tr>

<tr bgcolor="#D4E4F3">

<td>Area (ha)</td>

<td>6.067289</td>

</tr>

<tr>

<td>action1</td>

<td>carbon_planting</td>

</tr>

<tr bgcolor="#D4E4F3">

<td>Property Name</td>

<td>Woorooma Confest</td>

</tr>

<tr>

<td>RZ_ID</td>

<td>RZ01</td>

</tr>

</table>

</td>

</tr>

</table>

</body><script type="text/javascript">

				function changeImage(attElement, nameElement) {

				document.getElementById('imageAttachment').src = attElement;

				document.getElementById('imageName').innerHTML = nameElement;}

			</script></html>

]]></description>
        <styleUrl>#PolyStyle00</styleUrl>
        <Polygon>
          <extrude>0</extrude>
          <altitudeMode>clampToGround</altitudeMode>
          <outerBoundaryIs>
            <LinearRing>
              <coordinates>
                144.139968394,-35.1237648521117,0
                144.136130988,-35.1220012581117,0
                144.136130908,-35.1220012191118,0
                144.1360077,-35.1228537301117,0
                144.136015208,-35.1228563151117,0
                144.136007299,-35.1228564961117,0
                144.135995176,-35.1229399871118,0
                144.141102102,-35.1253356161117,0
                144.141266875,-35.1249720381117,0
                144.141760608,-35.1238628971117,0
                144.141762892,-35.1238625071117,0
                144.141798224,-35.1237787991117,0
                144.139968394,-35.1237648521117,0
              </coordinates>
            </LinearRing>
          </outerBoundaryIs>
        </Polygon>
      </Placemark>
      <Placemark id="ID_00001">
        <name>RZ01</name>
        <description><![CDATA[<html xmlns:fo="http://www.w3.org/1999/XSL/Format" xmlns:msxsl="urn:schemas-microsoft-com:xslt">

<head>

<META http-equiv="Content-Type" content="text/html">

<meta http-equiv="content-type" content="text/html; charset=UTF-8">

</head>

<body style="margin:0px 0px 0px 0px;overflow:auto;background:#FFFFFF;">

<table style="font-family:Arial,Verdana,Times;font-size:12px;text-align:left;width:100%;border-collapse:collapse;padding:3px 3px 3px 3px">

<tr style="text-align:center;font-weight:bold;background:#9CBCE2">

<td>Down to Earth Cooperative</td>

</tr>

<tr>

<td>

<table style="font-family:Arial,Verdana,Times;font-size:12px;text-align:left;width:100%;border-spacing:0px; padding:3px 3px 3px 3px">

<tr>

<td>Landholder surname</td>

<td>Down to Earth Cooperative</td>

</tr>

<tr bgcolor="#D4E4F3">

<td>Area (ha)</td>

<td>4.269984</td>

</tr>

<tr>

<td>action1</td>

<td>carbon_planting</td>

</tr>

<tr bgcolor="#D4E4F3">

<td>Property Name</td>

<td>Woorooma Confest</td>

</tr>

<tr>

<td>RZ_ID</td>

<td>RZ01</td>

</tr>

</table>

</td>

</tr>

</table>

</body><script type="text/javascript">

				function changeImage(attElement, nameElement) {

				document.getElementById('imageAttachment').src = attElement;

				document.getElementById('imageName').innerHTML = nameElement;}

			</script></html>

]]></description>
        <styleUrl>#PolyStyle00</styleUrl>
        <Polygon>
          <extrude>0</extrude>
          <altitudeMode>clampToGround</altitudeMode>
          <outerBoundaryIs>
            <LinearRing>
              <coordinates>
                144.153341303,-35.1396224191116,0
                144.151268044,-35.1405412731115,0
                144.151153481,-35.1405920461116,0
                144.15115844,-35.1406893661115,0
                144.151147711,-35.1407463931115,0
                144.151088703,-35.1408121941115,0
                144.151029693,-35.1408516741115,0
                144.150772202,-35.1408253541115,0
                144.150718393,-35.1407848721115,0
                144.15038971,-35.1409305411116,0
                144.150716362,-35.1420799401115,0
                144.150799024,-35.1420799401115,0
                144.150906312,-35.1420887131115,0
                144.150949228,-35.1420931001115,0
                144.151035058,-35.1421457391115,0
                144.151067245,-35.1421896051115,0
                144.15108607,-35.1422119961115,0
                144.15189873,-35.1422966181115,0
                144.15189873,-35.1422861111115,0
                144.15189873,-35.1422378581115,0
                144.151855814,-35.1421457391115,0
                144.151823628,-35.1420623931115,0
                144.151748526,-35.1419878201115,0
                144.151592958,-35.1418299011115,0
                144.151560771,-35.1415754761115,0
                144.15161978,-35.1414131691115,0
                144.151646601,-35.1413561431115,0
                144.151587593,-35.1413122751115,0
                144.151474941,-35.1413078891115,0
                144.151415932,-35.1412464761115,0
                144.151362287,-35.1411719021115,0
                144.151437389,-35.1410622351115,0
                144.151587593,-35.1410227551116,0
                144.151678788,-35.1410534611115,0
                144.151694881,-35.1411148751115,0
                144.151743161,-35.1411982221115,0
                144.151759255,-35.1412026091115,0
                144.151871907,-35.1412069961115,0
                144.151904094,-35.1411631281115,0
                144.151973832,-35.1411192621115,0
                144.152054297,-35.1410797821115,0
                144.152156221,-35.1410359151115,0
                144.15226351,-35.1410666211116,0
                144.152343976,-35.1411455821115,0
                144.152349341,-35.1412157691115,0
                144.152338612,-35.1412815691115,0
                144.152290332,-35.1413254351115,0
                144.152193773,-35.1414175561115,0
                144.152054297,-35.1414219421115,0
                144.151995986,-35.1414298901115,0
                144.152016747,-35.1415359961115,0
                144.152006017,-35.1415886361116,0
                144.151993711,-35.1416048921115,0
                144.152065027,-35.1416632091115,0
                144.152101597,-35.1417368201115,0
                144.152209866,-35.1417290081115,0
                144.152301061,-35.1417290081115,0
                144.152354705,-35.1417333951115,0
                144.152419078,-35.1417377821115,0
                144.152424443,-35.1418562211115,0
                144.152349341,-35.1419439541115,0
                144.15231179,-35.1420141401115,0
                144.152258146,-35.1420492331115,0
                144.15221146,-35.1420583231115,0
                144.152225959,-35.1420711661116,0
                144.152209866,-35.1421281931115,0
                144.152166951,-35.1422729511115,0
                144.152139445,-35.1423216841115,0
                144.152843133,-35.1423949581115,0
                144.153341303,-35.1396224191116,0
              </coordinates>
            </LinearRing>
          </outerBoundaryIs>
        </Polygon>
      </Placemark>
      <Placemark id="ID_00002">
        <name>RZ01</name>
        <description><![CDATA[<html xmlns:fo="http://www.w3.org/1999/XSL/Format" xmlns:msxsl="urn:schemas-microsoft-com:xslt">

<head>

<META http-equiv="Content-Type" content="text/html">

<meta http-equiv="content-type" content="text/html; charset=UTF-8">

</head>

<body style="margin:0px 0px 0px 0px;overflow:auto;background:#FFFFFF;">

<table style="font-family:Arial,Verdana,Times;font-size:12px;text-align:left;width:100%;border-collapse:collapse;padding:3px 3px 3px 3px">

<tr style="text-align:center;font-weight:bold;background:#9CBCE2">

<td>Down to Earth Cooperative</td>

</tr>

<tr>

<td>

<table style="font-family:Arial,Verdana,Times;font-size:12px;text-align:left;width:100%;border-spacing:0px; padding:3px 3px 3px 3px">

<tr>

<td>Landholder surname</td>

<td>Down to Earth Cooperative</td>

</tr>

<tr bgcolor="#D4E4F3">

<td>Area (ha)</td>

<td>5.23776</td>

</tr>

<tr>

<td>action1</td>

<td>carbon_planting</td>

</tr>

<tr bgcolor="#D4E4F3">

<td>Property Name</td>

<td>Woorooma Confest</td>

</tr>

<tr>

<td>RZ_ID</td>

<td>RZ01</td>

</tr>

</table>

</td>

</tr>

</table>

</body><script type="text/javascript">

				function changeImage(attElement, nameElement) {

				document.getElementById('imageAttachment').src = attElement;

				document.getElementById('imageName').innerHTML = nameElement;}

			</script></html>

]]></description>
        <styleUrl>#PolyStyle00</styleUrl>
        <Polygon>
          <extrude>0</extrude>
          <altitudeMode>clampToGround</altitudeMode>
          <outerBoundaryIs>
            <LinearRing>
              <coordinates>
                144.138441878,-35.1288248091117,0
                144.13834525,-35.1285561121117,0
                144.138345251,-35.1284401491117,0
                144.137911155,-35.1283778631117,0
                144.137851725,-35.1287667051117,0
                144.137744436,-35.1293633821116,0
                144.137523514,-35.1295653211117,0
                144.137645472,-35.1295858571117,0
                144.137661564,-35.1296779901116,0
                144.137634741,-35.1297262511116,0
                144.137505997,-35.1297788981117,0
                144.137404073,-35.1297832861117,0
                144.137312878,-35.1297043141117,0
                144.137312878,-35.1296968171117,0
                144.13715034,-35.1296968171117,0
                144.137103665,-35.1297438001117,0
                144.137044657,-35.1297613491117,0
                144.13696419,-35.1297657361117,0
                144.136932004,-35.1297701241116,0
                144.136851537,-35.1297701241116,0
                144.136808622,-35.1297525741116,0
                144.136744249,-35.1297087021116,0
                144.136663783,-35.1297788981117,0
                144.136610139,-35.1298403201116,0
                144.136567223,-35.1298929681117,0
                144.136492121,-35.1299149041117,0
                144.136374104,-35.1300026501117,0
                144.136363375,-35.1300158121116,0
                144.136299002,-35.1300903961116,0
                144.136218536,-35.1301474301116,0
                144.136159528,-35.1301693661116,0
                144.136052239,-35.1301518181116,0
                144.135971773,-35.1301079441117,0
                144.135939586,-35.1300684601117,0
                144.135907399,-35.1300114241117,0
                144.135896671,-35.1299412281116,0
                144.135903468,-35.1299231611117,0
                144.135298262,-35.1301706451116,0
                144.134590158,-35.1302759391116,0
                144.134482871,-35.1308375071116,0
                144.134933119,-35.1315358741116,0
                144.134947169,-35.1315294101117,0
                144.135011542,-35.1315250221116,0
                144.135081279,-35.1315118611116,0
                144.13516711,-35.1315118611116,0
                144.135242212,-35.1315337971116,0
                144.135306585,-35.1315732821116,0
                144.135306585,-35.1316347021116,0
                144.135301221,-35.1317092851116,0
                144.135242212,-35.1317794791116,0
                144.13511883,-35.1318233521116,0
                144.135100213,-35.1318241971116,0
                144.13504077,-35.1320834731116,0
                144.135169516,-35.1323291541116,0
                144.135555754,-35.1324870911116,0
                144.13572628,-35.1324251081116,0
                144.135742839,-35.1323867391116,0
                144.135764296,-35.1323428681116,0
                144.135710652,-35.1321937041116,0
                144.13572092,-35.1321819481116,0
                144.135684776,-35.1321523901117,0
                144.135641861,-35.1320207751116,0
                144.135641861,-35.1319242571116,0
                144.135695505,-35.1318014161116,0
                144.135899353,-35.1317048971116,0
                144.135995912,-35.1316961231117,0
                144.136103201,-35.1316785751116,0
                144.136167574,-35.1316610261116,0
                144.136210489,-35.1315996051116,0
                144.136253405,-35.1314679891117,0
                144.136242676,-35.1313100501116,0
                144.13648944,-35.1311257871117,0
                144.136628914,-35.1311257871117,0
                144.136736201,-35.1311608841116,0
                144.136864948,-35.1313802451116,0
                144.136887312,-35.1314131661116,0
                144.137036333,-35.1312235831116,0
                144.137228747,-35.1311592071116,0
                144.137491638,-35.1308863191116,0
                144.137706215,-35.1306932801116,0
                144.138103181,-35.1304475941117,0
                144.138328487,-35.1301843581116,0
                144.138457234,-35.1301229361116,0
                144.138532335,-35.1299386711117,0
                144.138532335,-35.1295789131117,0
                144.138510877,-35.1292454771117,0
                144.138441878,-35.1288248091117,0
              </coordinates>
            </LinearRing>
          </outerBoundaryIs>
          <innerBoundaryIs>
            <LinearRing>
              <coordinates>
                144.13804512,-35.1297832861117,0
                144.138109493,-35.1299149041117,0
                144.138163137,-35.1300289741117,0
                144.138120222,-35.1301693661116,0
                144.137980746,-35.1302922101117,0
                144.137937831,-35.1303536311117,0
                144.137862729,-35.1304413771116,0
                144.13766961,-35.1305993181116,0
                144.137444305,-35.1306168671116,0
                144.137369203,-35.1305642201116,0
                144.137433576,-35.1304501521116,0
                144.137465763,-35.1304238281116,0
                144.137465763,-35.1303799551116,0
                144.137444305,-35.1303185331117,0
                144.137379931,-35.1303097591116,0
                144.137186814,-35.1302658871116,0
                144.13713317,-35.1302132391116,0
                144.13713317,-35.1301518181116,0
                144.137186813,-35.1300552981116,0
                144.137294102,-35.1300114241117,0
                144.137379932,-35.1300026501117,0
                144.13748722,-35.1300114241117,0
                144.137508678,-35.1300552981116,0
                144.137562322,-35.1301079441117,0
                144.137594508,-35.1301254941117,0
                144.137680339,-35.1301254941117,0
                144.137712526,-35.1300903961116,0
                144.137712526,-35.1300377481116,0
                144.137712526,-35.1299763261116,0
                144.137723254,-35.1299149041117,0
                144.13776617,-35.1298534821117,0
                144.137830543,-35.1298359331117,0
                144.137862729,-35.1298096101117,0
                144.137980746,-35.1298096101117,0
                144.13804512,-35.1297832861117,0
              </coordinates>
            </LinearRing>
          </innerBoundaryIs>
          <innerBoundaryIs>
            <LinearRing>
              <coordinates>
                144.137076843,-35.1304501521116,0
                144.137135852,-35.1304984121116,0
                144.1370983,-35.1306431911117,0
                144.137001741,-35.1306695141117,0
                144.136926639,-35.1307397101116,0
                144.136846173,-35.1307748081116,0
                144.136701333,-35.1307967441116,0
                144.136309732,-35.1307748081116,0
                144.13627218,-35.1306870631117,0
                144.136266815,-35.1304677001116,0
                144.136347282,-35.1303887301117,0
                144.136583316,-35.1303843431116,0
                144.136712063,-35.1303887301117,0
                144.13686763,-35.1303799551116,0
                144.137076843,-35.1304501521116,0
              </coordinates>
            </LinearRing>
          </innerBoundaryIs>
          <innerBoundaryIs>
            <LinearRing>
              <coordinates>
                144.135623085,-35.1307484841116,0
                144.135660637,-35.1307791951116,0
                144.135644543,-35.1308406171117,0
                144.135515797,-35.1309371361116,0
                144.135440695,-35.1310029441117,0
                144.135435331,-35.1310775271116,0
                144.135301221,-35.1311828201117,0
                144.135210026,-35.1312091441116,0
                144.135113466,-35.1312179181116,0
                144.135033,-35.1311915951116,0
                144.134920347,-35.1310599781116,0
                144.134925711,-35.1309897831116,0
                144.134963262,-35.1308450041116,0
                144.135043728,-35.1308099061116,0
                144.135140288,-35.1307923571116,0
                144.135311949,-35.1307835821117,0
                144.13539778,-35.1307791951116,0
                144.135483611,-35.1307791951116,0
                144.135553348,-35.1307440981116,0
                144.135623085,-35.1307484841116,0
              </coordinates>
            </LinearRing>
          </innerBoundaryIs>
          <innerBoundaryIs>
            <LinearRing>
              <coordinates>
                144.136577952,-35.1310073311117,0
                144.136620868,-35.1309283611116,0
                144.136674511,-35.1308932641116,0
                144.136712063,-35.1308581651116,0
                144.136824715,-35.1308888761116,0
                144.13683008,-35.1309459101116,0
                144.136830079,-35.1310204931117,0
                144.1367818,-35.1310512041116,0
                144.136615503,-35.1310819141117,0
                144.136577952,-35.1310073311117,0
              </coordinates>
            </LinearRing>
          </innerBoundaryIs>
        </Polygon>
      </Placemark>
    </Document>
  </Document>
</kml>
