<?xml version="1.0" encoding="UTF-8"?>
<kml xmlns="http://www.opengis.net/kml/2.2">
  <Document id="root_doc">
    <Style id="PolyStyle00">
      <LabelStyle>
        <color>00000000</color>
        <scale>0</scale>
      </LabelStyle>
      <LineStyle>
        <color>7f6e6e6e</color>
        <width>0.4</width>
      </LineStyle>
      <PolyStyle>
        <color>7f00ffff</color>
      </PolyStyle>
    </Style>
    <Document id="Conservation_Area">
      <name>Conservation Area</name>
      <Placemark id="ID_00000">
        <name>CA0773</name>
        <description><![CDATA[<html xmlns:fo="http://www.w3.org/1999/XSL/Format" xmlns:msxsl="urn:schemas-microsoft-com:xslt">

<head>

<META http-equiv="Content-Type" content="text/html">

<meta http-equiv="content-type" content="text/html; charset=UTF-8">

</head>

<body style="margin:0px 0px 0px 0px;overflow:auto;background:#FFFFFF;">

<table style="font-family:Arial,Verdana,Times;font-size:12px;text-align:left;width:100%;border-collapse:collapse;padding:3px 3px 3px 3px">

<tr style="text-align:center;font-weight:bold;background:#9CBCE2">

<td>CA0773</td>

</tr>

<tr>

<td>

<table style="font-family:Arial,Verdana,Times;font-size:12px;text-align:left;width:100%;border-spacing:0px; padding:3px 3px 3px 3px">

<tr>

<td>Case ID</td>

<td>2304-0723</td>

</tr>

<tr bgcolor="#D4E4F3">

<td>Agreement ID</td>

<td>CA0773</td>

</tr>

<tr>

<td>EOI Prefix</td>

<td>RMW</td>

</tr>

<tr bgcolor="#D4E4F3">

<td>EOI Number</td>

<td>027</td>

</tr>

<tr>

<td>EOI ID</td>

<td>RMW_027</td>

</tr>

<tr bgcolor="#D4E4F3">

<td>Landholder surname</td>

<td>Down to Earth (Victoria) Cooperative Society Ltd.</td>

</tr>

<tr>

<td>Property Name</td>

<td>Woorooma Confest</td>

</tr>

<tr bgcolor="#D4E4F3">

<td>Property ID</td>

<td>4339047</td>

</tr>

<tr>

<td>Management Region</td>

<td>&lt;Null&gt;</td>

</tr>

<tr bgcolor="#D4E4F3">

<td>Area (ha)</td>

<td>210.88438</td>

</tr>

<tr>

<td>View Filter</td>

<td>MONITOR</td>

</tr>

<tr bgcolor="#D4E4F3">

<td>CRM ID</td>

<td>&lt;Null&gt;</td>

</tr>

<tr>

<td>orig_created_user</td>

<td>&lt;Null&gt;</td>

</tr>

<tr bgcolor="#D4E4F3">

<td>orig_created_date</td>

<td>&lt;Null&gt;</td>

</tr>

<tr>

<td>created_user</td>

<td>nigel.jones_OEH</td>

</tr>

<tr bgcolor="#D4E4F3">

<td>created_date</td>

<td>22/06/2023 7:10:08 PM</td>

</tr>

<tr>

<td>last_edited_user</td>

<td>BCT_USER</td>

</tr>

<tr bgcolor="#D4E4F3">

<td>last_edited_date</td>

<td>3/10/2024 7:11:49 AM</td>

</tr>

<tr>

<td>GlobalID</td>

<td>{EA39DD4F-0423-49DC-BFC0-735944E79FA2}</td>

</tr>

<tr bgcolor="#D4E4F3">

<td>Shape.STArea()</td>

<td>0.000209</td>

</tr>

<tr>

<td>Shape.STLength()</td>

<td>0.15873</td>

</tr>

</table>

</td>

</tr>

</table>

</body>

</html>

]]></description>
        <styleUrl>#PolyStyle00</styleUrl>
        <MultiGeometry>
          <Polygon>
            <extrude>0</extrude>
            <altitudeMode>clampToGround</altitudeMode>
            <outerBoundaryIs>
              <LinearRing>
                <coordinates>
                  144.1472973,-35.1370442791115,0
                  144.148673586,-35.1366644231115,0
                  144.154185311,-35.1349073221116,0
                  144.154391781,-35.1337588141116,0
                  144.148732182,-35.1267713471117,0
                  144.147274961,-35.1259254051117,0
                  144.145288291,-35.1247720931116,0
                  144.143178422,-35.1238026031117,0
                  144.139962046,-35.1237780871117,0
                  144.135773184,-35.1218529701117,0
                  144.13576678,-35.1218952221118,0
                  144.135300344,-35.1249726501117,0
                  144.134836229,-35.1277003911117,0
                  144.135036389,-35.1281933311117,0
                  144.134345543,-35.1308691161116,0
                  144.133753008,-35.1342755931116,0
                  144.134559009,-35.1336949081116,0
                  144.135518486,-35.1331282861116,0
                  144.136183327,-35.1325767771116,0
                  144.136825497,-35.1320177121116,0
                  144.137535668,-35.1313453231116,0
                  144.138087177,-35.1307635881116,0
                  144.138782235,-35.1303254021117,0
                  144.139696383,-35.1300231991116,0
                  144.140541605,-35.1298426561117,0
                  144.141586312,-35.1294576531117,0
                  144.141849584,-35.1293606271116,0
                  144.142545566,-35.1292006201116,0
                  144.142963564,-35.1291996061117,0
                  144.143297553,-35.1292446061117,0
                  144.143632555,-35.1293586001116,0
                  144.143966553,-35.1295416001117,0
                  144.144116933,-35.1296643621116,0
                  144.144358557,-35.1298615971116,0
                  144.144423405,-35.1299684261116,0
                  144.144497562,-35.1300905901115,0
                  144.144801807,-35.1307070171116,0
                  144.145031545,-35.1314036521116,0
                  144.145001902,-35.1318705501116,0
                  144.144801807,-35.1324263791116,0
                  144.14443916,-35.1326349011116,0
                  144.144454341,-35.1327591681115,0
                  144.144514143,-35.1328345571115,0
                  144.144516903,-35.1328394911116,0
                  144.145840496,-35.1324020511116,0
                  144.146225941,-35.1322708231116,0
                  144.1469687,-35.1334997031116,0
                  144.147260391,-35.1367489061116,0
                  144.1472973,-35.1370442791115,0
                </coordinates>
              </LinearRing>
            </outerBoundaryIs>
          </Polygon>
          <Polygon>
            <extrude>0</extrude>
            <altitudeMode>clampToGround</altitudeMode>
            <outerBoundaryIs>
              <LinearRing>
                <coordinates>
                  144.143823551,-35.1324115531116,0
                  144.144201508,-35.1322485161116,0
                  144.144579474,-35.1319891251116,0
                  144.144668406,-35.1315666981116,0
                  144.144557244,-35.1308552361116,0
                  144.144179278,-35.1302401181116,0
                  144.143712379,-35.1298992091117,0
                  144.142682248,-35.1295286561117,0
                  144.142178293,-35.1295583091116,0
                  144.141544593,-35.1298646351117,0
                  144.141043606,-35.1301396501117,0
                  144.139689157,-35.1305567981116,0
                  144.139624634,-35.1305766711116,0
                  144.138978663,-35.1307484751116,0
                  144.138495146,-35.1309977901116,0
                  144.138238274,-35.1312244441116,0
                  144.138028194,-35.1314601401115,0
                  144.137734066,-35.1318452681116,0
                  144.138596433,-35.1319849911116,0
                  144.138735668,-35.1319036991116,0
                  144.13909766,-35.1317436921116,0
                  144.139598648,-35.1316056821115,0
                  144.140295893,-35.1315666981116,0
                  144.141270367,-35.1316949191116,0
                  144.141548618,-35.1316946501116,0
                  144.142133616,-35.1317396311116,0
                  144.142836232,-35.1319373401116,0
                  144.143025605,-35.1319906411116,0
                  144.143445585,-35.1322929771116,0
                  144.143823551,-35.1324115531116,0
                </coordinates>
              </LinearRing>
            </outerBoundaryIs>
          </Polygon>
          <Polygon>
            <extrude>0</extrude>
            <altitudeMode>clampToGround</altitudeMode>
            <outerBoundaryIs>
              <LinearRing>
                <coordinates>
                  144.143882731,-35.1408656881115,0
                  144.144021727,-35.1408656801116,0
                  144.144132719,-35.1407736821115,0
                  144.144188716,-35.1406136751115,0
                  144.144023609,-35.1404790361116,0
                  144.144020722,-35.1404766781115,0
                  144.143491722,-35.1403166981115,0
                  144.143156732,-35.1401116921115,0
                  144.142989732,-35.1401116901115,0
                  144.142905725,-35.1401807011115,0
                  144.142905729,-35.1402716991115,0
                  144.143045738,-35.1404096911115,0
                  144.143882731,-35.1408656881115,0
                </coordinates>
              </LinearRing>
            </outerBoundaryIs>
          </Polygon>
          <Polygon>
            <extrude>0</extrude>
            <altitudeMode>clampToGround</altitudeMode>
            <outerBoundaryIs>
              <LinearRing>
                <coordinates>
                  144.15283679,-35.1424081941115,0
                  144.15399551,-35.1359630931116,0
                  144.147998293,-35.1375655381115,0
                  144.150383366,-35.1409437761115,0
                  144.150737418,-35.1421895871114,0
                  144.15283679,-35.1424081941115,0
                </coordinates>
              </LinearRing>
            </outerBoundaryIs>
          </Polygon>
          <Polygon>
            <extrude>0</extrude>
            <altitudeMode>clampToGround</altitudeMode>
            <outerBoundaryIs>
              <LinearRing>
                <coordinates>
                  144.146845748,-35.1448656671114,0
                  144.146984743,-35.1448426661115,0
                  144.147123739,-35.1447276671115,0
                  144.147234731,-35.1444766571115,0
                  144.147176698,-35.1442707821115,0
                  144.147150729,-35.1441786591114,0
                  144.146954722,-35.1438586631114,0
                  144.146842727,-35.1437676601115,0
                  144.146479721,-35.1431726581115,0
                  144.146282711,-35.1426936591115,0
                  144.146003716,-35.1424646651115,0
                  144.145817624,-35.1423757871115,0
                  144.145668723,-35.1423046671115,0
                  144.145287744,-35.1420370111115,0
                  144.145083728,-35.1418936791115,0
                  144.144915722,-35.1418476721115,0
                  144.144831729,-35.1418946811115,0
                  144.14480473,-35.1420086801114,0
                  144.144916735,-35.1422596771115,0
                  144.145168731,-35.1425566801115,0
                  144.14558673,-35.1428766771115,0
                  144.145614123,-35.1429054601114,0
                  144.14597773,-35.1432876661115,0
                  144.146146736,-35.1437916751115,0
                  144.146594747,-35.1447056691114,0
                  144.146845748,-35.1448656671114,0
                </coordinates>
              </LinearRing>
            </outerBoundaryIs>
          </Polygon>
          <Polygon>
            <extrude>0</extrude>
            <altitudeMode>clampToGround</altitudeMode>
            <outerBoundaryIs>
              <LinearRing>
                <coordinates>
                  144.139868652,-35.1466420521114,0
                  144.140091874,-35.1466083481115,0
                  144.140315194,-35.1465517221115,0
                  144.140538505,-35.1464950971114,0
                  144.140775862,-35.1464156221113,0
                  144.140999173,-35.1463589971114,0
                  144.141250281,-35.1463253551115,0
                  144.141473502,-35.1462916411115,0
                  144.141696767,-35.1462464721115,0
                  144.141920177,-35.1461669431115,0
                  144.142143398,-35.1461332301114,0
                  144.142366475,-35.1461338661115,0
                  144.142589275,-35.1462032031114,0
                  144.142811976,-35.1462954511114,0
                  144.143048625,-35.1463877351114,0
                  144.143271048,-35.1465486831115,0
                  144.143334746,-35.1466383121114,0
                  144.14377486,-35.1464297951115,0
                  144.14679457,-35.1464006391114,0
                  144.147663607,-35.1457777681114,0
                  144.148049845,-35.1448215201115,0
                  144.147387126,-35.1430370931115,0
                  144.147588208,-35.1429067971115,0
                  144.147488799,-35.1428060881114,0
                  144.145271617,-35.1412731641114,0
                  144.144650434,-35.1403535851115,0
                  144.144018858,-35.1398567061116,0
                  144.143248057,-35.1395972451115,0
                  144.14299715,-35.1395318731115,0
                  144.142990309,-35.1395444021115,0
                  144.143071715,-35.1396766881115,0
                  144.143322724,-35.1398366861114,0
                  144.143575832,-35.1399173541116,0
                  144.143824716,-35.1399966751115,0
                  144.144131715,-35.1401566651115,0
                  144.144438713,-35.1404076741114,0
                  144.144717717,-35.1407956711115,0
                  144.144914718,-35.1412766691115,0
                  144.14510972,-35.1414366671115,0
                  144.145326075,-35.1415189661115,0
                  144.145527711,-35.1415956611115,0
                  144.146141708,-35.1419376641115,0
                  144.14670071,-35.1424176491115,0
                  144.147062712,-35.1427836491115,0
                  144.147241184,-35.1430752731114,0
                  144.147398708,-35.1433326471114,0
                  144.147650713,-35.1438806511115,0
                  144.147763722,-35.1442926451115,0
                  144.147737726,-35.1449106571114,0
                  144.147627344,-35.1452378611114,0
                  144.14759874,-35.1453226601115,0
                  144.147376747,-35.1456196641115,0
                  144.147154754,-35.1458026721113,0
                  144.146764758,-35.1459636741114,0
                  144.146597768,-35.1460096771115,0
                  144.146401771,-35.1459646871114,0
                  144.14629077,-35.1458956821114,0
                  144.146038765,-35.1454836891114,0
                  144.145951143,-35.1451785641115,0
                  144.145841755,-35.1447976851114,0
                  144.145505749,-35.1439746841115,0
                  144.145309752,-35.1436316851115,0
                  144.144881838,-35.1431260281115,0
                  144.144555746,-35.1427406841115,0
                  144.143773747,-35.1420096991115,0
                  144.143661742,-35.1418036971114,0
                  144.143716745,-35.1416436901115,0
                  144.144078728,-35.1414146871115,0
                  144.144078728,-35.1413701721116,0
                  144.144078728,-35.1413006841115,0
                  144.143910734,-35.1411626831115,0
                  144.143492735,-35.1410486881115,0
                  144.143158738,-35.1410267001115,0
                  144.142712744,-35.1408447041115,0
                  144.142433749,-35.1406387031114,0
                  144.142265737,-35.1402037071115,0
                  144.142174171,-35.1401140941115,0
                  144.142056267,-35.1401781801115,0
                  144.141832777,-35.1402806121115,0
                  144.141567282,-35.1404287241115,0
                  144.141343469,-35.1406113111115,0
                  144.141147534,-35.1407939791115,0
                  144.140909962,-35.1409307151115,0
                  144.14065854,-35.1410445131115,0
                  144.140393422,-35.1411010131115,0
                  144.140100407,-35.1411574321114,0
                  144.139877016,-35.1412369611115,0
                  144.139639676,-35.1413164361114,0
                  144.13936018,-35.1414759591115,0
                  144.139206017,-35.1416702001115,0
                  144.139037951,-35.1418529401115,0
                  144.13891173,-35.1420358051115,0
                  144.138855158,-35.1422303141115,0
                  144.138826464,-35.1424249041115,0
                  144.138825523,-35.1426539341114,0
                  144.138824429,-35.1429173141115,0
                  144.138837472,-35.1431349321114,0
                  144.138878536,-35.1433182721115,0
                  144.138961247,-35.1435475441115,0
                  144.139002122,-35.1437766901115,0
                  144.139042953,-35.1440172921114,0
                  144.139055808,-35.1442807081115,0
                  144.139041107,-35.1444638961115,0
                  144.139095975,-35.1446816311115,0
                  144.139178112,-35.1450483111115,0
                  144.139121298,-35.1453000831115,0
                  144.139106463,-35.1455176211115,0
                  144.13910571,-35.1457008441114,0
                  144.139132073,-35.1460673641115,0
                  144.139159144,-35.1462621241114,0
                  144.139214156,-35.1464454991115,0
                  144.139408549,-35.1466407351114,0
                  144.139631681,-35.1466299241115,0
                  144.139868652,-35.1466420521114,0
                </coordinates>
              </LinearRing>
            </outerBoundaryIs>
          </Polygon>
        </MultiGeometry>
      </Placemark>
    </Document>
  </Document>
</kml>
