<?xml version="1.0" encoding="utf-8" ?>
<kml xmlns="http://www.opengis.net/kml/2.2">
<Document id="root_doc">
<Schema name="aboriginal_heritage___no_camping" id="aboriginal_heritage___no_camping">
	<SimpleField name="fid" type="float"></SimpleField>
	<SimpleField name="type" type="string"></SimpleField>
	<SimpleField name="text" type="string"></SimpleField>
</Schema>
<Folder><name>aboriginal_heritage___no_camping</name>
  <Placemark>
	<ExtendedData><SchemaData schemaUrl="#aboriginal_heritage___no_camping">
		<SimpleData name="fid">194</SimpleData>
		<SimpleData name="type">mound</SimpleData>
		<SimpleData name="text">Earth Mound</SimpleData>
	</SchemaData></ExtendedData>
  </Placemark>
  <Placemark>
	<ExtendedData><SchemaData schemaUrl="#aboriginal_heritage___no_camping">
		<SimpleData name="fid">195</SimpleData>
		<SimpleData name="type">mound</SimpleData>
		<SimpleData name="text">Earth Mound</SimpleData>
	</SchemaData></ExtendedData>
  </Placemark>
  <Placemark>
	<ExtendedData><SchemaData schemaUrl="#aboriginal_heritage___no_camping">
		<SimpleData name="fid">196</SimpleData>
		<SimpleData name="type">mound</SimpleData>
		<SimpleData name="text">Earth Mound</SimpleData>
	</SchemaData></ExtendedData>
  </Placemark>
  <Placemark>
	<ExtendedData><SchemaData schemaUrl="#aboriginal_heritage___no_camping">
		<SimpleData name="fid">197</SimpleData>
		<SimpleData name="type">mound</SimpleData>
		<SimpleData name="text">Earth Mound</SimpleData>
	</SchemaData></ExtendedData>
  </Placemark>
  <Placemark>
	<ExtendedData><SchemaData schemaUrl="#aboriginal_heritage___no_camping">
		<SimpleData name="fid">198</SimpleData>
		<SimpleData name="type">mound</SimpleData>
		<SimpleData name="text">Earth Mound</SimpleData>
	</SchemaData></ExtendedData>
  </Placemark>
  <Placemark>
	<ExtendedData><SchemaData schemaUrl="#aboriginal_heritage___no_camping">
		<SimpleData name="fid">199</SimpleData>
		<SimpleData name="type">deposit</SimpleData>
		<SimpleData name="text">Earth Mound</SimpleData>
	</SchemaData></ExtendedData>
  </Placemark>
</Folder>
</Document></kml>
